{"type":"FeatureCollection","features":[{"type":"Feature","properties":{"Locatienummer":256,"Naam":"Locatie 1","Organisatie":"Dianet","Straat":"Brennerbaan","Nummer":"130","Postcode":"3524 BN","Plaats":"Utrecht","Type":"Categorale instellingen","Routekaart":"Voorlopig"},"geometry":{"type":"Point","coordinates":[5.14163,52.06643]}},{"type":"Feature","properties":{"Locatienummer":257,"Naam":"Locatie 2","Organisatie":"Dianet","Straat":"Bosboomstraat","Nummer":"1G","Postcode":"3582 KE","Plaats":"Utrecht","Type":"Categorale instellingen","Routekaart":"Voorlopig"},"geometry":{"type":"Point","coordinates":[5.13955,52.08191]}},{"type":"Feature","properties":{"Locatienummer":258,"Naam":"Locatie MCL Bouwdeel 4","Organisatie":"Radiotherapeutisch Instituut Friesland","Straat":"H. Dunantweg","Nummer":"2","Postcode":"8934 AD","Plaats":"Leeuwarden","Type":"Categorale instellingen","Routekaart":"Definitief en/of vastgesteld RvB"},"geometry":{"type":"Point","coordinates":[5.80651,53.18892]}},{"type":"Feature","properties":{"Locatienummer":259,"Naam":"Hoofdlocatie","Organisatie":"Kempenhaeghe","Straat":"Sterkelseweg","Nummer":"65","Postcode":"5591 VE","Plaats":"Heeze","Type":"Categorale instellingen","Routekaart":"Voorlopig"},"geometry":{"type":"Point","coordinates":[5.59614,51.36135]}},{"type":"Feature","properties":{"Locatienummer":260,"Naam":"Z1A","Organisatie":"Kempenhaeghe","Straat":"Berkenlaan","Nummer":"11-19","Postcode":"6029 TB","Plaats":"Sterksel","Type":"Categorale instellingen","Routekaart":"Voorlopig"},"geometry":{"type":"Point","coordinates":[5.62372,51.35726]}},{"type":"Feature","properties":{"Locatienummer":261,"Naam":"Z1B","Organisatie":"Kempenhaeghe","Straat":"Sparrenlaan","Nummer":"2-6","Postcode":"6029 TC","Plaats":"Sterksel","Type":"Categorale instellingen","Routekaart":"Voorlopig"},"geometry":{"type":"Point","coordinates":[5.62414,51.35678]}},{"type":"Feature","properties":{"Locatienummer":262,"Naam":"Z2","Organisatie":"Kempenhaeghe","Straat":"Berkenlaan","Nummer":"3-9","Postcode":"6029 TB","Plaats":"Sterksel","Type":"Categorale instellingen","Routekaart":"Voorlopig"},"geometry":{"type":"Point","coordinates":[5.62438,51.35759]}},{"type":"Feature","properties":{"Locatienummer":263,"Naam":"Atelier Galerie Kempro","Organisatie":"Kempenhaeghe","Straat":"Albertlaan","Nummer":"19","Postcode":"6029 PN","Plaats":"Sterksel","Type":"Categorale instellingen","Routekaart":"Voorlopig"},"geometry":{"type":"Point","coordinates":[5.62378,51.35875]}},{"type":"Feature","properties":{"Locatienummer":264,"Naam":"Opnamecentrum (OCO) en polikliniek","Organisatie":"Kempenhaeghe","Straat":"Muldersteeg","Nummer":"6","Postcode":"4901 ZG","Plaats":"Oosterhout","Type":"Categorale instellingen","Routekaart":"Voorlopig"},"geometry":{"type":"Point","coordinates":[4.87178,51.64836]}},{"type":"Feature","properties":{"Locatienummer":265,"Naam":"Heidecafé","Organisatie":"Kempenhaeghe","Straat":"De Plaetse","Nummer":"71","Postcode":"5591 TX","Plaats":"Heeze","Type":"Categorale instellingen","Routekaart":"Voorlopig"},"geometry":{"type":"Point","coordinates":[5.59023,51.3979]}},{"type":"Feature","properties":{"Locatienummer":266,"Naam":"Sint Maartenskliniek","Organisatie":"Sint Maartenskliniek","Straat":"Hengstdal","Nummer":"3","Postcode":"4207 HH","Plaats":"Ubbergen","Type":"Categorale instellingen","Routekaart":"Definitief en/of vastgesteld RvB"},"geometry":{"type":"Point","coordinates":[4.99601,51.84083]}},{"type":"Feature","properties":{"Locatienummer":267,"Naam":"Locatie Diabeter Rotterdam","Organisatie":"Diabeter Nederland BV","Straat":"Blaak","Nummer":"6","Postcode":"3011 TA","Plaats":"Rotterdam","Type":"Categorale instellingen","Routekaart":"Definitief en/of vastgesteld RvB"},"geometry":{"type":"Point","coordinates":[4.4897,51.91947]}},{"type":"Feature","properties":{"Locatienummer":268,"Naam":"Locatie Diabeter Oost Deventer","Organisatie":"Diabeter Nederland BV","Straat":"Mr. H.F. de Boerlaan","Nummer":"38B","Postcode":"7417 DB","Plaats":"Deventer","Type":"Categorale instellingen","Routekaart":"Definitief en/of vastgesteld RvB"},"geometry":{"type":"Point","coordinates":[6.16778,52.25219]}},{"type":"Feature","properties":{"Locatienummer":269,"Naam":"Locatie Diabeter Zuid Eindhoven","Organisatie":"Diabeter Nederland BV","Straat":"Fellenoord","Nummer":"330","Postcode":"5611 ZG","Plaats":"Eindhoven","Type":"Categorale instellingen","Routekaart":"Definitief en/of vastgesteld RvB"},"geometry":{"type":"Point","coordinates":[5.47284,51.44266]}},{"type":"Feature","properties":{"Locatienummer":270,"Naam":"Locatie Diabeter Schiphol","Organisatie":"Diabeter Nederland BV","Straat":"Evert van de Beekstraat","Nummer":"1-103","Postcode":"1118 CL","Plaats":"Schiphol","Type":"Categorale instellingen","Routekaart":"Definitief en/of vastgesteld RvB"},"geometry":{"type":"Point","coordinates":[4.75253,52.3055]}},{"type":"Feature","properties":{"Locatienummer":271,"Naam":"Locatie Diabeter Groningen","Organisatie":"Diabeter Nederland BV","Straat":"Griffeweg","Nummer":"97","Postcode":"9723 DV ","Plaats":"Groningen","Type":"Categorale instellingen","Routekaart":"Definitief en/of vastgesteld RvB"},"geometry":{"type":"Point","coordinates":[6.58103,53.21514]}},{"type":"Feature","properties":{"Locatienummer":272,"Naam":"RTG Locatie Arnhem","Organisatie":"Radiotherapiegroep","Straat":"Wagnerlaan","Nummer":"47","Postcode":"6815 AD","Plaats":"Arnhem","Type":"Categorale instellingen","Routekaart":"Voorlopig"},"geometry":{"type":"Point","coordinates":[5.90817,52.00138]}},{"type":"Feature","properties":{"Locatienummer":273,"Naam":"RTG Locatie Deventer","Organisatie":"Radiotherapiegroep","Straat":"Nico Bolkesteinlaan","Nummer":"85","Postcode":"7416 SE","Plaats":"Deventer","Type":"Categorale instellingen","Routekaart":"Voorlopig"},"geometry":{"type":"Point","coordinates":[6.19385,52.26059]}},{"type":"Feature","properties":{"Locatienummer":274,"Naam":"RTG Locatie Ede","Organisatie":"Radiotherapiegroep","Straat":"Willy Brandtlaan","Nummer":"10","Postcode":"6716 RP","Plaats":"Ede","Type":"Categorale instellingen","Routekaart":"Voorlopig"},"geometry":{"type":"Point","coordinates":[5.64556,52.02244]}},{"type":"Feature","properties":{"Locatienummer":275,"Naam":"RTG Locatie Apeldoorn","Organisatie":"Radiotherapiegroep","Straat":"Albert Schweitzerlaan","Nummer":"31R","Postcode":"7334 DZ","Plaats":"Apeldoorn","Type":"Categorale instellingen","Routekaart":"Voorlopig"},"geometry":{"type":"Point","coordinates":[5.94704,52.18151]}},{"type":"Feature","properties":{"Locatienummer":276,"Naam":"Locatie A t/m W Hoensbroek","Organisatie":"Adelante","Straat":"Zandbergsweg","Nummer":"111","Postcode":"6432 CC","Plaats":"Hoensbroek","Type":"Categorale instellingen","Routekaart":"Definitief en/of vastgesteld RvB"},"geometry":{"type":"Point","coordinates":[5.91038,50.92099]}},{"type":"Feature","properties":{"Locatienummer":277,"Naam":"Locatie Maastricht","Organisatie":"Adelante","Straat":"Bemelergrubbe","Nummer":"5","Postcode":"6226 NK","Plaats":"Maastricht","Type":"Categorale instellingen","Routekaart":"Definitief en/of vastgesteld RvB"},"geometry":{"type":"Point","coordinates":[5.72979,50.84889]}},{"type":"Feature","properties":{"Locatienummer":278,"Naam":"Locatie A t/m H Valkenburg a/d Geul","Organisatie":"Adelante","Straat":"Onderstestraat","Nummer":"27-33","Postcode":"6301 KA","Plaats":"Valkenburg","Type":"Categorale instellingen","Routekaart":"Definitief en/of vastgesteld RvB"},"geometry":{"type":"Point","coordinates":[5.79318,50.87023]}},{"type":"Feature","properties":{"Locatienummer":279,"Naam":"Ulingshof","Organisatie":"Adelante","Straat":"Ulingshofweg","Nummer":"26A","Postcode":"5915 PM","Plaats":"Venlo","Type":"Categorale instellingen","Routekaart":"Definitief en/of vastgesteld RvB"},"geometry":{"type":"Point","coordinates":[6.18681,51.33792]}},{"type":"Feature","properties":{"Locatienummer":280,"Naam":"Villa Franca","Organisatie":"Adelante","Straat":"Deken Nicolayestraat","Nummer":"21","Postcode":"6411 CL","Plaats":"Heerlen","Type":"Categorale instellingen","Routekaart":"Definitief en/of vastgesteld RvB"},"geometry":{"type":"Point","coordinates":[5.97655,50.88438]}},{"type":"Feature","properties":{"Locatienummer":281,"Naam":"Basalt Den Haag","Organisatie":"Basalt","Straat":"Vrederustlaan","Nummer":"180","Postcode":"2543 SW","Plaats":"Den Haag","Type":"Categorale instellingen","Routekaart":"Voorlopig"},"geometry":{"type":"Point","coordinates":[4.26744,52.04091]}},{"type":"Feature","properties":{"Locatienummer":282,"Naam":"Basalt Leiden","Organisatie":"Basalt","Straat":"Wassenaarseweg","Nummer":"501","Postcode":"2333 AL","Plaats":"Leiden","Type":"Categorale instellingen","Routekaart":"Voorlopig"},"geometry":{"type":"Point","coordinates":[4.46912,52.17068]}},{"type":"Feature","properties":{"Locatienummer":283,"Naam":"Basalt Delft","Organisatie":"Basalt","Straat":"Reinier De Graafweg","Nummer":"1","Postcode":"2625 AD","Plaats":"Delft","Type":"Categorale instellingen","Routekaart":"Voorlopig"},"geometry":{"type":"Point","coordinates":[4.34322,51.99867]}},{"type":"Feature","properties":{"Locatienummer":284,"Naam":"Basalt Gouda","Organisatie":"Basalt","Straat":"Buchnerweg","Nummer":"1","Postcode":"2803 GR","Plaats":"Gouda","Type":"Categorale instellingen","Routekaart":"Voorlopig"},"geometry":{"type":"Point","coordinates":[4.70346,52.0215]}},{"type":"Feature","properties":{"Locatienummer":285,"Naam":"De Hoogstraat Revalidatie","Organisatie":"De Hoogstraat Revalidatie","Straat":"Rembrandtkade","Nummer":"10","Postcode":"3583 TM","Plaats":"Utrecht","Type":"Categorale instellingen","Routekaart":"Voorlopig"},"geometry":{"type":"Point","coordinates":[5.14571,52.0872]}},{"type":"Feature","properties":{"Locatienummer":286,"Naam":"Volwassenenrevalidatie","Organisatie":"De Vogellanden Centrum voor Revalidatie","Straat":"Hyacinthstraat","Nummer":"66A","Postcode":"8013 XZ","Plaats":"Zwolle","Type":"Categorale instellingen","Routekaart":"Definitief en/of vastgesteld RvB"},"geometry":{"type":"Point","coordinates":[6.11696,52.50268]}},{"type":"Feature","properties":{"Locatienummer":287,"Naam":"Kinderrevalidatie","Organisatie":"De Vogellanden Centrum voor Revalidatie","Straat":"Hyacinthstraat","Nummer":"59","Postcode":"8013 XZ","Plaats":"Zwolle","Type":"Categorale instellingen","Routekaart":"Definitief en/of vastgesteld RvB"},"geometry":{"type":"Point","coordinates":[6.11669,52.50362]}},{"type":"Feature","properties":{"Locatienummer":288,"Naam":"Heliomare College","Organisatie":"Heliomare","Straat":"Amstelstraat","Nummer":"5","Postcode":"1823 EV","Plaats":"Alkmaar","Type":"Categorale instellingen","Routekaart":"Voorlopig"},"geometry":{"type":"Point","coordinates":[4.76844,52.63148]}},{"type":"Feature","properties":{"Locatienummer":289,"Naam":"Heliomare De Alk","Organisatie":"Heliomare","Straat":"Van Harenlaan","Nummer":"23","Postcode":"1813 KE","Plaats":"Alkmaar","Type":"Categorale instellingen","Routekaart":"Voorlopig"},"geometry":{"type":"Point","coordinates":[4.74651,52.61748]}},{"type":"Feature","properties":{"Locatienummer":290,"Naam":"Heliomare De Ruimte","Organisatie":"Heliomare","Straat":"Oudtburghweg","Nummer":"3","Postcode":"1862 PX","Plaats":"Bergen","Type":"Categorale instellingen","Routekaart":"Voorlopig"},"geometry":{"type":"Point","coordinates":[4.71046,52.68016]}},{"type":"Feature","properties":{"Locatienummer":291,"Naam":"Heliomare De Velst","Organisatie":"Heliomare","Straat":"De Velst","Nummer":"1","Postcode":"1963 KL","Plaats":"Heemskerk","Type":"Categorale instellingen","Routekaart":"Voorlopig"},"geometry":{"type":"Point","coordinates":[4.6847,52.51367]}},{"type":"Feature","properties":{"Locatienummer":292,"Naam":"Hoofdlocatie","Organisatie":"Klimmendaal Revalidatiespecialisten","Straat":"Heijenoordseweg","Nummer":"5","Postcode":"6813 GG","Plaats":"Arnhem","Type":"Categorale instellingen","Routekaart":"Definitief en/of vastgesteld RvB"},"geometry":{"type":"Point","coordinates":[5.87808,51.99098]}},{"type":"Feature","properties":{"Locatienummer":293,"Naam":"Locatie Arnhemseweg","Organisatie":"Klimmendaal Revalidatiespecialisten","Straat":"Arnhemseweg","Nummer":"11","Postcode":"7331 BA","Plaats":"Apeldoorn","Type":"Categorale instellingen","Routekaart":"Definitief en/of vastgesteld RvB"},"geometry":{"type":"Point","coordinates":[5.96596,52.20807]}},{"type":"Feature","properties":{"Locatienummer":294,"Naam":"Locatie Blixembosch","Organisatie":"Libra Revalidatie & Audiologie","Straat":"Toledolaan","Nummer":"2","Postcode":"5629 CC","Plaats":"Eindhoven","Type":"Categorale instellingen","Routekaart":"Voorlopig"},"geometry":{"type":"Point","coordinates":[5.4534,51.49057]}},{"type":"Feature","properties":{"Locatienummer":295,"Naam":"Locatie Leijpark","Organisatie":"Libra Revalidatie & Audiologie","Straat":"Prof. Stoltehof","Nummer":"3","Postcode":"5022 KE","Plaats":"Tilburg","Type":"Categorale instellingen","Routekaart":"Voorlopig"},"geometry":{"type":"Point","coordinates":[5.10353,51.54148]}},{"type":"Feature","properties":{"Locatienummer":296,"Naam":"Locatie Dr. Jan van Breemenstraat","Organisatie":"Reade Revalidatie & Reumatologie","Straat":"Admiraal Helfrichstraat","Nummer":"1","Postcode":"1056 AA","Plaats":"Amsterdam","Type":"Categorale instellingen","Routekaart":"Definitief en/of vastgesteld RvB"},"geometry":{"type":"Point","coordinates":[4.84441,52.37074]}},{"type":"Feature","properties":{"Locatienummer":297,"Naam":"Locatie Overtoom","Organisatie":"Reade Revalidatie & Reumatologie","Straat":"Overtoom","Nummer":"283","Postcode":"1054 HW","Plaats":"Amsterdam","Type":"Categorale instellingen","Routekaart":"Definitief en/of vastgesteld RvB"},"geometry":{"type":"Point","coordinates":[4.86685,52.36038]}},{"type":"Feature","properties":{"Locatienummer":298,"Naam":"Locatie Lyndenstein Hoofdgebouw","Organisatie":"Revalidatie Friesland","Straat":"Hoofdstraat","Nummer":"3","Postcode":"9244 CL","Plaats":"Beetsterzwaag","Type":"Categorale instellingen","Routekaart":"Voorlopig"},"geometry":{"type":"Point","coordinates":[6.07348,53.05978]}},{"type":"Feature","properties":{"Locatienummer":299,"Naam":"Locatie Breda","Organisatie":"Revant","Straat":"Brabantlaan","Nummer":"1","Postcode":"4817 JW","Plaats":"Breda","Type":"Categorale instellingen","Routekaart":"Voorlopig"},"geometry":{"type":"Point","coordinates":[4.79022,51.58857]}},{"type":"Feature","properties":{"Locatienummer":300,"Naam":"Locatie Lindenhof","Organisatie":"Revant","Straat":"s-Gravenpolderseweg","Nummer":"114a","Postcode":"4462 RA","Plaats":"Goes","Type":"Categorale instellingen","Routekaart":"Voorlopig"},"geometry":{"type":"Point","coordinates":[3.90922,51.48465]}},{"type":"Feature","properties":{"Locatienummer":301,"Naam":"Locatie Reigerbos","Organisatie":"Revant","Straat":"Schubertlaan","Nummer":"21","Postcode":"4462 KA","Plaats":"Goes","Type":"Categorale instellingen","Routekaart":"Voorlopig"},"geometry":{"type":"Point","coordinates":[3.89745,51.4899]}},{"type":"Feature","properties":{"Locatienummer":302,"Naam":"Locatie De Wielingen","Organisatie":"Revant","Straat":"Vlietstraat","Nummer":"8","Postcode":"4535 HA","Plaats":"Terneuzen","Type":"Categorale instellingen","Routekaart":"Voorlopig"},"geometry":{"type":"Point","coordinates":[3.8593,51.30949]}}]}