{"type":"FeatureCollection","features":[{"type":"Feature","properties":{"Naam":"Rendiz Zorg B.V.","Organisatie":"Rendiz Zorg B.V.","Soort zorg":"Geestelijke gezondheids- en verslavingszorg met overnachting","Huisnummer":"4","Postcode":"5981NK","Plaats":"Panningen"},"geometry":{"type":"Point","coordinates":[5.98808,51.33596]}},{"type":"Feature","properties":{"Naam":"Mondriaan","Organisatie":"Stichting Mondriaan","Soort zorg":"Geestelijke gezondheids- en verslavingszorg met overnachting","Huisnummer":"301","Postcode":"6419XZ","Plaats":"Heerlen"},"geometry":{"type":"Point","coordinates":[5.97108,50.86711]}},{"type":"Feature","properties":{"Naam":"GGzE","Organisatie":"Stichting GGzE","Soort zorg":"Geestelijke gezondheids- en verslavingszorg met overnachting","Huisnummer":"40","Postcode":"5626ND","Plaats":"Eindhoven","Routekaart":"Voorlopig","Ambitie":"Route tot +-2025"},"geometry":{"type":"Point","coordinates":[5.44567,51.46786]}},{"type":"Feature","properties":{"Naam":"Centrumlocatie De La Salle","Organisatie":"Stichting De La Salle","Soort zorg":"Geestelijke gezondheids- en verslavingszorg met overnachting","Huisnummer":"1","Postcode":"5283AB","Plaats":"Boxtel"},"geometry":{"type":"Point","coordinates":[5.33213,51.5924]}},{"type":"Feature","properties":{"Naam":"St.GGz Breburg Groep/Regio Breda/Midden-Brab.","Organisatie":"St.GGz Breburg Groep/Regio Breda/Midden-Brab.","Soort zorg":"Geestelijke gezondheids- en verslavingszorg met overnachting","Huisnummer":"7","Postcode":"5017JD","Plaats":"Tilburg","Routekaart":"Voorlopig","Ambitie":"Route tot 2030"},"geometry":{"type":"Point","coordinates":[5.10359,51.55838]}},{"type":"Feature","properties":{"Naam":"Stg. GGZ Westelijk Noord-Brabant (GGZ-WNB)","Organisatie":"Stg GGZ Westelijk Noord-Brabant (GGZ-WNB)","Soort zorg":"Geestelijke gezondheids- en verslavingszorg met overnachting","Huisnummer":"8","Postcode":"4661AA","Plaats":"Halsteren"},"geometry":{"type":"Point","coordinates":[4.30033,51.51653]}},{"type":"Feature","properties":{"Naam":"Stichting Wonen en Psychiatrie","Organisatie":"Stichting Wonen en Psychiatrie","Soort zorg":"Geestelijke gezondheids- en verslavingszorg met overnachting","Huisnummer":"8a","Postcode":"4537AJ","Plaats":"Terneuzen"},"geometry":{"type":"Point","coordinates":[3.82975,51.3343]}},{"type":"Feature","properties":{"Naam":"GGZ Delfland locatie De Draeck","Organisatie":"GGZ Delfland","Soort zorg":"Geestelijke gezondheids- en verslavingszorg met overnachting","Huisnummer":"2","Postcode":"2612GA","Plaats":"Delft","Routekaart":"Voorlopig","Ambitie":"EM ingepland"},"geometry":{"type":"Point","coordinates":[4.36051,52.02205]}},{"type":"Feature","properties":{"Naam":"Youz B.V.","Organisatie":"Youz B.V.","Soort zorg":"Geestelijke gezondheids- en verslavingszorg met overnachting","Huisnummer":"93","Postcode":"2553RJ","Plaats":"'s-Gravenhage"},"geometry":{"type":"Point","coordinates":[4.2096,52.0454]}},{"type":"Feature","properties":{"Naam":"Stichting Kwintes","Organisatie":"Stichting Kwintes","Soort zorg":"Geestelijke gezondheids- en verslavingszorg met overnachting","Huisnummer":"3213","Postcode":"3706AR","Plaats":"Zeist"},"geometry":{"type":"Point","coordinates":[5.22096,52.10008]}},{"type":"Feature","properties":{"Naam":"GGz Centraal locatie Zon & Schild","Organisatie":"Stichting GGz Centraal","Soort zorg":"Geestelijke gezondheids- en verslavingszorg met overnachting","Huisnummer":"266","Postcode":"3818EW","Plaats":"Amersfoort"},"geometry":{"type":"Point","coordinates":[5.34133,52.13419]}},{"type":"Feature","properties":{"Naam":"GGZ inGeest Overschiestraat","Organisatie":"Stichting GGZ inGeest","Soort zorg":"Geestelijke gezondheids- en verslavingszorg met overnachting","Huisnummer":"57","Postcode":"1062HN","Plaats":"Amsterdam","Routekaart":"Voorlopig","Ambitie":"EM ingepland"},"geometry":{"type":"Point","coordinates":[4.83993,52.34804]}},{"type":"Feature","properties":{"Naam":"Dennenoord","Organisatie":"Stichting Lentis","Soort zorg":"Geestelijke gezondheids- en verslavingszorg met overnachting","Huisnummer":"6","Postcode":"9471KA","Plaats":"Zuidlaren"},"geometry":{"type":"Point","coordinates":[6.67318,53.08646]}},{"type":"Feature","properties":{"Naam":"Accare, bestuursbureau en centrale diensten","Organisatie":"Stichting Accare","Soort zorg":"Geestelijke gezondheids- en verslavingszorg met overnachting","Huisnummer":"352","Postcode":"9402LT","Plaats":"Assen"},"geometry":{"type":"Point","coordinates":[6.56937,53.0103]}},{"type":"Feature","properties":{"Naam":"Stichting De Hezenberg","Organisatie":"Stichting De Hezenberg","Soort zorg":"Geestelijke gezondheids- en verslavingszorg met overnachting","Huisnummer":"6","Postcode":"8051CB","Plaats":"Hattem"},"geometry":{"type":"Point","coordinates":[6.08109,52.46091]}},{"type":"Feature","properties":{"Naam":"Stichting Riwis Zorg & Welzijn","Organisatie":"Stichting Riwis Zorg & Welzijn","Soort zorg":"Geestelijke gezondheids- en verslavingszorg met overnachting","Huisnummer":"1419","Postcode":"7312GA","Plaats":"Apeldoorn"},"geometry":{"type":"Point","coordinates":[5.94956,52.20629]}},{"type":"Feature","properties":{"Naam":"Pro Persona GGz","Organisatie":"stichting Pro Persona GGz","Soort zorg":"Geestelijke gezondheids- en verslavingszorg met overnachting","Huisnummer":"2","Postcode":"6874BE","Plaats":"Wolfheze"},"geometry":{"type":"Point","coordinates":[5.7863,52.00406]}},{"type":"Feature","properties":{"Naam":"Pompestichting","Organisatie":"Pompestichting","Soort zorg":"Geestelijke gezondheids- en verslavingszorg met overnachting","Huisnummer":"55","Postcode":"6532CN","Plaats":"Nijmegen"},"geometry":{"type":"Point","coordinates":[5.8266,51.82042]}},{"type":"Feature","properties":{"Naam":"Stg RIBW Nijmegen & Rivierenland","Organisatie":"Stg RIBW Nijmegen & Rivierenland","Soort zorg":"Geestelijke gezondheids- en verslavingszorg met overnachting","Huisnummer":"1103a","Postcode":"6546BC","Plaats":"Nijmegen"},"geometry":{"type":"Point","coordinates":[5.79021,51.8269]}},{"type":"Feature","properties":{"Naam":"Mutsaersstichting locatie Venlo","Organisatie":"Mutsaersstichting","Soort zorg":"Geestelijke gezondheids- en verslavingszorg met overnachting","Huisnummer":"88","Postcode":"5915HB","Plaats":"Venlo"},"geometry":{"type":"Point","coordinates":[6.19899,51.36694]}},{"type":"Feature","properties":{"Naam":"Stichting met ggz","Organisatie":"Stichting MET ggz","Soort zorg":"Geestelijke gezondheids- en verslavingszorg met overnachting","Huisnummer":"8","Postcode":"6041LA","Plaats":"Roermond"},"geometry":{"type":"Point","coordinates":[5.98306,51.19736]}},{"type":"Feature","properties":{"Naam":"Stg. \"De Rooyse Wissel\"","Organisatie":"St. Forensisch Psych. Centr. De Rooys Wissel","Soort zorg":"Geestelijke gezondheids- en verslavingszorg met overnachting","Huisnummer":"12a","Postcode":"5807EA","Plaats":"Oostrum"},"geometry":{"type":"Point","coordinates":[6.03872,51.52772]}},{"type":"Feature","properties":{"Naam":"RvA-Bethaniestraat 2","Organisatie":"G.G.Z. 's-Hertogenbosch/Reinier van Arkel","Soort zorg":"Geestelijke gezondheids- en verslavingszorg met overnachting","Huisnummer":"2","Postcode":"5211LJ","Plaats":"'s-Hertogenbosch"},"geometry":{"type":"Point","coordinates":[5.31307,51.6874]}},{"type":"Feature","properties":{"Naam":"GGZ Oost Brabant","Organisatie":"GGZ Oost-Brabant","Soort zorg":"Geestelijke gezondheids- en verslavingszorg met overnachting","Huisnummer":"2","Postcode":"5427EM","Plaats":"Boekel"},"geometry":{"type":"Point","coordinates":[5.71191,51.58968]}},{"type":"Feature","properties":{"Naam":"Stichting De Hoop","Organisatie":"St. De Hoop","Soort zorg":"Geestelijke gezondheids- en verslavingszorg met overnachting","Huisnummer":"70","Postcode":"3329KP","Plaats":"Dordrecht"},"geometry":{"type":"Point","coordinates":[4.72011,51.79429]}},{"type":"Feature","properties":{"Naam":"St. FPC De Kijvelanden","Organisatie":"Stichting FPC De Kijvelanden","Soort zorg":"Geestelijke gezondheids- en verslavingszorg met overnachting","Huisnummer":"1","Postcode":"3172AB","Plaats":"Poortugaal"},"geometry":{"type":"Point","coordinates":[4.38754,51.84612]}},{"type":"Feature","properties":{"Naam":"Stichting Victory Centre","Organisatie":"Stichting Victory Centre","Soort zorg":"Geestelijke gezondheids- en verslavingszorg met overnachting","Huisnummer":"69","Postcode":"3081AA","Plaats":"Rotterdam"},"geometry":{"type":"Point","coordinates":[4.48606,51.89577]}},{"type":"Feature","properties":{"Naam":"Stichting Anton Constandse","Organisatie":"Stichting Anton Constandse","Soort zorg":"Geestelijke gezondheids- en verslavingszorg met overnachting","Huisnummer":"15","Postcode":"2544EH","Plaats":"'s-Gravenhage"},"geometry":{"type":"Point","coordinates":[4.24342,52.04316]}},{"type":"Feature","properties":{"Naam":"Curium-LUMC","Organisatie":"Stichting Curium","Soort zorg":"Geestelijke gezondheids- en verslavingszorg met overnachting","Huisnummer":"27","Postcode":"2342AK","Plaats":"Oegstgeest"},"geometry":{"type":"Point","coordinates":[4.45737,52.17293]}},{"type":"Feature","properties":{"Naam":"Stichting De Forensische Zorgspecialisten","Organisatie":"Stichting De Forensische Zorgspecialisten","Soort zorg":"Geestelijke gezondheids- en verslavingszorg met overnachting","Huisnummer":"2","Postcode":"3515GB","Plaats":"Utrecht"},"geometry":{"type":"Point","coordinates":[5.11137,52.10427]}},{"type":"Feature","properties":{"Naam":"GGZ Dennenweg","Organisatie":"Stichting GGZ Drenthe","Soort zorg":"Geestelijke gezondheids- en verslavingszorg met overnachting","Huisnummer":"9","Postcode":"9404LA","Plaats":"Assen"},"geometry":{"type":"Point","coordinates":[6.56863,52.98266]}},{"type":"Feature","properties":{"Naam":"De Regenboog Groep","Organisatie":"De Regenboog Groep","Soort zorg":"Geestelijke gezondheids- en verslavingszorg met overnachting","Huisnummer":"1d","Postcode":"1013GE","Plaats":"Amsterdam"},"geometry":{"type":"Point","coordinates":[4.89487,52.38039]}},{"type":"Feature","properties":{"Naam":"Stichting Leviaan","Organisatie":"Leviaan","Soort zorg":"Geestelijke gezondheids- en verslavingszorg met overnachting","Huisnummer":"201","Postcode":"1441MN","Plaats":"Purmerend"},"geometry":{"type":"Point","coordinates":[4.95774,52.50392]}},{"type":"Feature","properties":{"Naam":"Stichting GGZ Noord-Holland-Noord","Organisatie":"Stichting GGZ Noord-Holland-Noord","Soort zorg":"Geestelijke gezondheids- en verslavingszorg met overnachting","Huisnummer":"138","Postcode":"1703WC","Plaats":"Heerhugowaard"},"geometry":{"type":"Point","coordinates":[4.82049,52.66684]}},{"type":"Feature","properties":{"Naam":"Woon-Zorgboerderij \"De Mozekeshoeve\"","Organisatie":"Woon-Zorgboerderij \"De Mozekeshoeve\"","Soort zorg":"Geestelijke gezondheids- en verslavingszorg met overnachting","Huisnummer":"3","Postcode":"5575XL","Plaats":"Luyksgestel"},"geometry":{"type":"Point","coordinates":[5.3393,51.29431]}},{"type":"Feature","properties":{"Naam":"Zorggroep 't Achterhuus B.V.","Organisatie":"Zorggroep 't Achterhuus B.V.","Soort zorg":"Geestelijke gezondheids- en verslavingszorg met overnachting","Huisnummer":"11","Postcode":"7915AB","Plaats":"Alteveer gem Hoogeveen"},"geometry":{"type":"Point","coordinates":[6.50438,52.6859]}},{"type":"Feature","properties":{"Naam":"Zorgboerderij \"De Kleine Vos\"","Organisatie":"Zorgboerderij \"De Kleine Vos\"","Soort zorg":"Geestelijke gezondheids- en verslavingszorg met overnachting","Huisnummer":"1","Postcode":"8267AL","Plaats":"Kampen"},"geometry":{"type":"Point","coordinates":[5.84706,52.60744]}},{"type":"Feature","properties":{"Naam":"Stichting Pret in herstel","Organisatie":"Pih","Soort zorg":"Geestelijke gezondheids- en verslavingszorg met overnachting","Huisnummer":"170","Postcode":"2517BH","Plaats":"'s-Gravenhage"},"geometry":{"type":"Point","coordinates":[4.2876,52.08148]}},{"type":"Feature","properties":{"Naam":"Amethist Verslavingszorg Flevoland","Organisatie":"Amethist Verslavingszorg Flevoland","Soort zorg":"Geestelijke gezondheids- en verslavingszorg met overnachting","Huisnummer":"183","Postcode":"1316BM","Plaats":"Almere"},"geometry":{"type":"Point","coordinates":[5.23013,52.37735]}},{"type":"Feature","properties":{"Naam":"Vincere-GGZ B.V.","Organisatie":"Vincere-GGZ B.V.","Soort zorg":"Geestelijke gezondheids- en verslavingszorg met overnachting","Huisnummer":"47","Postcode":"6131KM","Plaats":"Sittard"},"geometry":{"type":"Point","coordinates":[5.86039,50.99978]}},{"type":"Feature","properties":{"Naam":"Woonbegeleiding Uit Eigen Hout","Organisatie":"Woonbegeleiding Uit Eigen Hout","Soort zorg":"Geestelijke gezondheids- en verslavingszorg met overnachting","Huisnummer":"13","Postcode":"5463PB","Plaats":"Veghel"},"geometry":{"type":"Point","coordinates":[5.57059,51.59638]}},{"type":"Feature","properties":{"Naam":"Vechtdal Kliniek B.V.","Organisatie":"Vechtdal Kliniek B.V.","Soort zorg":"Geestelijke gezondheids- en verslavingszorg met overnachting","Huisnummer":"4a","Postcode":"7772SE","Plaats":"Hardenberg"},"geometry":{"type":"Point","coordinates":[6.63227,52.5705]}},{"type":"Feature","properties":{"Naam":"Villa Papillon B.V.","Organisatie":"Villa Papillon B.V.","Soort zorg":"Geestelijke gezondheids- en verslavingszorg met overnachting","Huisnummer":"33","Postcode":"5076AJ","Plaats":"Haaren"},"geometry":{"type":"Point","coordinates":[5.21967,51.59794]}},{"type":"Feature","properties":{"Naam":"New Life Living B.V.","Organisatie":"New Life Living B.V.","Soort zorg":"Geestelijke gezondheids- en verslavingszorg met overnachting","Huisnummer":"38a","Postcode":"2511EJ","Plaats":"'s-Gravenhage"},"geometry":{"type":"Point","coordinates":[4.31917,52.08092]}},{"type":"Feature","properties":{"Naam":"Zintri Home 4 You B.V.","Organisatie":"Zintri Home 4 You B.V.","Soort zorg":"Geestelijke gezondheids- en verslavingszorg met overnachting","Huisnummer":"53","Postcode":"5121JA","Plaats":"Rijen"},"geometry":{"type":"Point","coordinates":[4.91782,51.59122]}},{"type":"Feature","properties":{"Naam":"Begeleid Wonen Pijler B.V.","Organisatie":"Begeleid Wonen Pijler B.V.","Soort zorg":"Geestelijke gezondheids- en verslavingszorg met overnachting","Huisnummer":"2","Postcode":"5347KB","Plaats":"Oss"},"geometry":{"type":"Point","coordinates":[5.52722,51.77666]}},{"type":"Feature","properties":{"Naam":"Nieuwe Start Woonzorg B.V.","Organisatie":"Nieuwe Start Woonzorg B.V.","Soort zorg":"Geestelijke gezondheids- en verslavingszorg met overnachting","Huisnummer":"88","Postcode":"5613DM","Plaats":"Eindhoven"},"geometry":{"type":"Point","coordinates":[5.49327,51.43837]}},{"type":"Feature","properties":{"Naam":"Tanja's Coaching&Care","Organisatie":"Tanja's Coaching&Care","Soort zorg":"Geestelijke gezondheids- en verslavingszorg met overnachting","Huisnummer":"10","Postcode":"1336AN","Plaats":"Almere"},"geometry":{"type":"Point","coordinates":[5.3132,52.40508]}},{"type":"Feature","properties":{"Naam":"Pi-groep Zorg B.V.","Organisatie":"Pi-groep Zorg B.V.","Soort zorg":"Geestelijke gezondheids- en verslavingszorg met overnachting","Huisnummer":"1","Postcode":"9202LB","Plaats":"Drachten"},"geometry":{"type":"Point","coordinates":[6.12505,53.10769]}},{"type":"Feature","properties":{"Naam":"Tactus Verslavingszorg","Organisatie":"Stichting Tactus Verslavingszorg","Soort zorg":"Geestelijke gezondheids- en verslavingszorg met overnachting","Huisnummer":"3","Postcode":"7418ET","Plaats":"Deventer","Routekaart":"Voorlopig","Ambitie":"EM ingepland"},"geometry":{"type":"Point","coordinates":[6.19193,52.23642]}},{"type":"Feature","properties":{"Naam":"Stichting De Berkelhof","Organisatie":"Stichting De Berkelhof","Soort zorg":"Geestelijke gezondheids- en verslavingszorg met overnachting","Huisnummer":"4","Postcode":"7273PV","Plaats":"Haarlo"},"geometry":{"type":"Point","coordinates":[6.58226,52.11479]}},{"type":"Feature","properties":{"Naam":"Stichting GGNet","Organisatie":"Stichting GGNet","Soort zorg":"Geestelijke gezondheids- en verslavingszorg met overnachting","Huisnummer":"12","Postcode":"7231PA","Plaats":"Warnsveld","Routekaart":"Voorlopig","Ambitie":"Route tot +-2025"},"geometry":{"type":"Point","coordinates":[6.24586,52.13505]}},{"type":"Feature","properties":{"Naam":"Bosman GGZ B.V.","Organisatie":"Bosman GGZ B.V.","Soort zorg":"Geestelijke gezondheids- en verslavingszorg met overnachting","Huisnummer":"22","Postcode":"3818KG","Plaats":"Amersfoort"},"geometry":{"type":"Point","coordinates":[5.35311,52.14551]}}]}