{"type":"FeatureCollection","features":[{"type":"Feature","properties":{"Naam":"Zorgkwekerij/atelier Heemels","Organisatie":"Zorgboerderij Heemels","Soort zorg":"onbekend","Huisnummer":"67","Postcode":"6104RH","Plaats":"Koningsbosch"},"geometry":{"type":"Point","coordinates":[5.93692,51.05339]}},{"type":"Feature","properties":{"Naam":"Daelzicht","Organisatie":"Daelzicht","Soort zorg":"Huizen en dagverblijven voor verstandelijk gehandicapten","Huisnummer":"17","Postcode":"6097AV","Plaats":"Heel"},"geometry":{"type":"Point","coordinates":[5.89915,51.18074]}},{"type":"Feature","properties":{"Naam":"Stichting Wonen Plus","Organisatie":"Stichting WonenPlus","Soort zorg":"Huizen en dagverblijven voor verstandelijk gehandicapten","Huisnummer":"170","Postcode":"6161BV","Plaats":"Geleen"},"geometry":{"type":"Point","coordinates":[5.82199,50.96301]}},{"type":"Feature","properties":{"Naam":"Stichting RADAR","Organisatie":"Stichting RADAR","Soort zorg":"Huizen en dagverblijven voor verstandelijk gehandicapten","Huisnummer":"35a01","Postcode":"6229EG","Plaats":"Maastricht"},"geometry":{"type":"Point","coordinates":[5.70531,50.837]}},{"type":"Feature","properties":{"Naam":"Stichting Pergamijn","Organisatie":"Stichting Pergamijn","Soort zorg":"Huizen en dagverblijven voor verstandelijk gehandicapten","Huisnummer":"4","Postcode":"6102RJ","Plaats":"Echt","Routekaart":"Voorlopig","Ambitie":"Route tot +-2025"},"geometry":{"type":"Point","coordinates":[5.91698,51.08735]}},{"type":"Feature","properties":{"Naam":"Stichting NOVIzorg","Organisatie":"Stichting NOVIzorg","Soort zorg":"Huizen en dagverblijven voor verstandelijk gehandicapten","Huisnummer":"22","Postcode":"6431GH","Plaats":"Hoensbroek"},"geometry":{"type":"Point","coordinates":[5.9322,50.92995]}},{"type":"Feature","properties":{"Naam":"Zorgboerderij Ransdalerveld","Organisatie":"Zorgboerderij Ransdalerveld","Soort zorg":"onbekend","Huisnummer":"30","Postcode":"6312AE","Plaats":"Ransdaal"},"geometry":{"type":"Point","coordinates":[5.89259,50.86154]}},{"type":"Feature","properties":{"Naam":"Zorgboerderij der Bösch","Organisatie":"\"Zorgboederij der Bösch\"","Soort zorg":"onbekend","Huisnummer":"66","Postcode":"6374BX","Plaats":"Landgraaf"},"geometry":{"type":"Point","coordinates":[6.03293,50.92392]}},{"type":"Feature","properties":{"Naam":"Stg. Gastenh.Maastr. Heuvelland West. Mijnstr","Organisatie":"Stg Gastenhof Maastricht Mijnstreek","Soort zorg":"onbekend","Huisnummer":"13","Postcode":"6129CA","Plaats":"Urmond"},"geometry":{"type":"Point","coordinates":[5.76796,50.99327]}},{"type":"Feature","properties":{"Naam":"Logeergezin Pinokkio","Organisatie":"Logeergezin Pinokkio V.O.F.","Soort zorg":"onbekend","Huisnummer":"7","Postcode":"6461HZ","Plaats":"Kerkrade"},"geometry":{"type":"Point","coordinates":[6.07705,50.86152]}},{"type":"Feature","properties":{"Naam":"Ezelstal Hans & Grietje","Organisatie":"Ezelstal Hans & Grietje","Soort zorg":"onbekend","Huisnummer":"20","Postcode":"6227SZ","Plaats":"Maastricht"},"geometry":{"type":"Point","coordinates":[5.72968,50.83616]}},{"type":"Feature","properties":{"Naam":"Rondmeer","Organisatie":"Rondmeer","Soort zorg":"onbekend","Huisnummer":"3","Postcode":"6093PA","Plaats":"Heythuysen"},"geometry":{"type":"Point","coordinates":[5.87492,51.27733]}},{"type":"Feature","properties":{"Naam":"Stichting Artidé Zorg","Organisatie":"Stichting Artidé Zorg","Soort zorg":"onbekend","Huisnummer":"7","Postcode":"6286AM","Plaats":"Wittem"},"geometry":{"type":"Point","coordinates":[5.91645,50.8089]}},{"type":"Feature","properties":{"Naam":"Zorgboerderij Asselterhof","Organisatie":"Maatschap Dings-Relouw","Soort zorg":"onbekend","Huisnummer":"26","Postcode":"6071NW","Plaats":"Swalmen"},"geometry":{"type":"Point","coordinates":[6.01257,51.2244]}},{"type":"Feature","properties":{"Naam":"Stichting Dichterbij","Organisatie":"Stichting Dichterbij","Soort zorg":"Huizen en dagverblijven voor verstandelijk gehandicapten","Huisnummer":"2","Postcode":"6591RC","Plaats":"Gennep"},"geometry":{"type":"Point","coordinates":[5.9752,51.68702]}},{"type":"Feature","properties":{"Naam":"Stichting Sterk in Werk","Organisatie":"Stichting Sterk in Werk","Soort zorg":"onbekend","Huisnummer":"1","Postcode":"5283AB","Plaats":"Boxtel"},"geometry":{"type":"Point","coordinates":[5.33213,51.5924]}},{"type":"Feature","properties":{"Naam":"Cello","Organisatie":"Stichting Cello","Soort zorg":"onbekend","Huisnummer":"14","Postcode":"5261LM","Plaats":"Vught"},"geometry":{"type":"Point","coordinates":[5.29527,51.64676]}},{"type":"Feature","properties":{"Naam":"Stichting KBWO","Organisatie":"Stichting KBWO","Soort zorg":"Huizen en dagverblijven voor verstandelijk gehandicapten","Huisnummer":"36","Postcode":"5704HA","Plaats":"Helmond"},"geometry":{"type":"Point","coordinates":[5.70548,51.46164]}},{"type":"Feature","properties":{"Naam":"Het Paardrijk V.O.F.","Organisatie":"Het Paardrijk V.O.F.","Soort zorg":"onbekend","Huisnummer":"39","Postcode":"5258TN","Plaats":"Berlicum"},"geometry":{"type":"Point","coordinates":[5.43984,51.68632]}},{"type":"Feature","properties":{"Naam":"Zorgboerderij Hemelrijksche Hoeve B.V.","Organisatie":"Zorgboerderij Hemelrijksche Hoeve B.V.","Soort zorg":"onbekend","Huisnummer":"30","Postcode":"5074RA","Plaats":"Biezenmortel"},"geometry":{"type":"Point","coordinates":[5.15341,51.63577]}},{"type":"Feature","properties":{"Naam":"MEMO Mensen & Mogelijkheden","Organisatie":"V.O.F. MEMO Mensen & Mogelijkheden","Soort zorg":"onbekend","Huisnummer":"23c","Postcode":"5427PS","Plaats":"Boekel"},"geometry":{"type":"Point","coordinates":[5.664,51.61403]}},{"type":"Feature","properties":{"Naam":"Dagopvang 't Boantje","Organisatie":"Dagopvang 't Boantje","Soort zorg":"onbekend","Huisnummer":"2","Postcode":"5056ST","Plaats":"Berkel-Enschot"},"geometry":{"type":"Point","coordinates":[5.13119,51.57774]}},{"type":"Feature","properties":{"Naam":"Logeerhuis de Vrouwenmantel","Organisatie":"Logeerhuis de Vrouwenmantel","Soort zorg":"onbekend","Huisnummer":"2","Postcode":"5012TH","Plaats":"Tilburg"},"geometry":{"type":"Point","coordinates":[5.09814,51.58952]}},{"type":"Feature","properties":{"Naam":"Il Sogno","Organisatie":"Il Sogno","Soort zorg":"onbekend","Huisnummer":"9","Postcode":"5056RM","Plaats":"Berkel-Enschot"},"geometry":{"type":"Point","coordinates":[5.13443,51.56368]}},{"type":"Feature","properties":{"Naam":"Centrumlocatie De Hondsberg","Organisatie":"Stichting De Hondsberg","Soort zorg":"Huizen en dagverblijven voor verstandelijk gehandicapten","Huisnummer":"5","Postcode":"5062JT","Plaats":"Oisterwijk"},"geometry":{"type":"Point","coordinates":[5.19106,51.56503]}},{"type":"Feature","properties":{"Naam":"Boerderij De Stelle B.V.","Organisatie":"Boerderij De Stelle B.V.","Soort zorg":"onbekend","Huisnummer":"3","Postcode":"4305RC","Plaats":"Ouwerkerk"},"geometry":{"type":"Point","coordinates":[3.96422,51.6241]}},{"type":"Feature","properties":{"Naam":"Stichting 't Huus","Organisatie":"Stichting 't Huus","Soort zorg":"onbekend","Huisnummer":"1","Postcode":"4571GN","Plaats":"Axel"},"geometry":{"type":"Point","coordinates":[3.9043,51.26554]}},{"type":"Feature","properties":{"Naam":"Zorgboerderij De Omslag B.V.","Organisatie":"Zorgboerderij De Omslag B.V.","Soort zorg":"Huizen en dagverblijven voor verstandelijk gehandicapten","Huisnummer":"38","Postcode":"4515SB","Plaats":"IJzendijke"},"geometry":{"type":"Point","coordinates":[3.62107,51.29718]}},{"type":"Feature","properties":{"Naam":"Tragel","Organisatie":"Tragel Zorg","Soort zorg":"Huizen en dagverblijven voor verstandelijk gehandicapten","Huisnummer":"50","Postcode":"4567BL","Plaats":"Clinge"},"geometry":{"type":"Point","coordinates":[4.09651,51.26584]}},{"type":"Feature","properties":{"Naam":"Jodi-Sintepier Zorgboerderij","Organisatie":"V.O.F. Jodi-Sintepier","Soort zorg":"onbekend","Huisnummer":"15","Postcode":"4504SH","Plaats":"Nieuwvliet"},"geometry":{"type":"Point","coordinates":[3.46496,51.37825]}},{"type":"Feature","properties":{"Naam":"Gors","Organisatie":"Stichting Gors","Soort zorg":"Huizen en dagverblijven voor verstandelijk gehandicapten","Huisnummer":"24","Postcode":"4462DZ","Plaats":"Goes"},"geometry":{"type":"Point","coordinates":[3.89218,51.49781]}},{"type":"Feature","properties":{"Naam":"Stichting Pameijer","Organisatie":"Stichting Pameijer","Soort zorg":"Huizen en dagverblijven voor verstandelijk gehandicapten","Huisnummer":"66","Postcode":"3034CJ","Plaats":"Rotterdam","Routekaart":"Voorlopig","Ambitie":"Niet bekend"},"geometry":{"type":"Point","coordinates":[4.48667,51.93044]}},{"type":"Feature","properties":{"Naam":"ASVZ","Organisatie":"ASVZ","Soort zorg":"onbekend","Huisnummer":"1","Postcode":"3363WB","Plaats":"Sliedrecht","Routekaart":"Voorlopig","Ambitie":"Route tot 2030"},"geometry":{"type":"Point","coordinates":[4.7492,51.82644]}},{"type":"Feature","properties":{"Naam":"Woonboerderij Westenrijck B.V.","Organisatie":"Woonboerderij Westenrijck B.V.","Soort zorg":"Huizen en dagverblijven voor verstandelijk gehandicapten","Huisnummer":"6","Postcode":"3216LD","Plaats":"Abbenbroek"},"geometry":{"type":"Point","coordinates":[4.23829,51.82857]}},{"type":"Feature","properties":{"Naam":"Stichting Boerderij \"Bij de Hem\"","Organisatie":"Stichting Boerderij \"Bij de Hem\"","Soort zorg":"onbekend","Huisnummer":"21","Postcode":"2871MB","Plaats":"Schoonhoven"},"geometry":{"type":"Point","coordinates":[4.83206,51.94398]}},{"type":"Feature","properties":{"Naam":"DAJONG","Organisatie":"DAJONG","Soort zorg":"Huizen en dagverblijven voor verstandelijk gehandicapten","Huisnummer":"7","Postcode":"2992KB","Plaats":"Barendrecht"},"geometry":{"type":"Point","coordinates":[4.53074,51.86224]}},{"type":"Feature","properties":{"Naam":"Stichting WISH Poortugaal","Organisatie":"Stichting Wish","Soort zorg":"Huizen en dagverblijven voor verstandelijk gehandicapten","Huisnummer":"43","Postcode":"3171TE","Plaats":"Poortugaal"},"geometry":{"type":"Point","coordinates":[4.39167,51.85496]}},{"type":"Feature","properties":{"Naam":"De Langstee","Organisatie":"De Langstee","Soort zorg":"Huizen en dagverblijven voor verstandelijk gehandicapten","Huisnummer":"47","Postcode":"3222AB","Plaats":"Hellevoetsluis"},"geometry":{"type":"Point","coordinates":[4.12797,51.83825]}},{"type":"Feature","properties":{"Naam":"Woon-zorgboerderij De Goede Zorg","Organisatie":"Woon-zorgboerderij De Goede Zorg VOF","Soort zorg":"onbekend","Huisnummer":"10","Postcode":"3257KE","Plaats":"Ooltgensplaat"},"geometry":{"type":"Point","coordinates":[4.31143,51.68504]}},{"type":"Feature","properties":{"Naam":"Stichting Logeerplezier","Organisatie":"Stichting Logeerplezier","Soort zorg":"Huizen en dagverblijven voor verstandelijk gehandicapten","Huisnummer":"42","Postcode":"2724HJ","Plaats":"Zoetermeer"},"geometry":{"type":"Point","coordinates":[4.51051,52.06634]}},{"type":"Feature","properties":{"Naam":"Tuinderij Buitenkans","Organisatie":"Tuinderij Buitenkans","Soort zorg":"onbekend","Huisnummer":"20a","Postcode":"2182NB","Plaats":"Hillegom"},"geometry":{"type":"Point","coordinates":[4.55721,52.30056]}},{"type":"Feature","properties":{"Naam":"Het Jagerhuis B.V.","Organisatie":"Het Jagerhuis B.V.","Soort zorg":"Huizen en dagverblijven voor verstandelijk gehandicapten","Huisnummer":"5b","Postcode":"6718TV","Plaats":"Ede"},"geometry":{"type":"Point","coordinates":[5.63677,52.05732]}},{"type":"Feature","properties":{"Naam":"Stichting Lievegoed","Organisatie":"Stichting Lievegoed","Soort zorg":"Huizen en dagverblijven voor verstandelijk gehandicapten","Huisnummer":"24","Postcode":"3723MB","Plaats":"Bilthoven"},"geometry":{"type":"Point","coordinates":[5.20736,52.1536]}},{"type":"Feature","properties":{"Naam":"Zorgboerderij Rita Rijntjes","Organisatie":"Zorgboerderij Rita Rijntjes","Soort zorg":"onbekend","Huisnummer":"26","Postcode":"3481LV","Plaats":"Harmelen"},"geometry":{"type":"Point","coordinates":[4.96069,52.12026]}},{"type":"Feature","properties":{"Naam":"De Havezaat","Organisatie":"De Havezaat","Soort zorg":"onbekend","Huisnummer":"27","Postcode":"4121KN","Plaats":"Everdingen"},"geometry":{"type":"Point","coordinates":[5.16554,51.95217]}},{"type":"Feature","properties":{"Naam":"Dennenhorst","Organisatie":"Woon- en zorgvoorziening Dennenhorst V.o.f.","Soort zorg":"onbekend","Huisnummer":"23","Postcode":"3905JG","Plaats":"Veenendaal"},"geometry":{"type":"Point","coordinates":[5.56462,52.03618]}},{"type":"Feature","properties":{"Naam":"ZOMO Dagbesteding B.V.","Organisatie":"ZOMO Dagbesteding B.V.","Soort zorg":"onbekend","Huisnummer":"2b","Postcode":"3401NG","Plaats":"IJsselstein"},"geometry":{"type":"Point","coordinates":[5.03768,52.01957]}},{"type":"Feature","properties":{"Naam":"Stichting Amerpoort","Organisatie":"Stichting Amerpoort","Soort zorg":"Huizen en dagverblijven voor verstandelijk gehandicapten","Huisnummer":"12","Postcode":"3744PA","Plaats":"Baarn"},"geometry":{"type":"Point","coordinates":[5.2293,52.21772]}},{"type":"Feature","properties":{"Naam":"Stichting De Uitdaging","Organisatie":"Stichting De Uitdaging","Soort zorg":"onbekend","Huisnummer":"44","Postcode":"1058GC","Plaats":"Amsterdam"},"geometry":{"type":"Point","coordinates":[4.84445,52.35657]}},{"type":"Feature","properties":{"Naam":"De Hooimaker","Organisatie":"De Hooimaker V.O.F.","Soort zorg":"onbekend","Huisnummer":"147","Postcode":"1566AE","Plaats":"Assendelft"},"geometry":{"type":"Point","coordinates":[4.72567,52.4525]}},{"type":"Feature","properties":{"Naam":"De Parabool","Organisatie":"Stichting De Parabool","Soort zorg":"Huizen en dagverblijven voor verstandelijk gehandicapten","Huisnummer":"6a","Postcode":"7433PR","Plaats":"Schalkhaar"},"geometry":{"type":"Point","coordinates":[6.2016,52.26392]}},{"type":"Feature","properties":{"Naam":"Stichting Triade-Vitree","Organisatie":"Triade-Vitree","Soort zorg":"Huizen en dagverblijven voor verstandelijk gehandicapten","Huisnummer":"5","Postcode":"8233BP","Plaats":"Lelystad"},"geometry":{"type":"Point","coordinates":[5.47544,52.49848]}},{"type":"Feature","properties":{"Naam":"Educatieve Zorgboerderij \"De Huif\" V.O.F.","Organisatie":"Educatieve Zorgboerderij \"De Huif\" V.O.F.","Soort zorg":"Huizen en dagverblijven voor verstandelijk gehandicapten","Huisnummer":"2","Postcode":"8245AB","Plaats":"Lelystad"},"geometry":{"type":"Point","coordinates":[5.42364,52.48414]}},{"type":"Feature","properties":{"Naam":"Stichting Maeykehiem","Organisatie":"Stichting Maeykehiem","Soort zorg":"Huizen en dagverblijven voor verstandelijk gehandicapten","Huisnummer":"17","Postcode":"8521KN","Plaats":"Sint Nicolaasga"},"geometry":{"type":"Point","coordinates":[5.74204,52.92787]}},{"type":"Feature","properties":{"Naam":"Nieuw Woelwijck","Organisatie":"Stichting Nieuw Woelwijck","Soort zorg":"Huizen en dagverblijven voor verstandelijk gehandicapten","Huisnummer":"10","Postcode":"9611KR","Plaats":"Sappemeer"},"geometry":{"type":"Point","coordinates":[6.78916,53.15204]}},{"type":"Feature","properties":{"Naam":"St. Philadelphia Zorg","Organisatie":"St. Philadelphia Zorg","Soort zorg":"Huizen en dagverblijven voor verstandelijk gehandicapten","Huisnummer":"1","Postcode":"3811MZ","Plaats":"Amersfoort"},"geometry":{"type":"Point","coordinates":[5.37866,52.15402]}},{"type":"Feature","properties":{"Naam":"Stichting Careander","Organisatie":"Stichting Careander","Soort zorg":"Huizen en dagverblijven voor verstandelijk gehandicapten","Huisnummer":"27a","Postcode":"3844DD","Plaats":"Harderwijk"},"geometry":{"type":"Point","coordinates":[5.6174,52.34057]}},{"type":"Feature","properties":{"Naam":"Woonzorgcentrum de Zeeg","Organisatie":"Stichting Woonzorgcentrum De Zeeg","Soort zorg":"Huizen en dagverblijven voor verstandelijk gehandicapten","Huisnummer":"5","Postcode":"6843LP","Plaats":"Arnhem"},"geometry":{"type":"Point","coordinates":[5.86212,51.95664]}},{"type":"Feature","properties":{"Naam":"Locatie Barneveld","Organisatie":"Stichting De Rozelaar","Soort zorg":"onbekend","Huisnummer":"9","Postcode":"3772JH","Plaats":"Barneveld"},"geometry":{"type":"Point","coordinates":[5.58051,52.13996]}},{"type":"Feature","properties":{"Naam":"Stichting Titurel","Organisatie":"Stg. Titurel","Soort zorg":"onbekend","Huisnummer":"44","Postcode":"4645RK","Plaats":"Putte"},"geometry":{"type":"Point","coordinates":[4.39008,51.3785]}},{"type":"Feature","properties":{"Naam":"Stichting ORO","Organisatie":"Stichting ORO","Soort zorg":"Huizen en dagverblijven voor verstandelijk gehandicapten","Huisnummer":"165","Postcode":"5709HL","Plaats":"Helmond"},"geometry":{"type":"Point","coordinates":[5.70528,51.47218]}},{"type":"Feature","properties":{"Naam":"Amarant","Organisatie":"Stichting Amarant","Soort zorg":"Huizen en dagverblijven voor verstandelijk gehandicapten","Huisnummer":"412","Postcode":"5037LH","Plaats":"Tilburg","Routekaart":"Voorlopig","Ambitie":"Route tot 2030"},"geometry":{"type":"Point","coordinates":[5.05298,51.55676]}},{"type":"Feature","properties":{"Naam":"Stichting Prisma/Taxandriaweg 12B2","Organisatie":"Stichting Prisma","Soort zorg":"onbekend","Huisnummer":"12","Postcode":"5142PA","Plaats":"Waalwijk"},"geometry":{"type":"Point","coordinates":[5.07255,51.69232]}},{"type":"Feature","properties":{"Naam":"SOVAK","Organisatie":"Stichting Sovak","Soort zorg":"Huizen en dagverblijven voor verstandelijk gehandicapten","Huisnummer":"110","Postcode":"4844SK","Plaats":"Terheijden","Routekaart":"Voorlopig","Ambitie":"Route tot 2030"},"geometry":{"type":"Point","coordinates":[4.75672,51.64746]}},{"type":"Feature","properties":{"Naam":"Profila Zorg","Organisatie":"Stichting Profila Zorg","Soort zorg":"onbekend","Huisnummer":"1","Postcode":"3995ES","Plaats":"Houten"},"geometry":{"type":"Point","coordinates":[5.17077,52.03349]}},{"type":"Feature","properties":{"Naam":"Het Lichtpunt","Organisatie":"Stichting Het Lichtpunt","Soort zorg":"Huizen en dagverblijven voor verstandelijk gehandicapten","Huisnummer":"45","Postcode":"2223AG","Plaats":"Katwijk"},"geometry":{"type":"Point","coordinates":[4.42306,52.19627]}},{"type":"Feature","properties":{"Naam":"Prinsenstichting","Organisatie":"Prinsenstichting","Soort zorg":"Huizen en dagverblijven voor verstandelijk gehandicapten","Huisnummer":"267","Postcode":"3584AA","Plaats":"Utrecht"},"geometry":{"type":"Point","coordinates":[5.14734,52.07856]}},{"type":"Feature","properties":{"Naam":"Siloah","Organisatie":"Siloah","Soort zorg":"Huizen en dagverblijven voor verstandelijk gehandicapten","Huisnummer":"120","Postcode":"2984AB"},"geometry":{"type":"Point","coordinates":[4.60547,51.87103]}},{"type":"Feature","properties":{"Naam":"St. Verz. Verstandelijk Gehand. De Schutse","Organisatie":"St. verz. Verstandelijk Gehand. De Schutse","Soort zorg":"Huizen en dagverblijven voor verstandelijk gehandicapten","Huisnummer":"28","Postcode":"4041CJ","Plaats":"Kesteren"},"geometry":{"type":"Point","coordinates":[5.57979,51.93289]}},{"type":"Feature","properties":{"Naam":"Stichting Zuidwester","Organisatie":"Stichting Zuidwester","Soort zorg":"Huizen en dagverblijven voor verstandelijk gehandicapten","Huisnummer":"40","Postcode":"3241LB","Plaats":"Middelharnis"},"geometry":{"type":"Point","coordinates":[4.17837,51.756]}},{"type":"Feature","properties":{"Naam":"Stichting Vanboeijen","Organisatie":"Stichting Vanboeijen","Soort zorg":"Huizen en dagverblijven voor verstandelijk gehandicapten","Huisnummer":"1","Postcode":"9405KD","Plaats":"Assen"},"geometry":{"type":"Point","coordinates":[6.53728,52.98288]}},{"type":"Feature","properties":{"Naam":"Stichting 's Heeren Loo Zorggroep","Organisatie":"Stichting 's Heeren Loo Zorggroep","Soort zorg":"Huizen en dagverblijven voor verstandelijk gehandicapten","Huisnummer":"11","Postcode":"3818LA","Plaats":"Amersfoort","Routekaart":"Vastgesteld","Ambitie":"Route tot 2030"},"geometry":{"type":"Point","coordinates":[5.37787,52.15186]}},{"type":"Feature","properties":{"Naam":"DWRP Zorggroep","Organisatie":"Stichting D.W.R.P.","Soort zorg":"Huizen en dagverblijven voor verstandelijk gehandicapten","Huisnummer":"2","Postcode":"1181HK","Plaats":"Amstelveen"},"geometry":{"type":"Point","coordinates":[4.86402,52.31545]}},{"type":"Feature","properties":{"Naam":"Stichting Ons Tweede Thuis","Organisatie":"Ons Tweede Thuis","Soort zorg":"Huizen en dagverblijven voor verstandelijk gehandicapten","Huisnummer":"11","Postcode":"1431RM","Plaats":"Aalsmeer"},"geometry":{"type":"Point","coordinates":[4.75818,52.25912]}},{"type":"Feature","properties":{"Naam":"Bestuursbureau SIG","Organisatie":"Stichting SIG","Soort zorg":"Huizen en dagverblijven voor verstandelijk gehandicapten","Huisnummer":"1","Postcode":"1947DA","Plaats":"Beverwijk"},"geometry":{"type":"Point","coordinates":[4.66126,52.48409]}},{"type":"Feature","properties":{"Naam":"Stichting De Hartekamp Groep","Organisatie":"Stichting De Hartekamp Groep","Soort zorg":"Huizen en dagverblijven voor verstandelijk gehandicapten","Huisnummer":"327","Postcode":"2024CJ","Plaats":"Haarlem"},"geometry":{"type":"Point","coordinates":[4.63625,52.40962]}},{"type":"Feature","properties":{"Naam":"Raphaëlstichting","Organisatie":"Raphaëlstichting","Soort zorg":"Huizen en dagverblijven voor verstandelijk gehandicapten","Huisnummer":"35","Postcode":"1871AC","Plaats":"Schoorl"},"geometry":{"type":"Point","coordinates":[4.69594,52.69617]}},{"type":"Feature","properties":{"Naam":"Stichting Camphillgemeenschap Maartenhuis","Organisatie":"Stichting Camphillgemeenschap Maartenhuis","Soort zorg":"onbekend","Huisnummer":"81","Postcode":"1796AZ","Plaats":"De Koog"},"geometry":{"type":"Point","coordinates":[4.75756,53.08923]}},{"type":"Feature","properties":{"Naam":"JP van den Bent","Organisatie":"St. Verlening Diensten J.P. van den Bent","Soort zorg":"Huizen en dagverblijven voor verstandelijk gehandicapten","Huisnummer":"6","Postcode":"7418EH","Plaats":"Deventer"},"geometry":{"type":"Point","coordinates":[6.19675,52.24991]}},{"type":"Feature","properties":{"Naam":"Stichting Woonvoorziening Kockengen","Organisatie":"Stichting Woonvoorziening Kockengen","Soort zorg":"onbekend","Huisnummer":"10","Postcode":"3628AC","Plaats":"Kockengen"},"geometry":{"type":"Point","coordinates":[4.94727,52.14862]}},{"type":"Feature","properties":{"Naam":"Maatschap Zorgboerderij de Middag","Organisatie":"Maatschap Zorgboerderij de Middag","Soort zorg":"onbekend","Huisnummer":"14","Postcode":"9746TG","Plaats":"Groningen"},"geometry":{"type":"Point","coordinates":[6.5112,53.24993]}},{"type":"Feature","properties":{"Naam":"Stichting KAG Zorg","Organisatie":"Stichting KAG Zorg","Soort zorg":"onbekend","Huisnummer":"10g104","Postcode":"3723MB","Plaats":"Bilthoven"},"geometry":{"type":"Point","coordinates":[5.20552,52.15614]}},{"type":"Feature","properties":{"Naam":"Zorgboerderij Paarlberg","Organisatie":"Zorgboerderij Paarlberg","Soort zorg":"onbekend","Huisnummer":"1","Postcode":"1746EA","Plaats":"Dirkshorn"},"geometry":{"type":"Point","coordinates":[4.78359,52.75328]}},{"type":"Feature","properties":{"Naam":"'t Paradijs B.V.","Organisatie":"'t Paradijs B.V.","Soort zorg":"onbekend","Huisnummer":"1","Postcode":"3772VM","Plaats":"Barneveld"},"geometry":{"type":"Point","coordinates":[5.5434,52.14355]}},{"type":"Feature","properties":{"Naam":"KDC De Gelukkige Dolfijntjes","Organisatie":"Rimi Ko","Soort zorg":"onbekend","Huisnummer":"15","Postcode":"1741NA","Plaats":"Schagen"},"geometry":{"type":"Point","coordinates":[4.80432,52.78283]}},{"type":"Feature","properties":{"Naam":"Thomashuis Goirle","Organisatie":"Thomashuis Goirle","Soort zorg":"onbekend","Huisnummer":"55","Postcode":"5053AP","Plaats":"Goirle"},"geometry":{"type":"Point","coordinates":[5.08792,51.53024]}},{"type":"Feature","properties":{"Naam":"Zorgboerderij de Ooijsebrug","Organisatie":"Zorgboerderij De Ooijsebrug","Soort zorg":"onbekend","Huisnummer":"2","Postcode":"6923SK","Plaats":"Groessen"},"geometry":{"type":"Point","coordinates":[6.04046,51.91727]}},{"type":"Feature","properties":{"Naam":"Stichting OpenDoor","Organisatie":"Stichting OpenDoor","Soort zorg":"onbekend","Huisnummer":"1","Postcode":"5175PG","Plaats":"Loon op Zand"},"geometry":{"type":"Point","coordinates":[5.03923,51.63683]}},{"type":"Feature","properties":{"Naam":"De Zorgboer Drenthe","Organisatie":"De Zorgboer Drenthe","Soort zorg":"Huizen en dagverblijven voor verstandelijk gehandicapten","Huisnummer":"22","Postcode":"9417TB","Plaats":"Spier"},"geometry":{"type":"Point","coordinates":[6.47597,52.83021]}},{"type":"Feature","properties":{"Naam":"Stichting Ela","Organisatie":"Stichting Ela","Soort zorg":"Huizen en dagverblijven voor verstandelijk gehandicapten","Huisnummer":"10","Postcode":"8267AJ","Plaats":"Kampen"},"geometry":{"type":"Point","coordinates":[5.84629,52.58806]}},{"type":"Feature","properties":{"Naam":"Stichting 'De Wiershoeck'","Organisatie":"Stichting 'De Wiershoeck'","Soort zorg":"Huizen en dagverblijven voor verstandelijk gehandicapten","Huisnummer":"20","Postcode":"9737AD","Plaats":"Groningen"},"geometry":{"type":"Point","coordinates":[6.59301,53.25213]}},{"type":"Feature","properties":{"Naam":"Zorgboerderij het Theelichtje","Organisatie":"Zorgboerderij het Theelichtje V.O.F.","Soort zorg":"onbekend","Huisnummer":"18","Postcode":"9203TD","Plaats":"Drachten"},"geometry":{"type":"Point","coordinates":[6.09435,53.08949]}},{"type":"Feature","properties":{"Naam":"De Beukenhorst B.V.","Organisatie":"De Beukenhorst B.V.","Soort zorg":"Huizen en dagverblijven voor verstandelijk gehandicapten","Huisnummer":"1","Postcode":"9414TA","Plaats":"Hooghalen"},"geometry":{"type":"Point","coordinates":[6.54369,52.92831]}},{"type":"Feature","properties":{"Naam":"Calidad B.V.","Organisatie":"Calidad B.V.","Soort zorg":"Huizen en dagverblijven voor verstandelijk gehandicapten","Huisnummer":"53","Postcode":"9981TJ","Plaats":"Uithuizen"},"geometry":{"type":"Point","coordinates":[6.66764,53.41683]}},{"type":"Feature","properties":{"Naam":"Stichting Mesa Zorg","Organisatie":"Stichting Mesa Zorg","Soort zorg":"onbekend","Huisnummer":"2","Postcode":"6674MB","Plaats":"Herveld"},"geometry":{"type":"Point","coordinates":[5.7417,51.92074]}},{"type":"Feature","properties":{"Naam":"Gezinshuis-ebode B.V.","Organisatie":"Gezinshuis-ebode B.V.","Soort zorg":"onbekend","Huisnummer":"17","Postcode":"8251SE","Plaats":"Dronten"},"geometry":{"type":"Point","coordinates":[5.66162,52.4974]}},{"type":"Feature","properties":{"Naam":"Ut Zunneke Dagbesteding","Organisatie":"Ut Zunneke Dagbesteding en Logeren B.V.","Soort zorg":"Huizen en dagverblijven voor verstandelijk gehandicapten","Huisnummer":"38","Postcode":"6241CH","Plaats":"Bunde"},"geometry":{"type":"Point","coordinates":[5.7355,50.89635]}},{"type":"Feature","properties":{"Naam":"Helianthus Zathe","Organisatie":"Helianthus Zathe V.O.F.","Soort zorg":"onbekend","Huisnummer":"17","Postcode":"9222NR","Plaats":"Drachtstercompagnie"},"geometry":{"type":"Point","coordinates":[6.14773,53.13181]}},{"type":"Feature","properties":{"Naam":"WeerWerk B.V.","Organisatie":"WeerWerk B.V.","Soort zorg":"Huizen en dagverblijven voor verstandelijk gehandicapten","Huisnummer":"16a","Postcode":"4337RA","Plaats":"Middelburg"},"geometry":{"type":"Point","coordinates":[3.6287,51.48438]}},{"type":"Feature","properties":{"Naam":"Boerderij Saens Groen","Organisatie":"Boerderij Saens Groen","Soort zorg":"onbekend","Huisnummer":"18a","Postcode":"1531MV","Plaats":"Wormer"},"geometry":{"type":"Point","coordinates":[4.82361,52.48187]}},{"type":"Feature","properties":{"Naam":"OBH","Organisatie":"Stichting Van Oldenbarnevelthoeve","Soort zorg":"onbekend","Huisnummer":"7","Postcode":"2651KM","Plaats":"Berkel en Rodenrijs"},"geometry":{"type":"Point","coordinates":[4.44648,51.97766]}},{"type":"Feature","properties":{"Naam":"Driestroomhuis Babberich","Organisatie":"V.O.F. Driestroomhuis Babberich","Soort zorg":"onbekend","Huisnummer":"2","Postcode":"6909BR","Plaats":"Babberich"},"geometry":{"type":"Point","coordinates":[6.11187,51.90399]}},{"type":"Feature","properties":{"Naam":"RegioZorgWest B.V.","Organisatie":"RegioZorgWest B.V.","Soort zorg":"Huizen en dagverblijven voor verstandelijk gehandicapten","Huisnummer":"7","Postcode":"1981AN","Plaats":"Velsen-Zuid"},"geometry":{"type":"Point","coordinates":[4.65353,52.46042]}},{"type":"Feature","properties":{"Naam":"Samen Onderweg","Organisatie":"Samen Onderweg","Soort zorg":"Huizen en dagverblijven voor verstandelijk gehandicapten","Huisnummer":"69","Postcode":"6411KG","Plaats":"Heerlen"},"geometry":{"type":"Point","coordinates":[5.98286,50.88742]}},{"type":"Feature","properties":{"Naam":"Erve Wullink","Organisatie":"Erve Wullinck","Soort zorg":"onbekend","Huisnummer":"2","Postcode":"7021MJ","Plaats":"Zelhem"},"geometry":{"type":"Point","coordinates":[6.34494,52.01533]}},{"type":"Feature","properties":{"Naam":"Sa-Net Wonen B.V.","Organisatie":"Sa-Net Wonen B.V.","Soort zorg":"Huizen en dagverblijven voor verstandelijk gehandicapten","Huisnummer":"13","Postcode":"7001AX","Plaats":"Doetinchem"},"geometry":{"type":"Point","coordinates":[6.28841,51.9641]}},{"type":"Feature","properties":{"Naam":"De Walburgt B.V.","Organisatie":"De Walburgt B.V.","Soort zorg":"Huizen en dagverblijven voor verstandelijk gehandicapten","Huisnummer":"147","Postcode":"5171DL","Plaats":"Kaatsheuvel"},"geometry":{"type":"Point","coordinates":[5.02823,51.66208]}},{"type":"Feature","properties":{"Naam":"het Woltershuus v.o.f.","Organisatie":"het Woltershuus v.o.f.","Soort zorg":"onbekend","Huisnummer":"10","Postcode":"7051HC","Plaats":"Varsseveld"},"geometry":{"type":"Point","coordinates":[6.48478,51.9302]}},{"type":"Feature","properties":{"Naam":"Driestroomhuis 'Op Adelaarsvleugelen'","Organisatie":"Op Adelaarsvleugelen","Soort zorg":"onbekend","Huisnummer":"13","Postcode":"1784PD","Plaats":"Den Helder"},"geometry":{"type":"Point","coordinates":[4.75029,52.92945]}},{"type":"Feature","properties":{"Naam":"Stichting PiTi","Organisatie":"Stichting PiTi","Soort zorg":"onbekend","Huisnummer":"99","Postcode":"9521BC","Plaats":"Nieuw-Buinen"},"geometry":{"type":"Point","coordinates":[6.94081,52.96122]}},{"type":"Feature","properties":{"Naam":"Therapeutisch Gezinshuis Windegaarde","Organisatie":"Therapeutisch Gezinshuis Windegaarde","Soort zorg":"onbekend","Huisnummer":"22","Postcode":"8406EE","Plaats":"Tijnje"},"geometry":{"type":"Point","coordinates":[5.99375,53.02875]}},{"type":"Feature","properties":{"Naam":"UitWerking","Organisatie":"UitWerking","Soort zorg":"onbekend","Huisnummer":"14","Postcode":"3994KJ","Plaats":"Houten"},"geometry":{"type":"Point","coordinates":[5.19332,52.01461]}},{"type":"Feature","properties":{"Naam":"Boerderijterras Juffrouw zonder kop","Organisatie":"Boerderijterras Juffrouw zonder kop","Soort zorg":"onbekend","Huisnummer":"5","Postcode":"6114KC","Plaats":"Susteren"},"geometry":{"type":"Point","coordinates":[5.84609,51.07912]}},{"type":"Feature","properties":{"Naam":"Equi-menssana","Organisatie":"Maatschap Leijsten-Twaalfhoven","Soort zorg":"onbekend","Huisnummer":"27","Postcode":"5914HA","Plaats":"Venlo"},"geometry":{"type":"Point","coordinates":[6.16542,51.38797]}},{"type":"Feature","properties":{"Naam":"Dagbesteding Welbesteed VOF","Organisatie":"Dagbesteding Welbesteed VOF","Soort zorg":"onbekend","Huisnummer":"9","Postcode":"8411ZM","Plaats":"Jubbega"},"geometry":{"type":"Point","coordinates":[6.12272,52.99143]}},{"type":"Feature","properties":{"Naam":"BonneVie","Organisatie":"BonneVie","Soort zorg":"onbekend","Huisnummer":"2","Postcode":"4261TA","Plaats":"Wijk en Aalburg"},"geometry":{"type":"Point","coordinates":[5.12288,51.75964]}},{"type":"Feature","properties":{"Naam":"Gezinshuis de Lotus","Organisatie":"Gezinshuis de Lotus V.O.F.","Soort zorg":"onbekend","Huisnummer":"32","Postcode":"6621CG","Plaats":"Dreumel"},"geometry":{"type":"Point","coordinates":[5.43351,51.84897]}},{"type":"Feature","properties":{"Naam":"Driestroomhuis de lantaarn","Organisatie":"Driestroomhuis de lantaarn","Soort zorg":"onbekend","Huisnummer":"27","Postcode":"6677PH","Plaats":"Slijk-Ewijk"},"geometry":{"type":"Point","coordinates":[5.78968,51.88565]}},{"type":"Feature","properties":{"Naam":"Nova Zorgboerderij B.V.","Organisatie":"Nova Zorgboerderij B.V.","Soort zorg":"Huizen en dagverblijven voor verstandelijk gehandicapten","Huisnummer":"2","Postcode":"6911KA","Plaats":"Pannerden"},"geometry":{"type":"Point","coordinates":[6.05118,51.88592]}},{"type":"Feature","properties":{"Naam":"Het Houvast B.V.","Organisatie":"Het Houvast B.V.","Soort zorg":"Huizen en dagverblijven voor verstandelijk gehandicapten","Huisnummer":"59","Postcode":"5042WK","Plaats":"Tilburg"},"geometry":{"type":"Point","coordinates":[5.0499,51.57374]}},{"type":"Feature","properties":{"Naam":"MartiniZorg B.V.","Organisatie":"MartiniZorg B.V.","Soort zorg":"Huizen en dagverblijven voor verstandelijk gehandicapten","Huisnummer":"100","Postcode":"9713VX","Plaats":"Groningen"},"geometry":{"type":"Point","coordinates":[6.5777,53.22804]}},{"type":"Feature","properties":{"Naam":"Boerderij Birktzicht","Organisatie":"Boerderij Birktzicht","Soort zorg":"onbekend","Huisnummer":"13","Postcode":"3768MP","Plaats":"Soest"},"geometry":{"type":"Point","coordinates":[5.32946,52.17]}},{"type":"Feature","properties":{"Naam":"IJsselhuis B.V.","Organisatie":"IJsselhuis B.V.","Soort zorg":"onbekend","Huisnummer":"7","Postcode":"3417CM","Plaats":"Montfoort"},"geometry":{"type":"Point","coordinates":[4.95626,52.04806]}},{"type":"Feature","properties":{"Naam":"Parzival Wonen B.V.","Organisatie":"Parzival Wonen B.V.","Soort zorg":"onbekend","Huisnummer":"11","Postcode":"3227CB","Plaats":"Oudenhoorn"},"geometry":{"type":"Point","coordinates":[4.1929,51.83012]}},{"type":"Feature","properties":{"Naam":"Moltzerhof","Organisatie":"Stichting SAAMSTERK","Soort zorg":"Huizen en dagverblijven voor verstandelijk gehandicapten","Huisnummer":"20","Postcode":"3052VA","Plaats":"Rotterdam"},"geometry":{"type":"Point","coordinates":[4.47159,51.9534]}},{"type":"Feature","properties":{"Naam":"Gasthoeve de Zijp","Organisatie":"Gasthoeve de Zijp","Soort zorg":"onbekend","Huisnummer":"2d","Postcode":"5427HJ","Plaats":"Boekel"},"geometry":{"type":"Point","coordinates":[5.68364,51.60671]}},{"type":"Feature","properties":{"Naam":"Beeworkz","Organisatie":"Beeworkz","Soort zorg":"Huizen en dagverblijven voor verstandelijk gehandicapten","Huisnummer":"77","Postcode":"9404KB","Plaats":"Assen"},"geometry":{"type":"Point","coordinates":[6.5764,52.98634]}},{"type":"Feature","properties":{"Naam":"Zorgboerderij De Korenschoof B.V.","Organisatie":"Zorgboerderij De Korenschoof B.V.","Soort zorg":"Huizen en dagverblijven voor verstandelijk gehandicapten","Huisnummer":"13","Postcode":"7668TH","Plaats":"Haarle"},"geometry":{"type":"Point","coordinates":[6.8294,52.40817]}},{"type":"Feature","properties":{"Naam":"Stichting Unite Multizorg","Organisatie":"Stichting Unite Multizorg","Soort zorg":"onbekend","Huisnummer":"1","Postcode":"1069WE","Plaats":"Amsterdam"},"geometry":{"type":"Point","coordinates":[4.78455,52.35949]}},{"type":"Feature","properties":{"Naam":"Driestroomhuis de Spurt","Organisatie":"Driestroomhuis de Spurt VOF","Soort zorg":"onbekend","Huisnummer":"9","Postcode":"5856AW","Plaats":"Wellerlooi"},"geometry":{"type":"Point","coordinates":[6.13451,51.53209]}},{"type":"Feature","properties":{"Naam":"Villa Saron","Organisatie":"M. en A.M. van Melle t.h.o.d.n. Villa Saron","Soort zorg":"onbekend","Huisnummer":"33","Postcode":"3744MA","Plaats":"Baarn"},"geometry":{"type":"Point","coordinates":[5.27388,52.20334]}},{"type":"Feature","properties":{"Naam":"Zorgbakkerij de Wit","Organisatie":"Zorgbakkerij de Wit","Soort zorg":"onbekend","Huisnummer":"172","Postcode":"9681AL","Plaats":"Midwolda"},"geometry":{"type":"Point","coordinates":[7.01273,53.19487]}},{"type":"Feature","properties":{"Naam":"Dag- en Zorgboerderij Jeltehof","Organisatie":"Dag- en Zorgboerderij Jeltehof","Soort zorg":"Huizen en dagverblijven voor verstandelijk gehandicapten","Huisnummer":"1","Postcode":"8622XZ","Plaats":"Hommerts"},"geometry":{"type":"Point","coordinates":[5.65034,52.98667]}},{"type":"Feature","properties":{"Naam":"Zorgboerderij De Klinkenberg","Organisatie":"Zorgboerderij De Klinkenberg","Soort zorg":"Huizen en dagverblijven voor verstandelijk gehandicapten","Huisnummer":"77a","Postcode":"8085PG","Plaats":"Doornspijk"},"geometry":{"type":"Point","coordinates":[5.8437,52.43167]}},{"type":"Feature","properties":{"Naam":"Zorgboerderij D'n Bongerd","Organisatie":"Zorgboerderij D'n Bongerd","Soort zorg":"onbekend","Huisnummer":"5","Postcode":"5975CD","Plaats":"Sevenum"},"geometry":{"type":"Point","coordinates":[6.02828,51.40787]}},{"type":"Feature","properties":{"Naam":"Het Spant","Organisatie":"Het Spant","Soort zorg":"onbekend","Huisnummer":"12b","Postcode":"5556XW","Plaats":"Valkenswaard"},"geometry":{"type":"Point","coordinates":[5.46988,51.32521]}},{"type":"Feature","properties":{"Naam":"Elver","Organisatie":"Stichting Elver","Soort zorg":"Huizen en dagverblijven voor verstandelijk gehandicapten","Huisnummer":"14","Postcode":"7031HW","Plaats":"Wehl","Routekaart":"Voorlopig","Ambitie":"EM ingepland"},"geometry":{"type":"Point","coordinates":[6.17525,51.96749]}},{"type":"Feature","properties":{"Naam":"VOF Zorgboerderij de Eekhoeve","Organisatie":"VOF Zorgboerderij de Eekhoeve","Soort zorg":"onbekend","Huisnummer":"115","Postcode":"3904DB","Plaats":"Veenendaal"},"geometry":{"type":"Point","coordinates":[5.52786,52.01927]}},{"type":"Feature","properties":{"Naam":"Herbergier Ermelo","Organisatie":"Herbergier Ermelo","Soort zorg":"onbekend","Huisnummer":"50","Postcode":"3851NJ","Plaats":"Ermelo"},"geometry":{"type":"Point","coordinates":[5.62444,52.30049]}},{"type":"Feature","properties":{"Naam":"VOF Thomashuis Etten-Leur","Organisatie":"Wagtmans & de Roos VOF","Soort zorg":"onbekend","Huisnummer":"1d","Postcode":"4876BS","Plaats":"Etten-Leur"},"geometry":{"type":"Point","coordinates":[4.64013,51.5633]}},{"type":"Feature","properties":{"Naam":"Driestroomgezinshuis De Melodie","Organisatie":"Driestroomgezinshuis De Melodie","Soort zorg":"onbekend","Huisnummer":"35","Postcode":"6744WZ","Plaats":"Ederveen"},"geometry":{"type":"Point","coordinates":[5.58222,52.06509]}},{"type":"Feature","properties":{"Naam":"House2Grow","Organisatie":"House2Grow V.O.F.","Soort zorg":"onbekend","Huisnummer":"53","Postcode":"3893CD","Plaats":"Zeewolde"},"geometry":{"type":"Point","coordinates":[5.5234,52.33042]}},{"type":"Feature","properties":{"Naam":"De Kasparhoeve B.V.","Organisatie":"De Kasparhoeve B.V.","Soort zorg":"onbekend","Huisnummer":"20","Postcode":"9745EM","Plaats":"Groningen"},"geometry":{"type":"Point","coordinates":[6.48153,53.22547]}},{"type":"Feature","properties":{"Naam":"Zorghoeve de Eregast","Organisatie":"Zorghoeve de Eregast","Soort zorg":"onbekend","Huisnummer":"9","Postcode":"7782SB","Plaats":"De Krim"},"geometry":{"type":"Point","coordinates":[6.60931,52.67238]}},{"type":"Feature","properties":{"Naam":"Drok Dwaande","Organisatie":"Drok Dwaande","Soort zorg":"onbekend","Huisnummer":"35","Postcode":"9281PL","Plaats":"Harkema"},"geometry":{"type":"Point","coordinates":[6.13595,53.18426]}},{"type":"Feature","properties":{"Naam":"Hoeve Loevestein Zorg en Recreatie B.V.","Organisatie":"Hoeve Loevestein Zorg en Recreatie B.V.","Soort zorg":"onbekend","Huisnummer":"207","Postcode":"9497TC","Plaats":"Donderen"},"geometry":{"type":"Point","coordinates":[6.53499,53.09194]}},{"type":"Feature","properties":{"Naam":"Tikk Dagbesteding","Organisatie":"Tikk Dagbesteding","Soort zorg":"onbekend","Huisnummer":"43","Postcode":"9045PG","Plaats":"Bitgummole"},"geometry":{"type":"Point","coordinates":[5.70799,53.23501]}},{"type":"Feature","properties":{"Naam":"Dekkersnest B.V.","Organisatie":"Dekkersnest B.V.","Soort zorg":"Huizen en dagverblijven voor verstandelijk gehandicapten","Huisnummer":"8","Postcode":"9641KA","Plaats":"Veendam"},"geometry":{"type":"Point","coordinates":[6.88344,53.1058]}},{"type":"Feature","properties":{"Naam":"Zorgboerderij Japara","Organisatie":"Japara Zorg en Welzijn V.O.F.","Soort zorg":"onbekend","Huisnummer":"8","Postcode":"5469PJ","Plaats":"Erp"},"geometry":{"type":"Point","coordinates":[5.61621,51.5897]}},{"type":"Feature","properties":{"Naam":"Linked by ME","Organisatie":"Linked by ME","Soort zorg":"Huizen en dagverblijven voor verstandelijk gehandicapten","Huisnummer":"296","Postcode":"4624JL","Plaats":"Bergen op Zoom"},"geometry":{"type":"Point","coordinates":[4.29917,51.4809]}},{"type":"Feature","properties":{"Naam":"Onvergetelijk Leven B.V.","Organisatie":"Onvergetelijk Leven B.V.","Soort zorg":"onbekend","Huisnummer":"86","Postcode":"3739JR","Plaats":"Hollandsche Rading"},"geometry":{"type":"Point","coordinates":[5.17384,52.17354]}},{"type":"Feature","properties":{"Naam":"Groen Hulpverlening","Organisatie":"Groen Hulpverlening","Soort zorg":"Huizen en dagverblijven voor verstandelijk gehandicapten","Huisnummer":"58","Postcode":"3851BB","Plaats":"Ermelo"},"geometry":{"type":"Point","coordinates":[5.60835,52.29005]}},{"type":"Feature","properties":{"Naam":"Altijd iemand in de buurt B.V.","Organisatie":"Altijd iemand in de buurt B.V.","Soort zorg":"Huizen en dagverblijven voor verstandelijk gehandicapten","Huisnummer":"18","Postcode":"3829BE","Plaats":"Hooglanderveen"},"geometry":{"type":"Point","coordinates":[5.42553,52.18822]}},{"type":"Feature","properties":{"Naam":"Zorgboerderij Ons Verlangen B.V.","Organisatie":"Zorgboerderij Ons Verlangen B.V.","Soort zorg":"onbekend","Huisnummer":"8b","Postcode":"1027AH","Plaats":"Amsterdam"},"geometry":{"type":"Point","coordinates":[4.97943,52.4161]}},{"type":"Feature","properties":{"Naam":"Zorgatelier De Binnentuin","Organisatie":"Zorgatelier De Binnentuin V.O.F.","Soort zorg":"onbekend","Huisnummer":"40","Postcode":"5013BM","Plaats":"Tilburg"},"geometry":{"type":"Point","coordinates":[5.0964,51.57223]}},{"type":"Feature","properties":{"Naam":"Dorpsboerderij Zandeweer","Organisatie":"Dorpsboerderij Zandeweer","Soort zorg":"onbekend","Huisnummer":"47","Postcode":"9997NE","Plaats":"Zandeweer"},"geometry":{"type":"Point","coordinates":[6.68065,53.38381]}},{"type":"Feature","properties":{"Naam":"Logeerhuis De Plataan","Organisatie":"Logeerhuis De Plataan","Soort zorg":"onbekend","Huisnummer":"2","Postcode":"4255GX","Plaats":"Nieuwendijk"},"geometry":{"type":"Point","coordinates":[4.92434,51.76884]}},{"type":"Feature","properties":{"Naam":"Zorghuis Alblasserwaard","Organisatie":"Zorghuis Alblasserwaard","Soort zorg":"onbekend","Huisnummer":"747","Postcode":"3361BV","Plaats":"Sliedrecht"},"geometry":{"type":"Point","coordinates":[4.77838,51.81808]}},{"type":"Feature","properties":{"Naam":"De Buitenplaats Naarden","Organisatie":"De Buitenplaats Naarden","Soort zorg":"onbekend","Huisnummer":"113","Postcode":"1411GM","Plaats":"Naarden"},"geometry":{"type":"Point","coordinates":[5.1845,52.29221]}},{"type":"Feature","properties":{"Naam":"Gezinshuis De Toekomst","Organisatie":"Gezinshuis De Toekomst","Soort zorg":"Huizen en dagverblijven voor verstandelijk gehandicapten","Huisnummer":"13","Postcode":"1921CG","Plaats":"Akersloot"},"geometry":{"type":"Point","coordinates":[4.73695,52.5698]}},{"type":"Feature","properties":{"Naam":"Dagbestedingscentrum De Rode Esdoorn","Organisatie":"Dagbestedingscentrum De Rode Esdoorn","Soort zorg":"onbekend","Huisnummer":"118","Postcode":"9651AM","Plaats":"Meeden"},"geometry":{"type":"Point","coordinates":[6.91464,53.1386]}},{"type":"Feature","properties":{"Naam":"Gezinshuis de Scheepsbel","Organisatie":"Gezinshuis de Scheepsbel","Soort zorg":"onbekend","Huisnummer":"52a","Postcode":"1461DD","Plaats":"Zuidoostbeemster"},"geometry":{"type":"Point","coordinates":[4.95283,52.53137]}},{"type":"Feature","properties":{"Naam":"Bea B.V.","Organisatie":"Bea B.V.","Soort zorg":"Huizen en dagverblijven voor verstandelijk gehandicapten","Huisnummer":"1193","Postcode":"1069SE","Plaats":"Amsterdam"},"geometry":{"type":"Point","coordinates":[4.79684,52.35115]}},{"type":"Feature","properties":{"Naam":"SamenZorgboerderij Hendrikahoeve","Organisatie":"SamenZorgboerderij Hendrikahoeve","Soort zorg":"onbekend","Huisnummer":"76","Postcode":"7482PX","Plaats":"Haaksbergen"},"geometry":{"type":"Point","coordinates":[6.72269,52.19138]}},{"type":"Feature","properties":{"Naam":"W. Jacobs en H.Jacobs-Blankestijn","Organisatie":"Jacobs en H.Jacobs-Blankestijn","Soort zorg":"onbekend","Huisnummer":"1","Postcode":"6631BJ","Plaats":"Horssen"},"geometry":{"type":"Point","coordinates":[5.61305,51.84986]}},{"type":"Feature","properties":{"Naam":"Salcha Zorg B.V.","Organisatie":"Salcha Zorg B.V.","Soort zorg":"Huizen en dagverblijven voor verstandelijk gehandicapten","Huisnummer":"2","Postcode":"4416AZ","Plaats":"Kruiningen"},"geometry":{"type":"Point","coordinates":[4.03094,51.4529]}},{"type":"Feature","properties":{"Naam":"Zorgboerderij Boyemaheerd","Organisatie":"Zorgboerderij Boyemaheerd","Soort zorg":"onbekend","Huisnummer":"1","Postcode":"9866AG","Plaats":"Lutjegast"},"geometry":{"type":"Point","coordinates":[6.25455,53.235]}},{"type":"Feature","properties":{"Naam":"Wasvenzorg","Organisatie":"Stichting Wasvenzorg","Soort zorg":"Huizen en dagverblijven voor verstandelijk gehandicapten","Huisnummer":"30","Postcode":"5641AG","Plaats":"Eindhoven"},"geometry":{"type":"Point","coordinates":[5.51215,51.44914]}},{"type":"Feature","properties":{"Naam":"Zorgboerderij Harria","Organisatie":"Zorgboerderij Harria","Soort zorg":"onbekend","Huisnummer":"1","Postcode":"5291NC","Plaats":"Gemonde"},"geometry":{"type":"Point","coordinates":[5.34883,51.60679]}},{"type":"Feature","properties":{"Naam":"Zorgboerderij Flevo ZON B.V.","Organisatie":"Zorgboerderij Flevo ZON B.V.","Soort zorg":"Huizen en dagverblijven voor verstandelijk gehandicapten","Huisnummer":"56","Postcode":"8219PW","Plaats":"Lelystad"},"geometry":{"type":"Point","coordinates":[5.52831,52.52325]}},{"type":"Feature","properties":{"Naam":"Stichting De Vier Schepel","Organisatie":"Stichting De Vier Schepel","Soort zorg":"onbekend","Huisnummer":"46","Postcode":"8077RR","Plaats":"Hulshorst"},"geometry":{"type":"Point","coordinates":[5.74701,52.37541]}},{"type":"Feature","properties":{"Naam":"Zorgboerderij Buitengewoon in de Polder","Organisatie":"Zorgboerderij Buitengewoon in de Polder","Soort zorg":"Huizen en dagverblijven voor verstandelijk gehandicapten","Huisnummer":"1","Postcode":"1732NP","Plaats":"Lutjewinkel"},"geometry":{"type":"Point","coordinates":[4.89947,52.77543]}},{"type":"Feature","properties":{"Naam":"Driestroomhuis Bij Cor en Frans","Organisatie":"Bij Cor en Frans","Soort zorg":"onbekend","Huisnummer":"28","Postcode":"5371AJ","Plaats":"Ravenstein"},"geometry":{"type":"Point","coordinates":[5.65304,51.79689]}},{"type":"Feature","properties":{"Naam":"Moai Seldsum B.V.","Organisatie":"Moai Seldsum B.V.","Soort zorg":"onbekend","Huisnummer":"14","Postcode":"9062EK","Plaats":"Oentsjerk"},"geometry":{"type":"Point","coordinates":[5.87284,53.24899]}},{"type":"Feature","properties":{"Naam":"Stichting Jados","Organisatie":"Stichting Jados","Soort zorg":"Huizen en dagverblijven voor verstandelijk gehandicapten","Huisnummer":"1b","Postcode":"6811KN","Plaats":"Arnhem"},"geometry":{"type":"Point","coordinates":[5.90233,51.98173]}},{"type":"Feature","properties":{"Naam":"Nikè Zorg en Welzijn","Organisatie":"Nikè Zorg en Welzijn","Soort zorg":"Huizen en dagverblijven voor verstandelijk gehandicapten","Huisnummer":"3","Postcode":"6136AS","Plaats":"Sittard"},"geometry":{"type":"Point","coordinates":[5.86446,51.00644]}},{"type":"Feature","properties":{"Naam":"Thuys Zorg","Organisatie":"Thuys Zorg","Soort zorg":"Huizen en dagverblijven voor verstandelijk gehandicapten","Huisnummer":"8","Postcode":"5111CA","Plaats":"Baarle-Nassau"},"geometry":{"type":"Point","coordinates":[4.93158,51.44331]}},{"type":"Feature","properties":{"Naam":"Zorgboerderij d'n Oerse Have","Organisatie":"Zorgboerderij d'n Oerse Have","Soort zorg":"onbekend","Huisnummer":"28","Postcode":"5507PW","Plaats":"Veldhoven"},"geometry":{"type":"Point","coordinates":[5.36118,51.4276]}},{"type":"Feature","properties":{"Naam":"Elzeneindhuis","Organisatie":"Stichting Elzeneindhuis","Soort zorg":"Huizen en dagverblijven voor verstandelijk gehandicapten","Huisnummer":"7","Postcode":"5343JA","Plaats":"Oss"},"geometry":{"type":"Point","coordinates":[5.50997,51.74783]}},{"type":"Feature","properties":{"Naam":"Thuisbij Uitgeest","Organisatie":"Thuisbij Uitgeest","Soort zorg":"onbekend","Huisnummer":"30","Postcode":"1911CL","Plaats":"Uitgeest"},"geometry":{"type":"Point","coordinates":[4.71276,52.52979]}},{"type":"Feature","properties":{"Naam":"Bronx Hulp en Ondersteuning op maat B.V.","Organisatie":"Bronx Hulp en Ondersteuning op maat B.V.","Soort zorg":"Huizen en dagverblijven voor verstandelijk gehandicapten","Huisnummer":"499","Postcode":"1065BX","Plaats":"Amsterdam"},"geometry":{"type":"Point","coordinates":[4.82787,52.35908]}},{"type":"Feature","properties":{"Naam":"(Bij-)Zonder Zorg bij Monique","Organisatie":"(Bij-)Zonder Zorg bij Monique","Soort zorg":"onbekend","Huisnummer":"5","Postcode":"9501GG","Plaats":"Stadskanaal"},"geometry":{"type":"Point","coordinates":[6.92925,53.00524]}},{"type":"Feature","properties":{"Naam":"Orangerie Grootenhout B.V.","Organisatie":"Orangerie Grootenhout B.V.","Soort zorg":"Huizen en dagverblijven voor verstandelijk gehandicapten","Huisnummer":"6","Postcode":"5738PA","Plaats":"Mariahout"},"geometry":{"type":"Point","coordinates":[5.56324,51.52747]}},{"type":"Feature","properties":{"Naam":"thomashuis Klundert","Organisatie":"thomashuis Klundert","Soort zorg":"onbekend","Huisnummer":"3","Postcode":"4791HS","Plaats":"Klundert"},"geometry":{"type":"Point","coordinates":[4.53229,51.66471]}},{"type":"Feature","properties":{"Naam":"Onder de Bomen B.V.","Organisatie":"Onder de Bomen B.V.","Soort zorg":"onbekend","Huisnummer":"181a","Postcode":"6542VE","Plaats":"Nijmegen"},"geometry":{"type":"Point","coordinates":[5.84285,51.84226]}},{"type":"Feature","properties":{"Naam":"Stichting Zorghuus Varsseveld","Organisatie":"Stichting Zorghuus Varsseveld","Soort zorg":"onbekend","Huisnummer":"5","Postcode":"7051CW","Plaats":"Varsseveld"},"geometry":{"type":"Point","coordinates":[6.46257,51.94354]}},{"type":"Feature","properties":{"Naam":"Dagopvang Het Welzijn","Organisatie":"Dagopvang Het Welzijn","Soort zorg":"onbekend","Huisnummer":"26","Postcode":"5111HK","Plaats":"Baarle-Nassau"},"geometry":{"type":"Point","coordinates":[4.93807,51.44181]}},{"type":"Feature","properties":{"Naam":"Zorgboerderij \"Donia State Wester\"","Organisatie":"Zorgboerderij \"Donia State Wester\"","Soort zorg":"onbekend","Huisnummer":"7","Postcode":"8733EL","Plaats":"Iens"},"geometry":{"type":"Point","coordinates":[5.61984,53.13618]}},{"type":"Feature","properties":{"Naam":"Stichting Up Social Club","Organisatie":"Stichting Up Social Club","Soort zorg":"onbekend","Huisnummer":"1","Postcode":"3262JA","Plaats":"Oud-Beijerland"},"geometry":{"type":"Point","coordinates":[4.41135,51.82344]}},{"type":"Feature","properties":{"Naam":"DE LOODS ZORG B.V.","Organisatie":"DE LOODS ZORG B.V.","Soort zorg":"onbekend","Huisnummer":"212b","Postcode":"3734GE","Plaats":"Den Dolder"},"geometry":{"type":"Point","coordinates":[5.2536,52.14193]}},{"type":"Feature","properties":{"Naam":"Talent Dagbesteding","Organisatie":"Talent Dagbesteding","Soort zorg":"onbekend","Huisnummer":"31","Postcode":"9629PB","Plaats":"Steendam"},"geometry":{"type":"Point","coordinates":[6.84522,53.27398]}},{"type":"Feature","properties":{"Naam":"Stichting Keramiekatelier De Zwaan","Organisatie":"Stichting Keramiekatelier De Zwaan","Soort zorg":"Huizen en dagverblijven voor verstandelijk gehandicapten","Huisnummer":"52a","Postcode":"2805TE","Plaats":"Gouda"},"geometry":{"type":"Point","coordinates":[4.71472,52.02654]}},{"type":"Feature","properties":{"Naam":"Zorgkwekerij Bloei","Organisatie":"Zorgkwekerij Bloei","Soort zorg":"Huizen en dagverblijven voor verstandelijk gehandicapten","Huisnummer":"18","Postcode":"2641RX","Plaats":"Pijnacker"},"geometry":{"type":"Point","coordinates":[4.42936,52.01539]}},{"type":"Feature","properties":{"Naam":"Zorglandgoed Laagduurswoude B.V.","Organisatie":"Zorglandgoed Laagduurswoude B.V.","Soort zorg":"Huizen en dagverblijven voor verstandelijk gehandicapten","Huisnummer":"10","Postcode":"8423VN","Plaats":"Makkinga"},"geometry":{"type":"Point","coordinates":[6.25851,52.97383]}},{"type":"Feature","properties":{"Naam":"De Zorgstal","Organisatie":"De Zorgstal B.V.","Soort zorg":"Huizen en dagverblijven voor verstandelijk gehandicapten","Huisnummer":"5","Postcode":"7791RD","Plaats":"Radewijk"},"geometry":{"type":"Point","coordinates":[6.72094,52.57374]}},{"type":"Feature","properties":{"Naam":"Zorgboerderij Boetegeweun","Organisatie":"Zorgboerderij Boetegeweun","Soort zorg":"onbekend","Huisnummer":"11","Postcode":"6451DB","Plaats":"Schinveld"},"geometry":{"type":"Point","coordinates":[5.9789,50.96619]}},{"type":"Feature","properties":{"Naam":"Gezinshuis \"De Rode Beuk\"","Organisatie":"Gezinshuis \"De Rode Beuk\"","Soort zorg":"onbekend","Huisnummer":"4d","Postcode":"6905BG","Plaats":"Zevenaar"},"geometry":{"type":"Point","coordinates":[6.09751,51.918]}},{"type":"Feature","properties":{"Naam":"V.O.F. Erve Bussink","Organisatie":"V.O.F. Erve Bussink","Soort zorg":"onbekend","Huisnummer":"3","Postcode":"7273PS","Plaats":"Haarlo"},"geometry":{"type":"Point","coordinates":[6.58675,52.11394]}},{"type":"Feature","properties":{"Naam":"Maandewark","Organisatie":"Maandewark","Soort zorg":"onbekend","Huisnummer":"3","Postcode":"9422VC","Plaats":"Smilde"},"geometry":{"type":"Point","coordinates":[6.45307,52.9528]}},{"type":"Feature","properties":{"Naam":"Stichting at home","Organisatie":"Stichting at home","Soort zorg":"onbekend","Huisnummer":"11o","Postcode":"4004JP","Plaats":"Tiel"},"geometry":{"type":"Point","coordinates":[5.43217,51.90841]}},{"type":"Feature","properties":{"Naam":"hilton limburg","Organisatie":"Stichting Hilton Zorg en Welzijn Limburg","Soort zorg":"Huizen en dagverblijven voor verstandelijk gehandicapten","Huisnummer":"31","Postcode":"6181HA","Plaats":"Elsloo"},"geometry":{"type":"Point","coordinates":[5.7635,50.94705]}},{"type":"Feature","properties":{"Naam":"Stichting Ieders Zorg","Organisatie":"Stichting Ieders Zorg","Soort zorg":"onbekend","Huisnummer":"9","Postcode":"7602PD","Plaats":"Almelo"},"geometry":{"type":"Point","coordinates":[6.64531,52.36974]}},{"type":"Feature","properties":{"Naam":"Gezinshuis Kom aan boord thodn Driestroom","Organisatie":"Gezinshuis Kom aan boord","Soort zorg":"onbekend","Huisnummer":"41","Postcode":"2821NT","Plaats":"Stolwijk"},"geometry":{"type":"Point","coordinates":[4.75848,51.95539]}},{"type":"Feature","properties":{"Naam":"Stichting Aandacht Plus Zorg","Organisatie":"Stichting Aandacht Plus Zorg","Soort zorg":"onbekend","Huisnummer":"78","Postcode":"6225EG","Plaats":"Maastricht"},"geometry":{"type":"Point","coordinates":[5.73296,50.86509]}},{"type":"Feature","properties":{"Naam":"Gezinshuis de Vlerken","Organisatie":"Gezinshuis de Vlerken","Soort zorg":"onbekend","Huisnummer":"27","Postcode":"2743DR","Plaats":"Waddinxveen"},"geometry":{"type":"Point","coordinates":[4.64164,52.03734]}},{"type":"Feature","properties":{"Naam":"Hoeve het Rondgors vof","Organisatie":"Hoeve Het Rondgors vof","Soort zorg":"Huizen en dagverblijven voor verstandelijk gehandicapten","Huisnummer":"54a","Postcode":"4891TD","Plaats":"Rijsbergen"},"geometry":{"type":"Point","coordinates":[4.66571,51.52183]}},{"type":"Feature","properties":{"Naam":"Ruby's Hart voor de Zorg B.V.","Organisatie":"Ruby's Hart voor de Zorg B.V.","Soort zorg":"onbekend","Huisnummer":"2","Postcode":"1062GD","Plaats":"Amsterdam"},"geometry":{"type":"Point","coordinates":[4.83621,52.35123]}},{"type":"Feature","properties":{"Naam":"Woonhoeve Aurelia","Organisatie":"Woonhoeve Aurelia","Soort zorg":"onbekend","Huisnummer":"5","Postcode":"3227CB","Plaats":"Oudenhoorn"},"geometry":{"type":"Point","coordinates":[4.1916,51.82961]}},{"type":"Feature","properties":{"Naam":"Boerderij Buitengewoon","Organisatie":"Boerderij Buitengewoon","Soort zorg":"onbekend","Huisnummer":"1","Postcode":"8162PD","Plaats":"Epe"},"geometry":{"type":"Point","coordinates":[5.92904,52.35674]}},{"type":"Feature","properties":{"Naam":"FF Anders/Koek & Ei","Organisatie":"Stichting 'FF Anders'","Soort zorg":"onbekend","Huisnummer":"113","Postcode":"3971KG","Plaats":"Driebergen-Rijsenburg"},"geometry":{"type":"Point","coordinates":[5.28209,52.05244]}},{"type":"Feature","properties":{"Naam":"Schuur 163","Organisatie":"Schuur 163","Soort zorg":"onbekend","Huisnummer":"2","Postcode":"3371KK","Plaats":"Hardinxveld-Giessendam"},"geometry":{"type":"Point","coordinates":[4.8541,51.8257]}},{"type":"Feature","properties":{"Naam":"Stichting Zorgboerderij 't Klein Wierke","Organisatie":"Stichting Zorgboerderij 't Klein Wierke","Soort zorg":"Huizen en dagverblijven voor verstandelijk gehandicapten","Huisnummer":"48","Postcode":"7627PM","Plaats":"Bornerbroek"},"geometry":{"type":"Point","coordinates":[6.66032,52.32677]}},{"type":"Feature","properties":{"Naam":"Oranjeborg De Wolden B.V.","Organisatie":"Oranjeborg De Wolden B.V.","Soort zorg":"Huizen en dagverblijven voor verstandelijk gehandicapten","Huisnummer":"110","Postcode":"7943PE","Plaats":"Meppel"},"geometry":{"type":"Point","coordinates":[6.20693,52.69552]}},{"type":"Feature","properties":{"Naam":"Beter Leven Zorg B.V.","Organisatie":"Beter Leven Zorg B.V.","Soort zorg":"Huizen en dagverblijven voor verstandelijk gehandicapten","Huisnummer":"58","Postcode":"5111PL","Plaats":"Baarle-Nassau"},"geometry":{"type":"Point","coordinates":[4.94298,51.44717]}},{"type":"Feature","properties":{"Naam":"Opvang Uniek B.V.","Organisatie":"Opvang Uniek B.V.","Soort zorg":"Huizen en dagverblijven voor verstandelijk gehandicapten","Huisnummer":"7","Postcode":"7071TB","Plaats":"Ulft"},"geometry":{"type":"Point","coordinates":[6.37705,51.88287]}},{"type":"Feature","properties":{"Naam":"Dotinga State Zorg B.V.","Organisatie":"Dotinga State Zorg B.V.","Soort zorg":"Huizen en dagverblijven voor verstandelijk gehandicapten","Huisnummer":"42","Postcode":"9034XD","Plaats":"Marsum"},"geometry":{"type":"Point","coordinates":[5.73151,53.20454]}},{"type":"Feature","properties":{"Naam":"Patrick Nikken Zorg B.V.","Organisatie":"Patrick Nikken Zorg B.V.","Soort zorg":"Huizen en dagverblijven voor verstandelijk gehandicapten","Huisnummer":"64","Postcode":"7881HN","Plaats":"Emmer-Compascuum"},"geometry":{"type":"Point","coordinates":[7.03362,52.81127]}},{"type":"Feature","properties":{"Naam":"Van Huis Dus B.V.","Organisatie":"Van Huis Dus B.V.","Soort zorg":"onbekend","Huisnummer":"4","Postcode":"1191PB","Plaats":"Ouderkerk aan de Amstel"},"geometry":{"type":"Point","coordinates":[4.9178,52.29406]}},{"type":"Feature","properties":{"Naam":"Uniek Talent B.V.","Organisatie":"Uniek Talent B.V.","Soort zorg":"onbekend","Huisnummer":"345","Postcode":"8471NC","Plaats":"Wolvega"},"geometry":{"type":"Point","coordinates":[6.00649,52.87051]}},{"type":"Feature","properties":{"Naam":"Bestway Care","Organisatie":"Bestway Care","Soort zorg":"onbekend","Huisnummer":"40","Postcode":"2987CZ","Plaats":"Ridderkerk"},"geometry":{"type":"Point","coordinates":[4.58081,51.88911]}},{"type":"Feature","properties":{"Naam":"Boomerangzorg B.V.","Organisatie":"Boomerangzorg B.V.","Soort zorg":"Huizen en dagverblijven voor verstandelijk gehandicapten","Huisnummer":"34a","Postcode":"1046AL","Plaats":"Amsterdam"},"geometry":{"type":"Point","coordinates":[4.77921,52.38986]}},{"type":"Feature","properties":{"Naam":"Dagbesteding klimmen","Organisatie":"Dagbesteding Klimmen B.V.","Soort zorg":"Huizen en dagverblijven voor verstandelijk gehandicapten","Huisnummer":"13","Postcode":"6343PD","Plaats":"Klimmen"},"geometry":{"type":"Point","coordinates":[5.88636,50.87892]}},{"type":"Feature","properties":{"Naam":"SMAAK","Organisatie":"Stichting Lotus College","Soort zorg":"Huizen en dagverblijven voor verstandelijk gehandicapten","Huisnummer":"91","Postcode":"2031CC","Plaats":"Haarlem"},"geometry":{"type":"Point","coordinates":[4.6573,52.3847]}},{"type":"Feature","properties":{"Naam":"Piramide Zorgeenheid","Organisatie":"Piramide Zorgeenheid","Soort zorg":"onbekend","Huisnummer":"627","Postcode":"4623TT","Plaats":"Bergen op Zoom"},"geometry":{"type":"Point","coordinates":[4.3157,51.4907]}},{"type":"Feature","properties":{"Naam":"Gezinshuis De Levensboom","Organisatie":"Gezinshuis De Levensboom","Soort zorg":"onbekend","Huisnummer":"19","Postcode":"1217PM","Plaats":"Hilversum"},"geometry":{"type":"Point","coordinates":[5.1582,52.22876]}},{"type":"Feature","properties":{"Naam":"Dagbesteding Kooilust","Organisatie":"Woonzorgboerderij Kooilust B.V.","Soort zorg":"Huizen en dagverblijven voor verstandelijk gehandicapten","Huisnummer":"3","Postcode":"6659KM","Plaats":"Wamel"},"geometry":{"type":"Point","coordinates":[5.49227,51.85924]}},{"type":"Feature","properties":{"Naam":"Gezinshuis Joep & Co","Organisatie":"Gezinshuis Joep & Co","Soort zorg":"onbekend","Huisnummer":"73","Postcode":"3825XW","Plaats":"Amersfoort"},"geometry":{"type":"Point","coordinates":[5.41702,52.1904]}},{"type":"Feature","properties":{"Naam":"Stichting Het Max Plazier Huis","Organisatie":"Stichting Het Max Plazier Huis","Soort zorg":"Huizen en dagverblijven voor verstandelijk gehandicapten","Huisnummer":"97","Postcode":"1751CB","Plaats":"Schagerbrug"},"geometry":{"type":"Point","coordinates":[4.7672,52.80001]}},{"type":"Feature","properties":{"Naam":"I.C. Thuiszorg B.V.","Organisatie":"I.C. Thuiszorg B.V.","Soort zorg":"Huizen en dagverblijven voor verstandelijk gehandicapten","Huisnummer":"303","Postcode":"1171VC","Plaats":"Badhoevedorp"},"geometry":{"type":"Point","coordinates":[4.76969,52.33291]}},{"type":"Feature","properties":{"Naam":"Thomashuis Lochem","Organisatie":"V.O.F. Harms - van Gent","Soort zorg":"onbekend","Huisnummer":"70","Postcode":"7241JG","Plaats":"Lochem"},"geometry":{"type":"Point","coordinates":[6.41842,52.15251]}},{"type":"Feature","properties":{"Naam":"zorgboerderij Catharina Maria Hof","Organisatie":"Maatschap zorgboerderij Catharina Maria Hof","Soort zorg":"onbekend","Huisnummer":"10","Postcode":"4493MZ","Plaats":"Kamperland"},"geometry":{"type":"Point","coordinates":[3.67849,51.57145]}},{"type":"Feature","properties":{"Naam":"Soozijn B.V.","Organisatie":"Soozijn B.V.","Soort zorg":"Huizen en dagverblijven voor verstandelijk gehandicapten","Huisnummer":"176","Postcode":"7876CH","Plaats":"Valthermond"},"geometry":{"type":"Point","coordinates":[6.93476,52.86984]}},{"type":"Feature","properties":{"Naam":"Albero Gezinshuizen B.V.","Organisatie":"Albero Gezinshuizen B.V.","Soort zorg":"Huizen en dagverblijven voor verstandelijk gehandicapten","Huisnummer":"10c","Postcode":"6687LR","Plaats":"Angeren"},"geometry":{"type":"Point","coordinates":[5.96337,51.91112]}},{"type":"Feature","properties":{"Naam":"MaNatuurlijk","Organisatie":"MaNatuurlijk","Soort zorg":"onbekend","Huisnummer":"12","Postcode":"7396NN","Plaats":"Terwolde"},"geometry":{"type":"Point","coordinates":[6.08877,52.25341]}},{"type":"Feature","properties":{"Naam":"Thus by us t.h.o.d.n. Driestroom","Organisatie":"Thus by us","Soort zorg":"onbekend","Huisnummer":"15","Postcode":"9172GN","Plaats":"Ferwert"},"geometry":{"type":"Point","coordinates":[5.82571,53.3344]}},{"type":"Feature","properties":{"Naam":"The power of youth","Organisatie":"The power of youth","Soort zorg":"onbekend","Huisnummer":"13","Postcode":"9284KD","Plaats":"Augustinusga"},"geometry":{"type":"Point","coordinates":[6.15349,53.21439]}},{"type":"Feature","properties":{"Naam":"\"De Sleutelbloem\"","Organisatie":"Leerwerkcentrum De Sleutelbloem v.o.f.","Soort zorg":"onbekend","Huisnummer":"13","Postcode":"2432CB","Plaats":"Noorden"},"geometry":{"type":"Point","coordinates":[4.85089,52.17117]}},{"type":"Feature","properties":{"Naam":"Erve ZoKlein","Organisatie":"Erve ZoKlein","Soort zorg":"onbekend","Huisnummer":"25","Postcode":"7591PP","Plaats":"Denekamp"},"geometry":{"type":"Point","coordinates":[6.99653,52.38811]}},{"type":"Feature","properties":{"Naam":"Stichting Zorgerf Waarland","Organisatie":"Stichting Zorgerf Waarland","Soort zorg":"Huizen en dagverblijven voor verstandelijk gehandicapten","Huisnummer":"1a","Postcode":"1738DT","Plaats":"Waarland"},"geometry":{"type":"Point","coordinates":[4.83487,52.72042]}},{"type":"Feature","properties":{"Naam":"Labyrint","Organisatie":"Labyrint","Soort zorg":"onbekend","Huisnummer":"94","Postcode":"9678PP","Plaats":"Westerlee"},"geometry":{"type":"Point","coordinates":[6.98406,53.14322]}},{"type":"Feature","properties":{"Naam":"Waterlandswelzijn B.V.","Organisatie":"Waterlandswelzijn B.V.","Soort zorg":"onbekend","Huisnummer":"27","Postcode":"1141RT","Plaats":"Monnickendam"},"geometry":{"type":"Point","coordinates":[5.03901,52.44784]}},{"type":"Feature","properties":{"Naam":"Janine&Guido","Organisatie":"Janine&Guido","Soort zorg":"onbekend","Huisnummer":"10","Postcode":"9414AC","Plaats":"Hooghalen"},"geometry":{"type":"Point","coordinates":[6.54237,52.91992]}},{"type":"Feature","properties":{"Naam":"Equal care","Organisatie":"Equal care","Soort zorg":"onbekend","Huisnummer":"415","Postcode":"3765CM","Plaats":"Soest"},"geometry":{"type":"Point","coordinates":[5.28839,52.16975]}},{"type":"Feature","properties":{"Naam":"Stichting \"De Beuk\"","Organisatie":"Stichting \"De Beuk\"","Soort zorg":"Huizen en dagverblijven voor verstandelijk gehandicapten","Huisnummer":"180","Postcode":"7548PP","Plaats":"Enschede"},"geometry":{"type":"Point","coordinates":[6.77673,52.18855]}},{"type":"Feature","properties":{"Naam":"Limazorg","Organisatie":"Limazorg","Soort zorg":"onbekend","Huisnummer":"1","Postcode":"9367TM","Plaats":"De Wilp"},"geometry":{"type":"Point","coordinates":[6.2745,53.12564]}},{"type":"Feature","properties":{"Naam":"Signin B.V.","Organisatie":"Signin B.V.","Soort zorg":"Huizen en dagverblijven voor verstandelijk gehandicapten","Huisnummer":"36","Postcode":"5384SG","Plaats":"Heesch"},"geometry":{"type":"Point","coordinates":[5.51101,51.72094]}},{"type":"Feature","properties":{"Naam":"Zorgboerderij De Buitenkans Kremers","Organisatie":"De Buitenkans Zorgboerderij","Soort zorg":"onbekend","Huisnummer":"1","Postcode":"1901MV","Plaats":"Castricum"},"geometry":{"type":"Point","coordinates":[4.66052,52.56991]}},{"type":"Feature","properties":{"Naam":"De Schakel Fasehuizen","Organisatie":"De Schakel Fasehuizen","Soort zorg":"onbekend","Huisnummer":"5","Postcode":"7051DB","Plaats":"Varsseveld"},"geometry":{"type":"Point","coordinates":[6.46467,51.94349]}},{"type":"Feature","properties":{"Naam":"Het Vogelhuuske","Organisatie":"Het Vogelhuuske","Soort zorg":"onbekend","Huisnummer":"35","Postcode":"7833BB","Plaats":"Nieuw-Amsterdam"},"geometry":{"type":"Point","coordinates":[6.86265,52.71111]}},{"type":"Feature","properties":{"Naam":"Groei-end","Organisatie":"v.o.f. Wubs","Soort zorg":"onbekend","Huisnummer":"51","Postcode":"8219PW","Plaats":"Lelystad"},"geometry":{"type":"Point","coordinates":[5.52946,52.52274]}},{"type":"Feature","properties":{"Naam":"Parelhoenderhoeve B.V.","Organisatie":"Parelhoenderhoeve B.V.","Soort zorg":"Huizen en dagverblijven voor verstandelijk gehandicapten","Huisnummer":"7","Postcode":"1774NE","Plaats":"Slootdorp"},"geometry":{"type":"Point","coordinates":[5.00915,52.86913]}},{"type":"Feature","properties":{"Naam":"Zorgboerderij Karin's Zonnestraal","Organisatie":"In het Morgenlicht","Soort zorg":"onbekend","Huisnummer":"17","Postcode":"2965AB","Plaats":"Nieuwpoort"},"geometry":{"type":"Point","coordinates":[4.8691,51.93478]}},{"type":"Feature","properties":{"Naam":"Zonneschijn B.V.","Organisatie":"Zonneschijn B.V.","Soort zorg":"Huizen en dagverblijven voor verstandelijk gehandicapten","Huisnummer":"10","Postcode":"1671JJ","Plaats":"Medemblik"},"geometry":{"type":"Point","coordinates":[5.10336,52.76612]}},{"type":"Feature","properties":{"Naam":"Thomashuis Hellevoetsluis","Organisatie":"Thomashuis Hellevoetsluis v.o.f.","Soort zorg":"onbekend","Huisnummer":"10","Postcode":"3223BZ","Plaats":"Hellevoetsluis"},"geometry":{"type":"Point","coordinates":[4.14466,51.85557]}},{"type":"Feature","properties":{"Naam":"SAM- en...B.V.","Organisatie":"SAM- en... B.V.","Soort zorg":"Huizen en dagverblijven voor verstandelijk gehandicapten","Huisnummer":"5","Postcode":"4441TN","Plaats":"Ovezande"},"geometry":{"type":"Point","coordinates":[3.80004,51.43159]}},{"type":"Feature","properties":{"Naam":"Zorgboerderij De Mettemaat B.V.","Organisatie":"Zorgboerderij De Mettemaat B.V.","Soort zorg":"Huizen en dagverblijven voor verstandelijk gehandicapten","Huisnummer":"4","Postcode":"7255NN","Plaats":"Hengelo (Gld)"},"geometry":{"type":"Point","coordinates":[6.32585,52.04836]}},{"type":"Feature","properties":{"Naam":"De Velduil","Organisatie":"De Velduil V.O.F.","Soort zorg":"onbekend","Huisnummer":"2","Postcode":"9651BP","Plaats":"Meeden"},"geometry":{"type":"Point","coordinates":[6.90732,53.13818]}},{"type":"Feature","properties":{"Naam":"Zorgkwekerij Pluk de Dag","Organisatie":"Zorgkwekerij Pluk de Dag","Soort zorg":"onbekend","Huisnummer":"11","Postcode":"2641NA","Plaats":"Pijnacker"},"geometry":{"type":"Point","coordinates":[4.41907,52.01975]}},{"type":"Feature","properties":{"Naam":"Kornhuys","Organisatie":"Stichting Kornhuys ons Thuis","Soort zorg":"Huizen en dagverblijven voor verstandelijk gehandicapten","Huisnummer":"26","Postcode":"4271BP","Plaats":"Dussen"},"geometry":{"type":"Point","coordinates":[4.9526,51.7442]}},{"type":"Feature","properties":{"Naam":"Zorg Post","Organisatie":"Zorg Post","Soort zorg":"onbekend","Huisnummer":"103","Postcode":"1093AT","Plaats":"Amsterdam"},"geometry":{"type":"Point","coordinates":[4.92406,52.36404]}},{"type":"Feature","properties":{"Naam":"WerkWinkel de Liemers B.V.","Organisatie":"WerkWinkel de Liemers B.V.","Soort zorg":"Huizen en dagverblijven voor verstandelijk gehandicapten","Huisnummer":"2","Postcode":"6905AW","Plaats":"Zevenaar"},"geometry":{"type":"Point","coordinates":[6.08252,51.91365]}},{"type":"Feature","properties":{"Naam":"Boerderij Weidelicht","Organisatie":"Boerderij Weidelicht","Soort zorg":"onbekend","Huisnummer":"7","Postcode":"2636EC","Plaats":"Schipluiden"},"geometry":{"type":"Point","coordinates":[4.34019,51.95259]}},{"type":"Feature","properties":{"Naam":"St. De Notengaard, ontwikkelen door te doen","Organisatie":"St. De Notengaard, ontwikkelen door te doen","Soort zorg":"onbekend","Huisnummer":"59","Postcode":"8345HH","Plaats":"Kallenkote"},"geometry":{"type":"Point","coordinates":[6.18093,52.79971]}},{"type":"Feature","properties":{"Naam":"De Bosrand V.O.F.","Organisatie":"De Bosrand V.O.F.","Soort zorg":"Huizen en dagverblijven voor verstandelijk gehandicapten","Huisnummer":"14","Postcode":"8309PW","Plaats":"Tollebeek"},"geometry":{"type":"Point","coordinates":[5.61208,52.68145]}},{"type":"Feature","properties":{"Naam":"De Zorg Saloon","Organisatie":"De Zorg Saloon","Soort zorg":"onbekend","Huisnummer":"2","Postcode":"6627KH","Plaats":"Maasbommel"},"geometry":{"type":"Point","coordinates":[5.51445,51.84313]}},{"type":"Feature","properties":{"Naam":"Voornse Hoeve B.V.","Organisatie":"Voornse Hoeve B.V.","Soort zorg":"Huizen en dagverblijven voor verstandelijk gehandicapten","Huisnummer":"25","Postcode":"3233LN","Plaats":"Oostvoorne"},"geometry":{"type":"Point","coordinates":[4.11429,51.90479]}},{"type":"Feature","properties":{"Naam":"Shabu Care","Organisatie":"Shabu Care","Soort zorg":"onbekend","Huisnummer":"1347","Postcode":"2545DZ","Plaats":"'s-Gravenhage"},"geometry":{"type":"Point","coordinates":[4.27918,52.04029]}},{"type":"Feature","properties":{"Naam":"Farm 4 You B.V.","Organisatie":"Farm 4 You B.V.","Soort zorg":"Huizen en dagverblijven voor verstandelijk gehandicapten","Huisnummer":"15","Postcode":"7341AB","Plaats":"Beemte Broekland"},"geometry":{"type":"Point","coordinates":[5.98554,52.25035]}},{"type":"Feature","properties":{"Naam":"Gezinshuis De Basis B.V.","Organisatie":"Gezinshuis De Basis B.V.","Soort zorg":"onbekend","Huisnummer":"77","Postcode":"1687AM","Plaats":"Wognum"},"geometry":{"type":"Point","coordinates":[5.02046,52.68518]}},{"type":"Feature","properties":{"Naam":"Dagbesteding Het Sleutelbos","Organisatie":"Dagbesteding Het Sleutelbos","Soort zorg":"onbekend","Huisnummer":"2a","Postcode":"8414LV","Plaats":"Nieuwehorne"},"geometry":{"type":"Point","coordinates":[6.04293,52.94539]}},{"type":"Feature","properties":{"Naam":"Stichting Gastenhof Parkstad","Organisatie":"Stichting Gastenhof Parkstad","Soort zorg":"onbekend","Huisnummer":"137","Postcode":"6369AB","Plaats":"Simpelveld"},"geometry":{"type":"Point","coordinates":[5.98995,50.83379]}},{"type":"Feature","properties":{"Naam":"Stichting Gastenhof Noord en Midden Limburg","Organisatie":"Stichting Gastenhof Noord en Midden Limburg","Soort zorg":"onbekend","Huisnummer":"3","Postcode":"6097AH","Plaats":"Heel"},"geometry":{"type":"Point","coordinates":[5.89234,51.17661]}},{"type":"Feature","properties":{"Naam":"Perron 15","Organisatie":"Stichting Perron 15","Soort zorg":"Huizen en dagverblijven voor verstandelijk gehandicapten","Huisnummer":"15","Postcode":"5735SH","Plaats":"Aarle-Rixtel"},"geometry":{"type":"Point","coordinates":[5.65176,51.51184]}},{"type":"Feature","properties":{"Naam":"Smoel Kunstwerkplaats","Organisatie":"Smoel Kunstwerkplaats","Soort zorg":"onbekend","Huisnummer":"1b","Postcode":"8911KM","Plaats":"Leeuwarden"},"geometry":{"type":"Point","coordinates":[5.80068,53.20077]}},{"type":"Feature","properties":{"Naam":"Esther Kooij Zorgt","Organisatie":"Esther Kooij Zorgt","Soort zorg":"onbekend","Huisnummer":"25","Postcode":"3851WP","Plaats":"Ermelo"},"geometry":{"type":"Point","coordinates":[5.6188,52.28832]}},{"type":"Feature","properties":{"Naam":"Kozo Koeter Zorgatelier","Organisatie":"Kozo Koeter Zorgatelier V.O.F.","Soort zorg":"onbekend","Huisnummer":"33","Postcode":"5708HR","Plaats":"Helmond"},"geometry":{"type":"Point","coordinates":[5.62995,51.47465]}},{"type":"Feature","properties":{"Naam":"Gezinshuis Puur","Organisatie":"Gezinshuis Puur","Soort zorg":"onbekend","Huisnummer":"3","Postcode":"7954HJ","Plaats":"Rouveen"},"geometry":{"type":"Point","coordinates":[6.17763,52.61589]}},{"type":"Feature","properties":{"Naam":"Educatieve zorgboerderij Landelijk leven B.V.","Organisatie":"Educatieve zorgboerderij Landelijk leven B.V.","Soort zorg":"Huizen en dagverblijven voor verstandelijk gehandicapten","Huisnummer":"10","Postcode":"4031JX","Plaats":"Ingen"},"geometry":{"type":"Point","coordinates":[5.47106,51.96666]}},{"type":"Feature","properties":{"Naam":"Woonvorm \"De Passie\" Oosterhout B.V.","Organisatie":"Woonvorm \"De Passie\" Oosterhout B.V.","Soort zorg":"Huizen en dagverblijven voor verstandelijk gehandicapten","Huisnummer":"39","Postcode":"6678BE","Plaats":"Oosterhout"},"geometry":{"type":"Point","coordinates":[5.8259,51.8792]}},{"type":"Feature","properties":{"Naam":"Farmhuys","Organisatie":"Farmhuys","Soort zorg":"onbekend","Huisnummer":"16","Postcode":"4844PK","Plaats":"Terheijden"},"geometry":{"type":"Point","coordinates":[4.78731,51.64125]}},{"type":"Feature","properties":{"Naam":"ReubeZorg B.V.","Organisatie":"ReubeZorg B.V.","Soort zorg":"Huizen en dagverblijven voor verstandelijk gehandicapten","Huisnummer":"26","Postcode":"7241NC","Plaats":"Lochem"},"geometry":{"type":"Point","coordinates":[6.41507,52.17089]}},{"type":"Feature","properties":{"Naam":"Bijzonder Beheer B.V.","Organisatie":"Bijzonder Beheer B.V.","Soort zorg":"Huizen en dagverblijven voor verstandelijk gehandicapten","Huisnummer":"1","Postcode":"6431KP","Plaats":"Hoensbroek"},"geometry":{"type":"Point","coordinates":[5.92757,50.92479]}},{"type":"Feature","properties":{"Naam":"Zorgboerderij Zwaantjeshof B.V.","Organisatie":"Zorgboerderij Zwaantjeshof B.V.","Soort zorg":"Huizen en dagverblijven voor verstandelijk gehandicapten","Huisnummer":"17","Postcode":"6101XN","Plaats":"Echt"},"geometry":{"type":"Point","coordinates":[5.86652,51.124]}},{"type":"Feature","properties":{"Naam":"Dagbesteding m'n Werkenzo B.V.","Organisatie":"Dagbesteding m'n Werkenzo B.V.","Soort zorg":"Huizen en dagverblijven voor verstandelijk gehandicapten","Huisnummer":"1","Postcode":"6851BJ","Plaats":"Huissen"},"geometry":{"type":"Point","coordinates":[5.94325,51.9361]}},{"type":"Feature","properties":{"Naam":"Thomashuis Terborg","Organisatie":"Gijsberts & Gijsberts - Wullings","Soort zorg":"onbekend","Huisnummer":"100","Postcode":"7061CM","Plaats":"Terborg"},"geometry":{"type":"Point","coordinates":[6.35529,51.91915]}},{"type":"Feature","properties":{"Naam":"Gizall Care","Organisatie":"Gizall Care","Soort zorg":"onbekend","Huisnummer":"172","Postcode":"3562EJ","Plaats":"Utrecht"},"geometry":{"type":"Point","coordinates":[5.11638,52.11766]}},{"type":"Feature","properties":{"Naam":"Wouda's maatschappelijke onderneming","Organisatie":"Wouda's maatschappelijke onderneming","Soort zorg":"onbekend","Huisnummer":"57","Postcode":"9231CJ","Plaats":"Surhuisterveen"},"geometry":{"type":"Point","coordinates":[6.17261,53.17978]}},{"type":"Feature","properties":{"Naam":"Gezinshuis Onze Toekomst","Organisatie":"Gezinshuis Onze Toekomst","Soort zorg":"onbekend","Huisnummer":"23","Postcode":"2551WL","Plaats":"'s-Gravenhage"},"geometry":{"type":"Point","coordinates":[4.23718,52.05813]}},{"type":"Feature","properties":{"Naam":"Samen Bijzonder","Organisatie":"Samen Bijzonder V.O.F.","Soort zorg":"Huizen en dagverblijven voor verstandelijk gehandicapten","Huisnummer":"1","Postcode":"6161EV","Plaats":"Geleen"},"geometry":{"type":"Point","coordinates":[5.82896,50.96972]}},{"type":"Feature","properties":{"Naam":"zorgboerderij Rolina-Hoeve","Organisatie":"zorgboerderij Rolina-Hoeve","Soort zorg":"onbekend","Huisnummer":"20","Postcode":"9418TE","Plaats":"Wijster"},"geometry":{"type":"Point","coordinates":[6.53049,52.83498]}},{"type":"Feature","properties":{"Naam":"Zorgboerderij De Groote Fliert V.O.F.","Organisatie":"Zorgboerderij De Groote Fliert V.O.F.","Soort zorg":"Huizen en dagverblijven voor verstandelijk gehandicapten","Huisnummer":"54","Postcode":"3927CM","Plaats":"Renswoude"},"geometry":{"type":"Point","coordinates":[5.50389,52.06745]}},{"type":"Feature","properties":{"Naam":"Dagbesteding de Schutkooi","Organisatie":"Dagbesteding de Schutkooi","Soort zorg":"Huizen en dagverblijven voor verstandelijk gehandicapten","Huisnummer":"3","Postcode":"5827AD","Plaats":"Vortum-Mullem"},"geometry":{"type":"Point","coordinates":[5.9895,51.63034]}},{"type":"Feature","properties":{"Naam":"De Loonse Lampion B.V.","Organisatie":"De Loonse Lampion B.V.","Soort zorg":"Huizen en dagverblijven voor verstandelijk gehandicapten","Huisnummer":"6","Postcode":"5356NE","Plaats":"Neerloon"},"geometry":{"type":"Point","coordinates":[5.68087,51.78782]}},{"type":"Feature","properties":{"Naam":"De Baander B.V.","Organisatie":"De Baander B.V.","Soort zorg":"Huizen en dagverblijven voor verstandelijk gehandicapten","Huisnummer":"1a","Postcode":"7913BA","Plaats":"Hollandscheveld"},"geometry":{"type":"Point","coordinates":[6.5344,52.70653]}},{"type":"Feature","properties":{"Naam":"Thuis bij Sanne","Organisatie":"Thuis bij Sanne","Soort zorg":"Huizen en dagverblijven voor verstandelijk gehandicapten","Huisnummer":"18","Postcode":"5165KK","Plaats":"Waspik"},"geometry":{"type":"Point","coordinates":[4.95003,51.68188]}},{"type":"Feature","properties":{"Naam":"Horses & Co leerboerderij","Organisatie":"B.V. Horses & Co leerboerderij","Soort zorg":"Huizen en dagverblijven voor verstandelijk gehandicapten","Huisnummer":"12","Postcode":"2995XK","Plaats":"Heerjansdam"},"geometry":{"type":"Point","coordinates":[4.57294,51.82761]}},{"type":"Feature","properties":{"Naam":"Schuur 14","Organisatie":"Schuur 14","Soort zorg":"Huizen en dagverblijven voor verstandelijk gehandicapten","Huisnummer":"14","Postcode":"6005NT","Plaats":"Weert"},"geometry":{"type":"Point","coordinates":[5.77143,51.23524]}},{"type":"Feature","properties":{"Naam":"You & I Care","Organisatie":"You & I Care","Soort zorg":"Huizen en dagverblijven voor verstandelijk gehandicapten","Huisnummer":"13","Postcode":"4381CB","Plaats":"Vlissingen"},"geometry":{"type":"Point","coordinates":[3.57381,51.44039]}},{"type":"Feature","properties":{"Naam":"Bij Ons Zorginstelling B.V.","Organisatie":"Bij Ons Zorginstelling B.V.","Soort zorg":"Huizen en dagverblijven voor verstandelijk gehandicapten","Huisnummer":"31a","Postcode":"3155CE","Plaats":"Maasland"},"geometry":{"type":"Point","coordinates":[4.28841,51.95451]}},{"type":"Feature","properties":{"Naam":"Zorgboerderij Onder Ons B.V.","Organisatie":"Zorgboerderij Onder Ons B.V.","Soort zorg":"Huizen en dagverblijven voor verstandelijk gehandicapten","Huisnummer":"10","Postcode":"5712XP","Plaats":"Someren"},"geometry":{"type":"Point","coordinates":[5.70851,51.37401]}},{"type":"Feature","properties":{"Naam":"Laura - Hart voor zorg","Organisatie":"Laura - Hart voor zorg","Soort zorg":"Huizen en dagverblijven voor verstandelijk gehandicapten","Huisnummer":"87","Postcode":"3853CB","Plaats":"Ermelo"},"geometry":{"type":"Point","coordinates":[5.60081,52.29512]}},{"type":"Feature","properties":{"Naam":"Zorgpunt Havelte","Organisatie":"Zorgpunt Havelte","Soort zorg":"Huizen en dagverblijven voor verstandelijk gehandicapten","Huisnummer":"21","Postcode":"7971CN","Plaats":"Havelte"},"geometry":{"type":"Point","coordinates":[6.24095,52.76963]}},{"type":"Feature","properties":{"Naam":"Dagbesteding de Vlaamse Gaai","Organisatie":"Dagbesteding de Vlaamse Gaai","Soort zorg":"Huizen en dagverblijven voor verstandelijk gehandicapten","Huisnummer":"5","Postcode":"7054AC","Plaats":"Westendorp"},"geometry":{"type":"Point","coordinates":[6.4424,51.94153]}},{"type":"Feature","properties":{"Naam":"\"t Spoorhuis","Organisatie":"'t Spoorhuis","Soort zorg":"Huizen en dagverblijven voor verstandelijk gehandicapten","Huisnummer":"14","Postcode":"9974SK","Plaats":"Zoutkamp"},"geometry":{"type":"Point","coordinates":[6.30424,53.3428]}},{"type":"Feature","properties":{"Naam":"Viittaa B.V.","Organisatie":"Viittaa B.V.","Soort zorg":"Huizen en dagverblijven voor verstandelijk gehandicapten","Huisnummer":"331","Postcode":"1066WB","Plaats":"Amsterdam"},"geometry":{"type":"Point","coordinates":[4.807,52.34466]}},{"type":"Feature","properties":{"Naam":"autismehuis","Organisatie":"autismehuis B.V.","Soort zorg":"onbekend","Huisnummer":"1","Postcode":"8011GD","Plaats":"Zwolle"},"geometry":{"type":"Point","coordinates":[6.09276,52.5067]}},{"type":"Feature","properties":{"Naam":"Op-eigen-Kracht","Organisatie":"Op-Eigen-Kracht","Soort zorg":"onbekend","Huisnummer":"15","Postcode":"7371BN","Plaats":"Loenen"},"geometry":{"type":"Point","coordinates":[6.02491,52.11709]}},{"type":"Feature","properties":{"Naam":"Idesta B.V.","Organisatie":"Idesta B.V.","Soort zorg":"onbekend","Huisnummer":"62","Postcode":"8914AT","Plaats":"Leeuwarden"},"geometry":{"type":"Point","coordinates":[5.77439,53.19845]}},{"type":"Feature","properties":{"Naam":"Frá Limgardur","Organisatie":"Frá Limgardur","Soort zorg":"onbekend","Huisnummer":"5","Postcode":"8181PJ","Plaats":"Heerde"},"geometry":{"type":"Point","coordinates":[6.0185,52.38293]}},{"type":"Feature","properties":{"Naam":"Centrum De Mik B.V.","Organisatie":"Centrum De Mik B.V.","Soort zorg":"Huizen en dagverblijven voor verstandelijk gehandicapten","Huisnummer":"3","Postcode":"8731DW","Plaats":"Wommels"},"geometry":{"type":"Point","coordinates":[5.59331,53.11754]}},{"type":"Feature","properties":{"Naam":"Cura Twente","Organisatie":"Cura Twente","Soort zorg":"onbekend","Huisnummer":"114","Postcode":"7531CE","Plaats":"Enschede"},"geometry":{"type":"Point","coordinates":[6.91675,52.22683]}},{"type":"Feature","properties":{"Naam":"Bedriuwenpleats It Aventoer B.V.","Organisatie":"Bedriuwenpleats It Aventoer B.V.","Soort zorg":"Huizen en dagverblijven voor verstandelijk gehandicapten","Huisnummer":"20","Postcode":"9062GR","Plaats":"Oentsjerk"},"geometry":{"type":"Point","coordinates":[5.88663,53.25455]}},{"type":"Feature","properties":{"Naam":"Zorgboerderij Open Arms","Organisatie":"Zorgboerderij Open Arms","Soort zorg":"onbekend","Huisnummer":"139","Postcode":"7833KD","Plaats":"Nieuw-Amsterdam"},"geometry":{"type":"Point","coordinates":[6.89502,52.69594]}},{"type":"Feature","properties":{"Naam":"Zorgboerderij \"The Ranch\"","Organisatie":"Zorgboerderij \"The Ranch\"","Soort zorg":"onbekend","Huisnummer":"26","Postcode":"8151AA","Plaats":"Lemelerveld"},"geometry":{"type":"Point","coordinates":[6.34839,52.45103]}},{"type":"Feature","properties":{"Naam":"Zorgboerderij \"Stal de Schultenhof\" B.V.","Organisatie":"Zorgboerderij \"Stal de Schultenhof\" B.V.","Soort zorg":"onbekend","Huisnummer":"16","Postcode":"7651NL","Plaats":"Tubbergen"},"geometry":{"type":"Point","coordinates":[6.76737,52.39472]}},{"type":"Feature","properties":{"Naam":"Lindelaar V.o.f.","Organisatie":"Lindelaar V.o.f.","Soort zorg":"onbekend","Huisnummer":"45","Postcode":"8407EG","Plaats":"Terwispel"},"geometry":{"type":"Point","coordinates":[6.04282,53.01888]}},{"type":"Feature","properties":{"Naam":"Stichting De Zijlen","Organisatie":"Stichting De Zijlen","Soort zorg":"onbekend","Huisnummer":"65","Postcode":"9356AA","Plaats":"Tolbert","Routekaart":"Voorlopig","Ambitie":"Route tot 2030"},"geometry":{"type":"Point","coordinates":[6.36885,53.17303]}},{"type":"Feature","properties":{"Naam":"ELF Friesland","Organisatie":"St. Expertise en Logeercentrum Friesland","Soort zorg":"onbekend","Huisnummer":"10","Postcode":"9264TP","Plaats":"Earnewâld"},"geometry":{"type":"Point","coordinates":[5.94549,53.12675]}},{"type":"Feature","properties":{"Naam":"Dagbesteding Stukje bij Beetje","Organisatie":"Dagbesteding Stukje bij Beetje","Soort zorg":"onbekend","Huisnummer":"1","Postcode":"8442CX","Plaats":"Heerenveen"},"geometry":{"type":"Point","coordinates":[5.92699,52.96028]}},{"type":"Feature","properties":{"Naam":"Stichting Alliade","Organisatie":"Alliade Zorggroep","Soort zorg":"Huizen en dagverblijven voor verstandelijk gehandicapten","Huisnummer":"10","Postcode":"8441BH","Plaats":"Heerenveen"},"geometry":{"type":"Point","coordinates":[5.91597,52.96109]}},{"type":"Feature","properties":{"Naam":"HJEM","Organisatie":"Logeerhuis HJEM","Soort zorg":"onbekend","Huisnummer":"18","Postcode":"8602CK","Plaats":"Sneek"},"geometry":{"type":"Point","coordinates":[5.659,53.04479]}},{"type":"Feature","properties":{"Naam":"Mts.H en R.C, Jansen de Jong","Organisatie":"Mts H. en S.J. en R.C. Jansen-de Jong","Soort zorg":"onbekend","Huisnummer":"152","Postcode":"8763XB","Plaats":"Parrega"},"geometry":{"type":"Point","coordinates":[5.4732,52.99944]}},{"type":"Feature","properties":{"Naam":"Stichting \"De Twentse Zorgcentra\"","Organisatie":"Stichting \"De Twentse Zorgcentra\"","Soort zorg":"Huizen en dagverblijven voor verstandelijk gehandicapten","Huisnummer":"100","Postcode":"7524AK","Plaats":"Enschede"},"geometry":{"type":"Point","coordinates":[6.91217,52.24222]}},{"type":"Feature","properties":{"Naam":"Zorgboerderij Het Haaksbergerveen","Organisatie":"Het Haaksbergerveen","Soort zorg":"onbekend","Huisnummer":"1","Postcode":"7157CB","Plaats":"Rekken"},"geometry":{"type":"Point","coordinates":[6.75726,52.11801]}},{"type":"Feature","properties":{"Naam":"Stichting De Bijzondere Onderneming","Organisatie":"Stichting De Bijzondere Onderneming","Soort zorg":"Huizen en dagverblijven voor verstandelijk gehandicapten","Huisnummer":"1","Postcode":"9221RA","Plaats":"Rottevalle"},"geometry":{"type":"Point","coordinates":[6.09916,53.14199]}},{"type":"Feature","properties":{"Naam":"Dekkersnest","Organisatie":"Dekkersnest","Soort zorg":"onbekend","Huisnummer":"3","Postcode":"9649ED","Plaats":"Muntendam"},"geometry":{"type":"Point","coordinates":[6.86899,53.14016]}},{"type":"Feature","properties":{"Naam":"V.O.F. YOKO","Organisatie":"V.O.F. YOKO","Soort zorg":"onbekend","Huisnummer":"1","Postcode":"5433NB","Plaats":"Katwijk NB"},"geometry":{"type":"Point","coordinates":[5.86502,51.75062]}},{"type":"Feature","properties":{"Naam":"Zorg- en recreatieboerderij \"De Bult\"","Organisatie":"Zorg- en recreatieboerderij \"De Bult\"","Soort zorg":"onbekend","Huisnummer":"13","Postcode":"7227NC","Plaats":"Toldijk"},"geometry":{"type":"Point","coordinates":[6.24734,52.03668]}},{"type":"Feature","properties":{"Naam":"Erve Tijhuis","Organisatie":"Zorgboerderij \"Erve Tijhuis\" B.V.","Soort zorg":"onbekend","Huisnummer":"190","Postcode":"7679VH","Plaats":"Langeveen"},"geometry":{"type":"Point","coordinates":[6.72077,52.45988]}},{"type":"Feature","properties":{"Naam":"Stichting de Buffelaar","Organisatie":"Stichting de Buffelaar","Soort zorg":"onbekend","Huisnummer":"367","Postcode":"9736ND","Plaats":"Groningen"},"geometry":{"type":"Point","coordinates":[6.60153,53.24625]}},{"type":"Feature","properties":{"Naam":"Woonfoyers Nederland B.V.","Organisatie":"Woonfoyers Nederland B.V.","Soort zorg":"onbekend","Huisnummer":"9","Postcode":"8938AT","Plaats":"Leeuwarden"},"geometry":{"type":"Point","coordinates":[5.85075,53.19843]}},{"type":"Feature","properties":{"Naam":"Siza","Organisatie":"Stichting Siza","Soort zorg":"Huizen en dagverblijven voor verstandelijk gehandicapten","Huisnummer":"139e","Postcode":"6816RP","Plaats":"Arnhem","Routekaart":"Voorlopig","Ambitie":"Route tot +-2025"},"geometry":{"type":"Point","coordinates":[5.87574,52.01003]}},{"type":"Feature","properties":{"Naam":"Stichting Aveleijn","Organisatie":"Stichting Aveleijn","Soort zorg":"Huizen en dagverblijven voor verstandelijk gehandicapten","Huisnummer":"260","Postcode":"7622GW","Plaats":"Borne","Routekaart":"Voorlopig","Ambitie":"Route tot +-2025"},"geometry":{"type":"Point","coordinates":[6.75084,52.30207]}},{"type":"Feature","properties":{"Naam":"De Veenhoeve","Organisatie":"Stichting Zorgboerderij \"De Veenhoeve\"","Soort zorg":"onbekend","Huisnummer":"29","Postcode":"6744VC","Plaats":"Ederveen"},"geometry":{"type":"Point","coordinates":[5.57392,52.06025]}},{"type":"Feature","properties":{"Naam":"It Wolwézen Leer- en werkboerderij","Organisatie":"V.O.F. It Wolwézen","Soort zorg":"onbekend","Huisnummer":"22","Postcode":"8456HR","Plaats":"De Knipe"},"geometry":{"type":"Point","coordinates":[5.98681,52.96671]}},{"type":"Feature","properties":{"Naam":"Zorgboerderij de Pieperhoeve V.O.F.","Organisatie":"Zorgboerderij de Pieperhoeve V.O.F.","Soort zorg":"Huizen en dagverblijven voor verstandelijk gehandicapten","Huisnummer":"1","Postcode":"8281PL","Plaats":"Genemuiden"},"geometry":{"type":"Point","coordinates":[6.01604,52.60898]}},{"type":"Feature","properties":{"Naam":"Stichting Driestroom","Organisatie":"Stichting Driestroom","Soort zorg":"onbekend","Huisnummer":"27","Postcode":"6662NE","Plaats":"Elst","Routekaart":"Voorlopig","Ambitie":"Route tot 2030"},"geometry":{"type":"Point","coordinates":[5.86223,51.90785]}},{"type":"Feature","properties":{"Naam":"Stichting Keroazie","Organisatie":"Stichting Keroazie","Soort zorg":"Huizen en dagverblijven voor verstandelijk gehandicapten","Huisnummer":"46","Postcode":"9964AT","Plaats":"Wehe-den Hoorn"},"geometry":{"type":"Point","coordinates":[6.42593,53.35903]}},{"type":"Feature","properties":{"Naam":"Zorgboerderij 't Haantje","Organisatie":"Zorgboerderij 't Haantje","Soort zorg":"onbekend","Huisnummer":"67","Postcode":"7847TB","Plaats":"'t Haantje"},"geometry":{"type":"Point","coordinates":[6.81574,52.81157]}},{"type":"Feature","properties":{"Naam":"Terraplant","Organisatie":"Terraplant","Soort zorg":"onbekend","Huisnummer":"42","Postcode":"9681CM","Plaats":"Midwolda"},"geometry":{"type":"Point","coordinates":[7.01393,53.18735]}},{"type":"Feature","properties":{"Naam":"Huize @dgar B.V.","Organisatie":"Huize @dgar B.V.","Soort zorg":"onbekend","Huisnummer":"42","Postcode":"7561RP","Plaats":"Deurningen"},"geometry":{"type":"Point","coordinates":[6.84653,52.30534]}},{"type":"Feature","properties":{"Naam":"Natuurwerkplaats Materra","Organisatie":"Stichting Materra","Soort zorg":"Huizen en dagverblijven voor verstandelijk gehandicapten","Huisnummer":"18","Postcode":"3851XW","Plaats":"Ermelo"},"geometry":{"type":"Point","coordinates":[5.62257,52.30492]}},{"type":"Feature","properties":{"Naam":"Refaja Zorgboerderij","Organisatie":"Refaja Zorgboerderij","Soort zorg":"onbekend","Huisnummer":"19","Postcode":"7932PW","Plaats":"Echten"},"geometry":{"type":"Point","coordinates":[6.37484,52.69736]}},{"type":"Feature","properties":{"Naam":"Zorgboerderij Ying & Yang","Organisatie":"Zorgboerderij Ying & Yang","Soort zorg":"onbekend","Huisnummer":"35","Postcode":"9411XB","Plaats":"Beilen"},"geometry":{"type":"Point","coordinates":[6.52773,52.88375]}},{"type":"Feature","properties":{"Naam":"Stichting \"Op \\'e Timpe\"","Organisatie":"Stichting \"Op \\'e Timpe\"","Soort zorg":"onbekend","Huisnummer":"14","Postcode":"8762PK","Plaats":"Hieslum"},"geometry":{"type":"Point","coordinates":[5.49722,53.00375]}},{"type":"Feature","properties":{"Naam":"Stichting De Trans","Organisatie":"Stichting De Trans","Soort zorg":"onbekend","Huisnummer":"3","Postcode":"9451BP","Plaats":"Rolde"},"geometry":{"type":"Point","coordinates":[6.6456,52.9849]}},{"type":"Feature","properties":{"Naam":"Stichting Pluryn Exploitatie","Organisatie":"Stichting Pluryn","Soort zorg":"Huizen en dagverblijven voor verstandelijk gehandicapten","Huisnummer":"50","Postcode":"6541TW","Plaats":"Nijmegen"},"geometry":{"type":"Point","coordinates":[5.83399,51.84905]}},{"type":"Feature","properties":{"Naam":"Bronnegerstraat 20","Organisatie":"Stichting leefgemeenschap \"De Gouden Zon\"","Soort zorg":"Huizen en dagverblijven voor verstandelijk gehandicapten","Huisnummer":"20","Postcode":"9531TG","Plaats":"Borger"},"geometry":{"type":"Point","coordinates":[6.80091,52.93387]}},{"type":"Feature","properties":{"Naam":"Zorgboerderij de Keuterij","Organisatie":"Zorgboerderij de Keuterij V.O.F.","Soort zorg":"onbekend","Huisnummer":"10","Postcode":"7971RZ","Plaats":"Havelte"},"geometry":{"type":"Point","coordinates":[6.22217,52.75081]}},{"type":"Feature","properties":{"Naam":"Boerderij Prins","Organisatie":"Boerderij Prins","Soort zorg":"onbekend","Huisnummer":"2","Postcode":"9335TG","Plaats":"Zuidvelde"},"geometry":{"type":"Point","coordinates":[6.4553,53.04442]}},{"type":"Feature","properties":{"Naam":"Woonboerderij de Deel","Organisatie":"De Deel","Soort zorg":"onbekend","Huisnummer":"7","Postcode":"6691GG","Plaats":"Gendt"},"geometry":{"type":"Point","coordinates":[5.978,51.88716]}},{"type":"Feature","properties":{"Naam":"Zorgboerderij Breukelaar","Organisatie":"Zorgboerderij Breukelaar","Soort zorg":"onbekend","Huisnummer":"5a","Postcode":"7054BN","Plaats":"Westendorp"},"geometry":{"type":"Point","coordinates":[6.4108,51.95928]}},{"type":"Feature","properties":{"Naam":"Zorgboerderij De Munnikenhof","Organisatie":"B. Groenewoud en G.J.M. Groenewoud-Spronk","Soort zorg":"onbekend","Huisnummer":"30a","Postcode":"6991JP","Plaats":"Rheden"},"geometry":{"type":"Point","coordinates":[6.01484,52.0036]}},{"type":"Feature","properties":{"Naam":"Zorgboederij Green Valley","Organisatie":"Zorgboerderij Green Valley V.O.F.","Soort zorg":"onbekend","Huisnummer":"15a","Postcode":"7645BC","Plaats":"Hoge Hexel"},"geometry":{"type":"Point","coordinates":[6.54772,52.39463]}},{"type":"Feature","properties":{"Naam":"De Waagschaal","Organisatie":"De Waagschaal V.O.F.","Soort zorg":"onbekend","Huisnummer":"10","Postcode":"7910TK","Plaats":"Nieuweroord"},"geometry":{"type":"Point","coordinates":[6.59978,52.75335]}},{"type":"Feature","properties":{"Naam":"Zorgboerderij de Koningshoeve","Organisatie":"Zorgboerderij de Koningshoeve","Soort zorg":"onbekend","Huisnummer":"111","Postcode":"7671JH","Plaats":"Vriezenveen"},"geometry":{"type":"Point","coordinates":[6.59143,52.39994]}},{"type":"Feature","properties":{"Naam":"Zorgboerderij Polderzicht","Organisatie":"Zorgboerderij Polderzicht","Soort zorg":"onbekend","Huisnummer":"139","Postcode":"8293PE","Plaats":"Mastenbroek"},"geometry":{"type":"Point","coordinates":[6.01634,52.58027]}},{"type":"Feature","properties":{"Naam":"Ipsum Dagbesteding en meer","Organisatie":"Ipsum Dagbesteding en meer","Soort zorg":"onbekend","Huisnummer":"2","Postcode":"9457TB","Plaats":"Deurze"},"geometry":{"type":"Point","coordinates":[6.61017,52.98717]}},{"type":"Feature","properties":{"Naam":"Woldenborghhoeve","Organisatie":"Woldenborghhoeve","Soort zorg":"onbekend","Huisnummer":"11","Postcode":"9687PE","Plaats":"Nieuw Beerta"},"geometry":{"type":"Point","coordinates":[7.17577,53.19648]}},{"type":"Feature","properties":{"Naam":"Alex-Cares","Organisatie":"Finqo B.V.","Soort zorg":"Huizen en dagverblijven voor verstandelijk gehandicapten","Huisnummer":"1l","Postcode":"8442EZ","Plaats":"Heerenveen"},"geometry":{"type":"Point","coordinates":[5.92942,52.95747]}},{"type":"Feature","properties":{"Naam":"De Olle Es","Organisatie":"De Olle Es","Soort zorg":"onbekend","Huisnummer":"4","Postcode":"7384CD","Plaats":"Wilp"},"geometry":{"type":"Point","coordinates":[6.16345,52.20703]}},{"type":"Feature","properties":{"Naam":"V.O.F. 't Rechthoes","Organisatie":"V.O.F. 't Rechthoes","Soort zorg":"Huizen en dagverblijven voor verstandelijk gehandicapten","Huisnummer":"5","Postcode":"7696BL","Plaats":"Brucht"},"geometry":{"type":"Point","coordinates":[6.60968,52.54528]}},{"type":"Feature","properties":{"Naam":"De Bonte Drie","Organisatie":"De Bonte Drie","Soort zorg":"onbekend","Huisnummer":"50","Postcode":"9584TH","Plaats":"Mussel"},"geometry":{"type":"Point","coordinates":[7.06347,52.97119]}},{"type":"Feature","properties":{"Naam":"Zorgboerderij 'De Olden Gaorden'","Organisatie":"Zorgboerderij 'De Olden Gaorden'","Soort zorg":"onbekend","Huisnummer":"8a","Postcode":"7108AE","Plaats":"Winterswijk Woold"},"geometry":{"type":"Point","coordinates":[6.70944,51.95325]}},{"type":"Feature","properties":{"Naam":"Stichting Woongroep Babajit","Organisatie":"Stichting Woongroep Babajit","Soort zorg":"Huizen en dagverblijven voor verstandelijk gehandicapten","Huisnummer":"5","Postcode":"9677RH","Plaats":"Heiligerlee"},"geometry":{"type":"Point","coordinates":[7.00082,53.15511]}},{"type":"Feature","properties":{"Naam":"Plantinga Schrijvers hodn Thomashuis Tilburg","Organisatie":"Plantinga Schrijvers hodn Thomashuis Tilburg","Soort zorg":"Huizen en dagverblijven voor verstandelijk gehandicapten","Huisnummer":"256","Postcode":"5046LR","Plaats":"Tilburg"},"geometry":{"type":"Point","coordinates":[5.0743,51.56906]}},{"type":"Feature","properties":{"Naam":"Caressing Care B.V.","Organisatie":"Caressing Care B.V.","Soort zorg":"Huizen en dagverblijven voor verstandelijk gehandicapten","Huisnummer":"2","Postcode":"9063JA","Plaats":"Mûnein"},"geometry":{"type":"Point","coordinates":[5.90787,53.25392]}},{"type":"Feature","properties":{"Naam":"Bem Vindo Zorg- en logeerboerderij","Organisatie":"Bem Vindo","Soort zorg":"onbekend","Huisnummer":"40","Postcode":"9541XM","Plaats":"Vlagtwedde"},"geometry":{"type":"Point","coordinates":[7.17155,52.98118]}},{"type":"Feature","properties":{"Naam":"Thomashuis Ruinerwold V.O.F.","Organisatie":"Thomashuis Ruinerwold V.O.F.","Soort zorg":"onbekend","Huisnummer":"119","Postcode":"7961AJ","Plaats":"Ruinerwold"},"geometry":{"type":"Point","coordinates":[6.25887,52.7268]}}]}