{"type":"FeatureCollection","features":[{"type":"Feature","properties":{"Locatienummer":101805,"Organisatie":"Admiraal De Ruyter Ziekenhuis","Naam":"Admiraal De Ruyter Ziekenhuis Middelburg Kalverstraat","Plaats":"Middelburg","Straat":"Kalverstraat","Nummer":"1","Postcode":"4331 LZ","Type":"Buitenpolikliniek"},"geometry":{"type":"Point","coordinates":[3.61031,51.4965]}},{"type":"Feature","properties":{"Locatienummer":101808,"Organisatie":"Admiraal De Ruyter Ziekenhuis","Naam":"Admiraal De Ruyter Ziekenhuis Zierikzee","Plaats":"Zierikzee","Straat":"Koning Gustaafweg","Nummer":"2","Postcode":"4301 NP","Type":"Buitenpolikliniek"},"geometry":{"type":"Point","coordinates":[3.92836,51.6564]}},{"type":"Feature","properties":{"Locatienummer":100306,"Organisatie":"Albert Schweitzer Ziekenhuis","Naam":"Albert Schweitzer Ziekenhuis Buitenpoli GOED Ridderkerk","Plaats":"Ridderkerk","Straat":"Jan Luykenstraat","Nummer":"8","Postcode":"2985 BV","Type":"Buitenpolikliniek"},"geometry":{"type":"Point","coordinates":[4.60251,51.86673]}},{"type":"Feature","properties":{"Locatienummer":101303,"Organisatie":"Alrijne Zorggroep","Naam":"Alrijne Ziekenhuis Buitenlocatie  Katwijk","Plaats":"Katwijk","Straat":"Randweg","Nummer":"47","Postcode":"2225 PJ","Type":"Buitenpolikliniek"},"geometry":{"type":"Point","coordinates":[4.40463,52.19976]}},{"type":"Feature","properties":{"Locatienummer":101304,"Organisatie":"Alrijne Zorggroep","Naam":"Alrijne Ziekenhuis Buitenlocatie Sassenheim","Plaats":"Sassenheim","Straat":"Jan van Brabantweg","Nummer":"33","Postcode":"2171 HE","Type":"Buitenpolikliniek"},"geometry":{"type":"Point","coordinates":[4.60306,51.86602]}},{"type":"Feature","properties":{"Locatienummer":101306,"Organisatie":"Alrijne Zorggroep","Naam":"Alrijne Ziekenhuis Alphen aan den Rijn","Plaats":"Alphen a/d Rijn","Straat":"Metoorlaan","Nummer":"4","Postcode":"2402 WC","Type":"Buitenpolikliniek"},"geometry":{"type":"Point","coordinates":[4.66166,52.14272]}},{"type":"Feature","properties":{"Locatienummer":100504,"Organisatie":"Amphia Ziekenhuis","Naam":"Amphia Ziekenhuis Etten-Leur","Plaats":"Etten-Leur","Straat":"Trivium","Nummer":"76","Postcode":"4873 LP","Type":"Buitenpolikliniek"},"geometry":{"type":"Point","coordinates":[4.66198,51.56983]}},{"type":"Feature","properties":{"Locatienummer":100602,"Organisatie":"Antonius Zorggroep","Naam":"Antonius Ziekenhuis Emmeloord","Plaats":"Emmeloord","Straat":"Urkerweg","Nummer":"4","Postcode":"8303 BX","Type":"Buitenpolikliniek"},"geometry":{"type":"Point","coordinates":[5.73367,52.70376]}},{"type":"Feature","properties":{"Locatienummer":100604,"Organisatie":"Antonius Zorggroep","Naam":"Emmeloord Dokter Jansencentrum","Plaats":"Emmeloord","Straat":"Urkerweg","Nummer":"1","Postcode":"8303 BX","Type":"Buitenpolikliniek"},"geometry":{"type":"Point","coordinates":[5.74369,52.70784]}},{"type":"Feature","properties":{"Locatienummer":102002,"Organisatie":"Bravis Ziekenhuis","Naam":"Bravis Ziekenhuis Oudenbosch Medisch Centrum","Plaats":"Oudenbosch","Straat":"West-Vaardeke","Nummer":"11A","Postcode":"4731 MA","Type":"Buitenpolikliniek","Routekaart":"Definitief ingeleverd"},"geometry":{"type":"Point","coordinates":[4.52424,51.59103]}},{"type":"Feature","properties":{"Locatienummer":102003,"Organisatie":"Bravis Ziekenhuis","Naam":"Bravis Ziekenhuis Polikliniek Etten-Leur","Plaats":"Etten-Leur","Straat":"Schoonhout","Nummer":"215","Postcode":"4872 MC","Type":"Buitenpolikliniek","Routekaart":"Definitief ingeleverd"},"geometry":{"type":"Point","coordinates":[4.65006,51.57185]}},{"type":"Feature","properties":{"Locatienummer":102004,"Organisatie":"Bravis Ziekenhuis","Naam":"Bravis Ziekenhuis Polikliniek Steenbergen","Plaats":"Steenbergen","Straat":"De Wei","Nummer":"26","Postcode":"4651 EZ","Type":"Buitenpolikliniek","Routekaart":"Definitief ingeleverd"},"geometry":{"type":"Point","coordinates":[5.82997,51.81472]}},{"type":"Feature","properties":{"Locatienummer":100902,"Organisatie":"Canisius-Wilhelmina Ziekenhuis","Naam":"Canisius-Wilhelmina Ziekenhuis Waalsprong","Plaats":"Nijmegen","Straat":"Carbatinastraat","Nummer":"3","Postcode":"6515 GM","Type":"Buitenpolikliniek"},"geometry":{"type":"Point","coordinates":[5.84531,51.88199]}},{"type":"Feature","properties":{"Locatienummer":100903,"Organisatie":"Canisius-Wilhelmina Ziekenhuis","Naam":"Canisius-Wilhelmina Ziekenhuis Druten","Plaats":"Druten","Straat":"Kerkeland","Nummer":"3","Postcode":"6651 KN","Type":"Buitenpolikliniek"},"geometry":{"type":"Point","coordinates":[5.61505,51.88801]}},{"type":"Feature","properties":{"Locatienummer":100905,"Organisatie":"Canisius-Wilhelmina Ziekenhuis","Naam":"Canisius-Wilhelmina Polikliniek Jonkerbosch","Plaats":"Nijmegen","Straat":"Burgemeester Daleslaan","Nummer":"27","Postcode":"6532 CL","Type":"Buitenpolikliniek"},"geometry":{"type":"Point","coordinates":[5.83262,51.81907]}},{"type":"Feature","properties":{"Locatienummer":106703,"Organisatie":"Deventer Ziekenhuis","Naam":"Deventer Ziekenhuis Polikliniek Raalte","Plaats":"Raalte","Straat":"Vrieswijk","Nummer":"6b","Postcode":"8103 PB","Type":"Buitenpolikliniek"},"geometry":{"type":"Point","coordinates":[6.27318,52.39942]}},{"type":"Feature","properties":{"Locatienummer":106704,"Organisatie":"Deventer Ziekenhuis","Naam":"Deventer ZiekenhuisPolikliniek Rijssen","Plaats":"Rijssen","Straat":"Wijnand Zeeuwstraat","Nummer":"26-101","Postcode":"7462 DE","Type":"Buitenpolikliniek"},"geometry":{"type":"Point","coordinates":[6.51873,52.30182]}},{"type":"Feature","properties":{"Locatienummer":101403,"Organisatie":"Diakonessenhuis","Naam":"Diakonessenhuis Buitenpolikliniek Doorn","Plaats":"Doorn","Straat":"Bergweg","Nummer":"2","Postcode":"3941 RB","Type":"Buitenpolikliniek"},"geometry":{"type":"Point","coordinates":[5.35148,52.03511]}},{"type":"Feature","properties":{"Locatienummer":108002,"Organisatie":"Dijklander Ziekenhuis","Naam":"Waterlandziekenhuis Behandelcentrum Waterland-Oost","Plaats":"Volendam","Straat":"Heideweg","Nummer":"1b","Postcode":"1132 DA","Type":"Buitenpolikliniek"},"geometry":{"type":"Point","coordinates":[5.05665,52.49205]}},{"type":"Feature","properties":{"Locatienummer":108004,"Organisatie":"Dijklander Ziekenhuis","Naam":"Westfries Gasthuis Enkhuizen","Plaats":"Enkhuizen","Straat":"Molenweg","Nummer":"9b","Postcode":"1601 SR","Type":"Buitenpolikliniek"},"geometry":{"type":"Point","coordinates":[5.28176,52.70334]}},{"type":"Feature","properties":{"Locatienummer":107303,"Organisatie":"Elisabeth-TweeSteden","Naam":"ETZ Oisterwijk","Plaats":"Oisterwijk","Straat":"Moergestelseweg","Nummer":"32G","Postcode":"5062 JW","Type":"Buitenpolikliniek"},"geometry":{"type":"Point","coordinates":[5.181,51.57347]}},{"type":"Feature","properties":{"Locatienummer":101702,"Organisatie":"Elkerliek Ziekenhuis","Naam":"Elkerliek Ziekenhuis Deurne","Plaats":"Deurne","Straat":"Dunantweg","Nummer":"16","Postcode":"5751 CB","Type":"Buitenpolikliniek"},"geometry":{"type":"Point","coordinates":[5.79099,51.46836]}},{"type":"Feature","properties":{"Locatienummer":101703,"Organisatie":"Elkerliek Ziekenhuis","Naam":"Elkerliek Ziekenhuis Gemert","Plaats":"Gemert","Straat":"Julianastraat","Nummer":"2","Postcode":"5421 DB","Type":"Buitenpolikliniek"},"geometry":{"type":"Point","coordinates":[5.6854,51.55414]}},{"type":"Feature","properties":{"Locatienummer":101704,"Organisatie":"Elkerliek Ziekenhuis","Naam":"Elkerliek Ziekenhuis Polikliniek Asten","Plaats":"Asten","Straat":"Floralaan","Nummer":"30","Postcode":"5721  CV","Type":"Buitenpolikliniek"},"geometry":{"type":"Point","coordinates":[5.75325,51.40548]}},{"type":"Feature","properties":{"Locatienummer":101902,"Organisatie":"Flevoziekenhuis","Naam":"Flevoland ziekenhuis Buitenpoli Almere Poort","Plaats":"Almere","Straat":"Beneluxlaan","Nummer":"573-579","Postcode":"\t1363 BJ","Type":"Buitenpolikliniek"},"geometry":{"type":"Point","coordinates":[5.1543,52.34791]}},{"type":"Feature","properties":{"Locatienummer":107802,"Organisatie":"Franciscus Gasthuis & Vlietland Groep","Naam":"Franciscus Gasthuis Locatie Het Oogziekenhuis","Plaats":"Rotterdam","Straat":"Schiedamse Vest","Nummer":"180","Postcode":"3011 BH","Type":"Buitenpolikliniek"},"geometry":{"type":"Point","coordinates":[4.48001,51.915]}},{"type":"Feature","properties":{"Locatienummer":107803,"Organisatie":"Franciscus Gasthuis & Vlietland Groep","Naam":"Franciscus Maassluis","Plaats":"Maassluis","Straat":"De Vloot","Nummer":"206","Postcode":"3144 PK","Type":"Buitenpolikliniek"},"geometry":{"type":"Point","coordinates":[4.2428,51.92984]}},{"type":"Feature","properties":{"Locatienummer":107804,"Organisatie":"Franciscus Gasthuis & Vlietland Groep","Naam":"Franciscus Berkel","Plaats":"Berkel Rodenrijs","Straat":"Boerhaavestraat","Nummer":"19","Postcode":"2652 EP","Type":"Buitenpolikliniek"},"geometry":{"type":"Point","coordinates":[4.47438,51.99668]}},{"type":"Feature","properties":{"Locatienummer":107807,"Organisatie":"Franciscus Gasthuis & Vlietland Groep","Naam":"Franciscus  Haven","Plaats":"Rotterdam","Straat":"Haringvliet","Nummer":"2","Postcode":"3011 TF","Type":"Buitenpolikliniek"},"geometry":{"type":"Point","coordinates":[4.4983,51.92049]}},{"type":"Feature","properties":{"Locatienummer":102104,"Organisatie":"Gelre Ziekenhuizen","Naam":"Gelre Ziekenhuizen Polikliniek Lochem","Plaats":"Lochem","Straat":"Zwiepseweg","Nummer":"105","Postcode":"7241 GR","Type":"Buitenpolikliniek"},"geometry":{"type":"Point","coordinates":[6.42357,52.15607]}},{"type":"Feature","properties":{"Locatienummer":102105,"Organisatie":"Gelre Ziekenhuizen","Naam":"Gelre Ziekenhuizen Polikliniek Epe","Plaats":"Epe","Straat":"Willem Tellstraat","Nummer":"17","Postcode":"8162 ET","Type":"Buitenpolikliniek"},"geometry":{"type":"Point","coordinates":[5.98147,52.34987]}},{"type":"Feature","properties":{"Locatienummer":102106,"Organisatie":"Gelre Ziekenhuizen","Naam":"Gelre Ziekenhuizen Polikliniek Dieren","Plaats":"Dieren","Straat":"Wilhelminaweg","Nummer":"80AA","Postcode":"6951 BR","Type":"Buitenpolikliniek"},"geometry":{"type":"Point","coordinates":[6.09962,52.05081]}},{"type":"Feature","properties":{"Locatienummer":102107,"Organisatie":"Gelre Ziekenhuizen","Naam":"Gelre Ziekenhuis Polikliniek Doesburg","Plaats":"Doesburg","Straat":"De Linie","Nummer":"3b","Postcode":"6982 AZ","Type":"Buitenpolikliniek"},"geometry":{"type":"Point","coordinates":[6.13452,52.00953]}},{"type":"Feature","properties":{"Locatienummer":102303,"Organisatie":"Groene Hart Ziekenhuis","Naam":"Groene Hart Ziekenhuis Polikliniek Zuidplas","Plaats":"Nieuwerkerk a/d IJssel","Straat":"Doortocht","Nummer":"40","Postcode":"2914 KA","Type":"Buitenpolikliniek"},"geometry":{"type":"Point","coordinates":[4.61778,51.96715]}},{"type":"Feature","properties":{"Locatienummer":102304,"Organisatie":"Groene Hart Ziekenhuis","Naam":"Groene Hart Ziekenhuis Polikliniek Schoonhoven","Plaats":"Schoonhoven","Straat":"Oranjeplaats","Nummer":"21","Postcode":"2871 TL","Type":"Buitenpolikliniek"},"geometry":{"type":"Point","coordinates":[4.84676,51.94583]}},{"type":"Feature","properties":{"Locatienummer":102305,"Organisatie":"Groene Hart Ziekenhuis","Naam":"Groene Hart Ziekenhuis Bodegraven","Plaats":"Bodegraven","Straat":"Willem de Zwijgerstraat","Nummer":"9","Postcode":"2411 VT","Type":"Buitenpolikliniek"},"geometry":{"type":"Point","coordinates":[4.74868,52.08807]}},{"type":"Feature","properties":{"Locatienummer":103808,"Organisatie":"Haaglanden Medisch Centrum","Naam":"HMC  Gezondheidscentrum Wassenaar","Plaats":"Wassenaar","Straat":"Hofcampweg","Nummer":"65","Postcode":"2241 KE","Type":"Buitenpolikliniek"},"geometry":{"type":"Point","coordinates":[4.39949,52.14665]}},{"type":"Feature","properties":{"Locatienummer":103811,"Organisatie":"Haaglanden Medisch Centrum","Naam":"HMC Buitenpolikliniek Savallelaan","Plaats":"Voorburg","Straat":"Savallelaan","Nummer":"2","Postcode":"2273 JX","Type":"Buitenpolikliniek"},"geometry":{"type":"Point","coordinates":[4.35466,52.07911]}},{"type":"Feature","properties":{"Locatienummer":103812,"Organisatie":"Haaglanden Medisch Centrum","Naam":"HMC Sport Medisch Centrum","Plaats":"'s-Gravenhage","Straat":"Mr. P. Droogleever Fortuynweg","Nummer":"22","Postcode":"2533 SR","Type":"Buitenpolikliniek"},"geometry":{"type":"Point","coordinates":[4.28862,52.0564]}},{"type":"Feature","properties":{"Locatienummer":102503,"Organisatie":"Havenpolikliniek","Naam":"Havenziekenhuis Locatie Buitenhaven","Plaats":"Rotterdam","Straat":"Haringvliet","Nummer":"72","Postcode":"3011 TG","Type":"Buitenpolikliniek"},"geometry":{"type":"Point","coordinates":[4.49554,51.91964]}},{"type":"Feature","properties":{"Locatienummer":106801,"Organisatie":"Het Van Weel-Bethesda Ziekenhuis","Naam":"Het Van Weel-Bethesda Polikliniek Hellevoetsluis","Plaats":"Hellevoetsluis","Straat":"Vliet","Nummer":"4","Postcode":"3224 HE","Type":"Buitenpolikliniek"},"geometry":{"type":"Point","coordinates":[4.14895,51.83286]}},{"type":"Feature","properties":{"Locatienummer":106803,"Organisatie":"Het Van Weel-Bethesda Ziekenhuis","Naam":"Het Van Weel-Bethesda Polikliniek Brielle","Plaats":"Brielle","Straat":"Amer","Nummer":"21","Postcode":"3232 HA","Type":"Buitenpolikliniek"},"geometry":{"type":"Point","coordinates":[4.17497,51.89738]}},{"type":"Feature","properties":{"Locatienummer":102602,"Organisatie":"IJsselland Ziekenhuis","Naam":"IJsselland Ziekenhuis Buitenpolikliniek Nesselande","Plaats":"Rotterdam","Straat":"Cypruslaan","Nummer":"410","Postcode":"3059 XA","Type":"Buitenpolikliniek"},"geometry":{"type":"Point","coordinates":[4.6046,51.8785]}},{"type":"Feature","properties":{"Locatienummer":102603,"Organisatie":"IJsselland Ziekenhuis","Naam":"IJsselland Ziekenhuis Buitenpolikliniek Krimpen","Plaats":"Krimpen a/d Ijssel","Straat":"Groenendaal","Nummer":"1","Postcode":"2922 CJ","Type":"Buitenpolikliniek"},"geometry":{"type":"Point","coordinates":[4.60122,51.92052]}},{"type":"Feature","properties":{"Locatienummer":102802,"Organisatie":"Ikazia Ziekenhuis","Naam":"Ikazia Ziekenhuis Buitenpolikliniek Carnisselande","Plaats":"Barendrecht","Straat":"Middeldijkerplein","Nummer":"36","Postcode":"2993 DL","Type":"Buitenpolikliniek"},"geometry":{"type":"Point","coordinates":[4.50053,51.84881]}},{"type":"Feature","properties":{"Locatienummer":102804,"Organisatie":"Ikazia Ziekenhuis","Naam":"Ikazia Ziekenhuis Polikliniek Slikkerveer","Plaats":"Ridderkerk","Straat":"Prinses Margrietstraat","Nummer":"42","Postcode":"2983 EH","Type":"Buitenpolikliniek"},"geometry":{"type":"Point","coordinates":[6.21482,52.68961]}},{"type":"Feature","properties":{"Locatienummer":102903,"Organisatie":"Isala klinieken","Naam":"Isala Polikliniek Kampen","Plaats":"Kampen","Straat":"Engelenbergplantsoen","Nummer":"7","Postcode":"8266 AB","Type":"Buitenpolikliniek"},"geometry":{"type":"Point","coordinates":[5.91934,52.55162]}},{"type":"Feature","properties":{"Locatienummer":102904,"Organisatie":"Isala klinieken","Naam":"Isala Polikliniek Heerde","Plaats":"Wapenveld","Straat":"Groteweg","Nummer":"5","Postcode":"8191 JS","Type":"Buitenpolikliniek"},"geometry":{"type":"Point","coordinates":[6.05361,52.41253]}},{"type":"Feature","properties":{"Locatienummer":102907,"Organisatie":"Isala klinieken","Naam":"Isala Diaconessenhuis Steenwijk","Plaats":"Steenwijk","Straat":"Sluisweg","Nummer":"2","Postcode":"8332 JC","Type":"Buitenpolikliniek"},"geometry":{"type":"Point","coordinates":[6.12079,52.79342]}},{"type":"Feature","properties":{"Locatienummer":103004,"Organisatie":"Jeroen Bosch Ziekenhuis","Naam":"Jeroen Bosch Ziekenhuis Boxtel","Plaats":"Boxtel","Straat":"Liduinahof","Nummer":"35","Postcode":"5281 AD","Type":"Buitenpolikliniek"},"geometry":{"type":"Point","coordinates":[5.32157,51.59399]}},{"type":"Feature","properties":{"Locatienummer":103005,"Organisatie":"Jeroen Bosch Ziekenhuis","Naam":"Jeroen Bosch Ziekenhuis Zaltbommel","Plaats":"Zaltbommel","Straat":"Kerkstraat","Nummer":"2","Postcode":"5301 EH","Type":"Buitenpolikliniek"},"geometry":{"type":"Point","coordinates":[5.25015,51.81378]}},{"type":"Feature","properties":{"Locatienummer":103006,"Organisatie":"Jeroen Bosch Ziekenhuis","Naam":"Jeroen Bosch Ziekenhuis Rosmalen","Plaats":"Rosmalen","Straat":"De Hoef","Nummer":"90","Postcode":"5242 CN","Type":"Buitenpolikliniek"},"geometry":{"type":"Point","coordinates":[5.37033,51.71364]}},{"type":"Feature","properties":{"Locatienummer":103009,"Organisatie":"Jeroen Bosch Ziekenhuis","Naam":"Sport Medisch Centrum Jeroen Bosch Ziekenhuis","Plaats":"'s-Hertogenbosch","Straat":"Marathonloop","Nummer":"9","Postcode":"5235 AA","Type":"Buitenpolikliniek"},"geometry":{"type":"Point","coordinates":[5.31619,51.72222]}},{"type":"Feature","properties":{"Locatienummer":103010,"Organisatie":"Jeroen Bosch Ziekenhuis","Naam":"Jeoren Bosch Ziekenhuis Drunen","Plaats":"Drunen","Straat":"Tinie de Munnikstraat","Nummer":"17","Postcode":"5151 VW","Type":"Buitenpolikliniek"},"geometry":{"type":"Point","coordinates":[5.14385,51.69035]}},{"type":"Feature","properties":{"Locatienummer":103011,"Organisatie":"Jeroen Bosch Ziekenhuis","Naam":"Jeroen Bosch Ziekenhuis Gamerschestraat","Plaats":"Zaltbommel","Straat":"Gamerschestraat","Nummer":"32a","Postcode":"5301 AS","Type":"Buitenpolikliniek"},"geometry":{"type":"Point","coordinates":[5.24561,51.81315]}},{"type":"Feature","properties":{"Locatienummer":103202,"Organisatie":"Laurentius Ziekenhuis","Naam":"Laurentius Buitenpolikliniek Echt","Plaats":"Echt","Straat":"Nobelweg","Nummer":"10","Postcode":"6101 XB","Type":"Buitenpolikliniek"},"geometry":{"type":"Point","coordinates":[5.87499,51.11607]}},{"type":"Feature","properties":{"Locatienummer":100202,"Organisatie":"Maastricht UMC+","Naam":"Medisch centrum Annadal","Plaats":"Maastricht","Straat":"Brouwersweg","Nummer":"100","Postcode":"6216 EG","Type":"Buitenpolikliniek","Routekaart":"Concept ingeleverd"},"geometry":{"type":"Point","coordinates":[5.66932,50.84668]}},{"type":"Feature","properties":{"Locatienummer":100203,"Organisatie":"Maastricht UMC+","Naam":"Stadspoli Oost","Plaats":"Maastricht","Straat":"Vijverdalseweg","Nummer":"2-4","Postcode":"6224 NB","Type":"Buitenpolikliniek","Routekaart":"Concept ingeleverd"},"geometry":{"type":"Point","coordinates":[6.55176,53.19166]}},{"type":"Feature","properties":{"Locatienummer":100204,"Organisatie":"Maastricht UMC+","Naam":"Stadspoli West","Plaats":"Maastricht","Straat":"Clavecymbelstraat","Nummer":"71A-77A","Postcode":"6217 CS","Type":"Buitenpolikliniek","Routekaart":"Concept ingeleverd"},"geometry":{"type":"Point","coordinates":[5.66748,50.8593]}},{"type":"Feature","properties":{"Locatienummer":103606,"Organisatie":"Meander Medisch Centrum","Naam":"Meander Medisch Centrum de Mulderij ","Plaats":"Leusden","Straat":"De Mulderij","Nummer":"2","Postcode":"3831 NV","Type":"Buitenpolikliniek"},"geometry":{"type":"Point","coordinates":[5.42905,52.13153]}},{"type":"Feature","properties":{"Locatienummer":103607,"Organisatie":"Meander Medisch Centrum","Naam":"Meander Medisch Centrum Nijkerk","Plaats":"Nijkerk","Straat":"Oranjelaan","Nummer":"83-85","Postcode":"3862 CX","Type":"Buitenpolikliniek"},"geometry":{"type":"Point","coordinates":[5.49222,52.22314]}},{"type":"Feature","properties":{"Locatienummer":103608,"Organisatie":"Meander Medisch Centrum","Naam":"Meander Medisch Centrum Barneveld","Plaats":"Barneveld","Straat":"Nederwoudse weg","Postcode":"3772 TD","Type":"Buitenpolikliniek"},"geometry":{"type":"Point","coordinates":[4.73613,52.62674]}},{"type":"Feature","properties":{"Locatienummer":103609,"Organisatie":"Meander Medisch Centrum","Naam":"Meander Medisch Centrum Bunschoten","Plaats":"Bunschoten-Spakenburg","Straat":"Chopinstraat","Nummer":"2D","Postcode":"3752 HR","Type":"Buitenpolikliniek"},"geometry":{"type":"Point","coordinates":[4.74633,52.95824]}},{"type":"Feature","properties":{"Locatienummer":104001,"Organisatie":"Medisch Spectrum Twente","Naam":"Medisch Spectrum Twente Ariënsplein","Plaats":"Enschede","Straat":"Haaksbergerstraat","Nummer":"55","Postcode":"7513 ER","Type":"Buitenpolikliniek"},"geometry":{"type":"Point","coordinates":[6.89136,52.21616]}},{"type":"Feature","properties":{"Locatienummer":104003,"Organisatie":"Medisch Spectrum Twente","Naam":"Medisch Spectrum Twente Oldenzaal","Plaats":"Oldenzaal","Straat":"Pr. Bernhardstraat","Nummer":"17","Postcode":"7573 AM","Type":"Buitenpolikliniek"},"geometry":{"type":"Point","coordinates":[6.93123,52.30813]}},{"type":"Feature","properties":{"Locatienummer":104004,"Organisatie":"Medisch Spectrum Twente","Naam":"Medisch Spectrum Twente Buitenpolikliniek Haaksbergen","Plaats":"Haaksbergen","Straat":"Wiedenbroeksingel","Nummer":"4","Postcode":"7481 BT","Type":"Buitenpolikliniek"},"geometry":{"type":"Point","coordinates":[6.75262,52.15997]}},{"type":"Feature","properties":{"Locatienummer":103703,"Organisatie":"Noodwest Ziekenhuisgroep","Naam":"Noordwest Ziekenhuisgroep  Schagen","Plaats":"Schagen","Straat":"Kaagweg","Nummer":"25","Postcode":"1741 LC","Type":"Buitenpolikliniek"},"geometry":{"type":"Point","coordinates":[4.80816,52.78329]}},{"type":"Feature","properties":{"Locatienummer":103704,"Organisatie":"Noodwest Ziekenhuisgroep","Naam":"Noordwest Ziekenhuisgroep  Polikliniek Texel","Plaats":"Den Burg","Straat":"Pontweg","Nummer":"106","Postcode":"1791 LB","Type":"Buitenpolikliniek"},"geometry":{"type":"Point","coordinates":[4.78722,53.05578]}},{"type":"Feature","properties":{"Locatienummer":103705,"Organisatie":"Noodwest Ziekenhuisgroep","Naam":"Noordwest Ziekenhuisgroep  Heerhugowaard","Plaats":"Heerhugowaard","Straat":"Stationsplein","Nummer":"49","Postcode":"1703 WD","Type":"Buitenpolikliniek"},"geometry":{"type":"Point","coordinates":[4.82293,52.66916]}},{"type":"Feature","properties":{"Locatienummer":103706,"Organisatie":"Noodwest Ziekenhuisgroep","Naam":"Noordwest Ziekenhuisgroep  Limmen","Plaats":"Limmen","Straat":"Zonnedauw","Nummer":"1906","Postcode":"1906 HA","Type":"Buitenpolikliniek"},"geometry":{"type":"Point","coordinates":[4.53609,51.87946]}},{"type":"Feature","properties":{"Locatienummer":107405,"Organisatie":"Ommelander Ziekenhuis Groep","Naam":"Ommelander Ziekenhuis Groep Servicepunt  Veendam","Plaats":"Veendam","Straat":"Kaap de Goede Hoop","Nummer":"1","Postcode":"9642 AP","Type":"Buitenpolikliniek"},"geometry":{"type":"Point","coordinates":[6.86401,53.10315]}},{"type":"Feature","properties":{"Locatienummer":107406,"Organisatie":"Ommelander Ziekenhuis Groep","Naam":"Ommelander Ziekenhuis Groep Servicepunt Delfzijl","Plaats":"Delfzijl","Straat":"Schoolstraat","Nummer":"7","Postcode":"9934 CD","Type":"Buitenpolikliniek"},"geometry":{"type":"Point","coordinates":[6.9256,53.33104]}},{"type":"Feature","properties":{"Locatienummer":106302,"Organisatie":"Onze Lieve Vrouwe Gasthuis","Naam":"Onze Lieve Vrouwe Gasthuis Spuistraat","Plaats":"Amsterdam","Straat":"Spuistraat","Nummer":"239A","Postcode":"1012 VP","Type":"Buitenpolikliniek"},"geometry":{"type":"Point","coordinates":[4.88941,52.37101]}},{"type":"Feature","properties":{"Locatienummer":106303,"Organisatie":"Onze Lieve Vrouwe Gasthuis","Naam":"Onze Lieve Vrouwe Gasthuis IJburg","Plaats":"Amsterdam","Straat":"IJburglaan","Nummer":"727","Postcode":"1087 CH","Type":"Buitenpolikliniek"},"geometry":{"type":"Point","coordinates":[4.9913,52.35766]}},{"type":"Feature","properties":{"Locatienummer":100403,"Organisatie":"Rijnstate Ziekenhuis","Naam":"Rijnstate Polikliniek Arnhem-zuid","Plaats":"Arnhem","Straat":"Marga Klompélaan","Nummer":"6","Postcode":"6836 BH","Type":"Buitenpolikliniek","Routekaart":"Definitief ingeleverd"},"geometry":{"type":"Point","coordinates":[5.88465,51.94935]}},{"type":"Feature","properties":{"Locatienummer":100404,"Organisatie":"Rijnstate Ziekenhuis","Naam":"Rijnstate Ziekenhuis Velp","Plaats":"Velp Gld","Straat":"President Kennedylaan","Nummer":"100","Postcode":"6883 AZ","Type":"Buitenpolikliniek","Routekaart":"Definitief ingeleverd"},"geometry":{"type":"Point","coordinates":[5.97648,51.98635]}},{"type":"Feature","properties":{"Locatienummer":105002,"Organisatie":"Rivas Zorggroep","Naam":"Rivas Zorggroep Lingepolikliniek","Plaats":"Leerdam","Straat":"Lingesteynplantsoen","Nummer":"3","Postcode":"4141 GH","Type":"Buitenpolikliniek"},"geometry":{"type":"Point","coordinates":[5.10682,51.89128]}},{"type":"Feature","properties":{"Locatienummer":105402,"Organisatie":"Santiz","Naam":"Slingeland Ziekenhuis Locatie Gezellenlaan","Plaats":"Doetiechem","Straat":"Gezellenlaan","Nummer":"10","Postcode":"7005 AZ","Type":"Buitenpolikliniek"},"geometry":{"type":"Point","coordinates":[6.30121,51.95448]}},{"type":"Feature","properties":{"Locatienummer":105407,"Organisatie":"Santiz","Naam":"Streekziekenhuis Koningin Beatrix Buitenpoli Eibergen","Plaats":"Eibergen","Straat":"J W Hagemanstraat","Nummer":"46-2","Postcode":"7151 AH","Type":"Buitenpolikliniek"},"geometry":{"type":"Point","coordinates":[6.65062,52.10074]}},{"type":"Feature","properties":{"Locatienummer":105303,"Organisatie":"Saxenburgh Groep","Naam":"Saxenburgh Groep Polikliniek Ommen","Plaats":"Ommen","Straat":"Hessel Mulertstraat","Nummer":"22","Postcode":"7731 CL","Type":"Buitenpolikliniek"},"geometry":{"type":"Point","coordinates":[6.42959,52.51874]}},{"type":"Feature","properties":{"Locatienummer":105305,"Organisatie":"Saxenburgh Groep","Naam":"Saxenburgh Groep Polikliniek Westhaar","Plaats":"Westerhaar","Straat":"Beeklaan","Nummer":"1","Postcode":"7676 BC","Type":"Buitenpolikliniek"},"geometry":{"type":"Point","coordinates":[6.6205,52.45605]}},{"type":"Feature","properties":{"Locatienummer":103104,"Organisatie":"Spaarne Gasthuis","Naam":"Spaarne Gasthuis  Heemstede","Plaats":"Heemstede","Straat":"Händellaan","Nummer":"2","Postcode":"2102 CW","Type":"Buitenpolikliniek"},"geometry":{"type":"Point","coordinates":[4.63353,52.355]}},{"type":"Feature","properties":{"Locatienummer":103105,"Organisatie":"Spaarne Gasthuis","Naam":"Spaarne ziekenhuis Nieuw Vennep","Plaats":"Nieuw Vennep","Straat":"Lucas Bolsstraat","Nummer":"10","Postcode":"2152 CZ","Type":"Buitenpolikliniek"},"geometry":{"type":"Point","coordinates":[4.62996,52.27211]}},{"type":"Feature","properties":{"Locatienummer":103106,"Organisatie":"Spaarne Gasthuis","Naam":"Spaarne Ziekenhuis Polikliniek Hillegom","Plaats":"Hillegom","Straat":"Abellalaan","Nummer":"1","Postcode":"2182 TX","Type":"Buitenpolikliniek"},"geometry":{"type":"Point","coordinates":[4.57809,52.28525]}},{"type":"Feature","properties":{"Locatienummer":103107,"Organisatie":"Spaarne Gasthuis","Naam":"Spaarne Gasthuis  Velsen-Noord","Plaats":"Velsen-Noord","Straat":"Wijkstraatweg","Nummer":"160","Postcode":"1951 EK","Type":"Buitenpolikliniek"},"geometry":{"type":"Point","coordinates":[4.64578,52.47143]}},{"type":"Feature","properties":{"Locatienummer":105202,"Organisatie":"Spijkenisse Medisch Centrum","Naam":"Spijkenisse Medisch Centrum Buitenpoli Hoogvliet","Plaats":"Hoogvliet","Straat":"Oude Wal","Nummer":"24L","Postcode":"3193 EN","Type":"Buitenpolikliniek"},"geometry":{"type":"Point","coordinates":[5.70226,52.53828]}},{"type":"Feature","properties":{"Locatienummer":105203,"Organisatie":"Spijkenisse Medisch Centrum","Naam":"Spijkenisse Medisch Centrum Buitenpoli Rozenburg","Plaats":"Rozenburg","Straat":"Blankenburg","Nummer":"6","Postcode":"3181 BC","Type":"Buitenpolikliniek"},"geometry":{"type":"Point","coordinates":[4.25587,51.90126]}},{"type":"Feature","properties":{"Locatienummer":105702,"Organisatie":"St. Anna Zorggroep","Naam":"St. Anna Ziekenhuis Eindhoven","Plaats":"Eindhoven","Straat":"Antoon Coolenlaan","Nummer":"1-03","Postcode":"5644 RX","Type":"Buitenpolikliniek"},"geometry":{"type":"Point","coordinates":[5.4768,51.41644]}},{"type":"Feature","properties":{"Locatienummer":105804,"Organisatie":"St. Antonius Ziekenhuis","Naam":"St. Antonius Ziekenhuis Polikliniek Houten","Plaats":"Houten","Straat":"Hofspoor","Nummer":"2","Postcode":"3994 VT","Type":"Buitenpolikliniek"},"geometry":{"type":"Point","coordinates":[5.17774,52.0251]}},{"type":"Feature","properties":{"Locatienummer":105807,"Organisatie":"St. Antonius Ziekenhuis","Naam":"St. Antonius Ziekenhuis Spatadercentrum","Plaats":"Utrecht","Straat":"Van Lawick van Pabstlaan","Nummer":"12","Postcode":"3453 RB","Type":"Buitenpolikliniek"},"geometry":{"type":"Point","coordinates":[5.01908,52.08269]}},{"type":"Feature","properties":{"Locatienummer":105808,"Organisatie":"St. Antonius Ziekenhuis","Naam":"St. Antonius Ziekenhuis Polikliniek Overvecht","Plaats":"Utrecht","Straat":"Neckardreef","Nummer":"6","Postcode":"3562 CN","Type":"Buitenpolikliniek"},"geometry":{"type":"Point","coordinates":[5.12268,52.11478]}},{"type":"Feature","properties":{"Locatienummer":105810,"Organisatie":"St. Antonius Ziekenhuis","Naam":"St. Antonius Ziekenhuis Polikliniek Mijdrecht","Plaats":"Mijdrecht","Straat":"Hoofdweg","Nummer":"1","Postcode":"3641 PN","Type":"Buitenpolikliniek"},"geometry":{"type":"Point","coordinates":[4.86323,52.20577]}},{"type":"Feature","properties":{"Locatienummer":105812,"Organisatie":"St. Antonius Ziekenhuis","Naam":"St. Antonius Ziekenhuis Dialysecentrum Tiel","Plaats":"Tiel","Straat":"President Kennedylaan","Nummer":"1","Postcode":"4201 WT","Type":"Buitenpolikliniek"},"geometry":{"type":"Point","coordinates":[5.41559,51.88936]}},{"type":"Feature","properties":{"Locatienummer":106102,"Organisatie":"St. Jans Gasthuis","Naam":"St. Jans Gasthuis Buitenpoli Budel","Plaats":"Budel","Straat":"Grensweg","Nummer":"1","Postcode":"6021 JW","Type":"Buitenpolikliniek"},"geometry":{"type":"Point","coordinates":[5.57182,51.26437]}},{"type":"Feature","properties":{"Locatienummer":102404,"Organisatie":"Stichting Reinier Haga Groep","Naam":"HagaZiekenhuis Zorgplein Westland","Plaats":"’s-Gravenzande","Straat":"Zandeveltplein","Nummer":"3","Postcode":"2692 AH","Type":"Buitenpolikliniek","Routekaart":"Concept ingeleverd"},"geometry":{"type":"Point","coordinates":[4.15832,52.00229]}},{"type":"Feature","properties":{"Locatienummer":102406,"Organisatie":"Stichting Reinier Haga Groep","Naam":"Reinier de Graaf  Ypenburg","Plaats":"'s-Gravenhage","Straat":"Kiekendiefstraat","Nummer":"17","Postcode":"2496 RP","Type":"Buitenpolikliniek","Routekaart":"Concept ingeleverd"},"geometry":{"type":"Point","coordinates":[4.38543,52.05158]}},{"type":"Feature","properties":{"Locatienummer":102407,"Organisatie":"Stichting Reinier Haga Groep","Naam":"Reinier de Graaf Naaldwijk","Plaats":"Naaldwijk","Straat":"Middelbroekweg","Nummer":"2a","Postcode":"2671 ME","Type":"Buitenpolikliniek","Routekaart":"Concept ingeleverd"},"geometry":{"type":"Point","coordinates":[4.21647,51.99013]}},{"type":"Feature","properties":{"Locatienummer":102412,"Organisatie":"Stichting Reinier Haga Groep","Naam":"Langeland Ziekenhuis Huidkliniek en Plastische chirurgie","Plaats":"Zoetermeer","Straat":"Europaweg","Nummer":"151","Postcode":"2711 ER","Type":"Buitenpolikliniek","Routekaart":"Concept ingeleverd"},"geometry":{"type":"Point","coordinates":[4.49426,52.06385]}},{"type":"Feature","properties":{"Locatienummer":106903,"Organisatie":"Tergooiziekenhuizen","Naam":"Tergooiziekenhuizen Buitenpoli Weesp","Plaats":"Weesp","Straat":"Korte Muiderweg 2A","Postcode":"1382 LR","Type":"Buitenpolikliniek"},"geometry":{"type":"Point","coordinates":[6.92531,53.33067]}},{"type":"Feature","properties":{"Locatienummer":109304,"Organisatie":"Treant Zorggroep","Naam":"Buitenpoli Veenkade","Plaats":"Veendam","Straat":"Kaap de Goede Hoop","Nummer":"1","Postcode":"9642 AP","Type":"Buitenpolikliniek"},"geometry":{"type":"Point","coordinates":[6.86401,53.10315]}},{"type":"Feature","properties":{"Locatienummer":107402,"Organisatie":"Universitair Medisch Centrum Groningen","Naam":"Universitair Medisch Centrum Groningen Beatrixoord","Plaats":"Haren","Straat":"Dilgtweg","Nummer":"5","Postcode":"9751 ND","Type":"Buitenpolikliniek","Routekaart":"Concept ingeleverd"},"geometry":{"type":"Point","coordinates":[6.59944,53.18242]}},{"type":"Feature","properties":{"Locatienummer":107703,"Organisatie":"VieCuri Medisch Centrum","Naam":"VieCuri Medisch Centrum Regiopoli Horst","Plaats":"Horst","Straat":"Westsingel","Nummer":"100","Postcode":"5961 DH","Type":"Buitenpolikliniek"},"geometry":{"type":"Point","coordinates":[6.04681,51.44992]}},{"type":"Feature","properties":{"Locatienummer":107704,"Organisatie":"VieCuri Medisch Centrum","Naam":"VieCuri Medisch Centrum Regiopoli Panningen","Plaats":"Panningen","Straat":"John F. Kennedylaan","Nummer":"321","Postcode":"5981 WZ","Type":"Buitenpolikliniek"},"geometry":{"type":"Point","coordinates":[4.4643,51.94523]}},{"type":"Feature","properties":{"Locatienummer":107705,"Organisatie":"VieCuri Medisch Centrum","Naam":"VieCuri Medisch Centrum Regiopoli Reuver","Plaats":"Reuver","Straat":"Broeklaan","Nummer":"4","Postcode":"5953 NB","Type":"Buitenpolikliniek"},"geometry":{"type":"Point","coordinates":[4.49645,51.92001]}},{"type":"Feature","properties":{"Locatienummer":108202,"Organisatie":"Wilhelmina Ziekenhuis Assen","Naam":"Het Medisch Centrum Wilhelmina","Plaats":"Assen","Straat":"Borgstee","Nummer":"17","Postcode":"9403 TS","Type":"Buitenpolikliniek"},"geometry":{"type":"Point","coordinates":[6.57045,53.01337]}},{"type":"Feature","properties":{"Locatienummer":108302,"Organisatie":"Zaans Medisch Centrum","Naam":"Zaans Medisch Centrum Polikliniek Saendelft","Plaats":"Assendelft","Straat":"Kaaikhof","Nummer":"69","Postcode":"1567 JP","Type":"Buitenpolikliniek"},"geometry":{"type":"Point","coordinates":[4.75224,52.48868]}},{"type":"Feature","properties":{"Locatienummer":108402,"Organisatie":"Ziekenhuis Amstelland","Naam":"Ziekenhuis Amstelland Buitenpolikliniek Uithoorn","Plaats":"Uithoorn","Straat":"Koningin Máximalaan","Nummer":"30","Postcode":"1421 LC","Type":"Buitenpolikliniek"},"geometry":{"type":"Point","coordinates":[4.8077,52.24548]}},{"type":"Feature","properties":{"Locatienummer":108501,"Organisatie":"Ziekenhuis Bernhoven","Naam":"Ziekenhuis Bernhoven Oss","Plaats":"Oss","Straat":"Gezondheidslaan","Nummer":"1a","Postcode":"5342 JW","Type":"Buitenpolikliniek"},"geometry":{"type":"Point","coordinates":[5.52293,51.7577]}},{"type":"Feature","properties":{"Locatienummer":108602,"Organisatie":"Ziekenhuis De Gelderse Vallei","Naam":"Ziekenhuis De Gelderse Vallei Polikliniek Barneveld","Plaats":"Barneveld","Straat":"Klaverweide","Nummer":"1a","Postcode":"3773 AW","Type":"Buitenpolikliniek"},"geometry":{"type":"Point","coordinates":[5.59909,52.13985]}},{"type":"Feature","properties":{"Locatienummer":108603,"Organisatie":"Ziekenhuis De Gelderse Vallei","Naam":"Ziekenhuis De Gelderse Vallei Polikliniek Veenendaal","Plaats":"Veenendaal","Straat":"Spoorlaan","Nummer":"5","Postcode":"3903 XS","Type":"Buitenpolikliniek"},"geometry":{"type":"Point","coordinates":[5.54949,52.01841]}},{"type":"Feature","properties":{"Locatienummer":108604,"Organisatie":"Ziekenhuis De Gelderse Vallei","Naam":"Ziekenhuis De Gelderse Vallei Polikliniek Wageningen","Plaats":"Wageningen","Straat":"Plantsoen","Nummer":"57b","Postcode":"6701 AS","Type":"Buitenpolikliniek"},"geometry":{"type":"Point","coordinates":[5.66475,51.96828]}},{"type":"Feature","properties":{"Locatienummer":108702,"Organisatie":"Ziekenhuis Rivierenland","Naam":"Ziekenhuis Rivierenland Barbara Polikliniek Culemborg","Plaats":"Culemborg","Straat":"Elisabethdreef","Nummer":"4","Postcode":"4101 KL","Type":"Buitenpolikliniek"},"geometry":{"type":"Point","coordinates":[5.22862,51.95865]}},{"type":"Feature","properties":{"Locatienummer":108703,"Organisatie":"Ziekenhuis Rivierenland","Naam":"Ziekenhuis Rivierenland Waterpoort Polikliniek Beneden Leeuwen","Plaats":"Beneden Leeuwen","Straat":"Beatrixstraat","Nummer":"20","Postcode":"6658 EK","Type":"Buitenpolikliniek"},"geometry":{"type":"Point","coordinates":[5.51908,51.88161]}},{"type":"Feature","properties":{"Locatienummer":106202,"Organisatie":"Ziekenhuis St. Jansdal","Naam":"Ziekenhuis St. Jansdal Polikliniek Dronten","Plaats":"Dronten","Straat":"Het Zwarte Water","Nummer":"77-83","Postcode":"8253 PD","Type":"Buitenpolikliniek","Routekaart":"Definitief ingeleverd"},"geometry":{"type":"Point","coordinates":[5.70309,52.53776]}},{"type":"Feature","properties":{"Locatienummer":106203,"Organisatie":"Ziekenhuis St. Jansdal","Naam":"Ziekenhuis St. Jansdal Polikliniek Nijkerk","Plaats":"Nijkerk","Straat":"Henri Nouwenstraat","Nummer":"18","Postcode":"3863 HV","Type":"Buitenpolikliniek","Routekaart":"Definitief ingeleverd"},"geometry":{"type":"Point","coordinates":[5.46653,52.21026]}},{"type":"Feature","properties":{"Locatienummer":106204,"Organisatie":"Ziekenhuis St. Jansdal","Naam":"Ziekenhuis St. Jansdal Polikliniek Putten","Plaats":"Putten","Straat":"Klaas Frisohof","Nummer":"20","Postcode":"3881 SZ","Type":"Buitenpolikliniek","Routekaart":"Definitief ingeleverd"},"geometry":{"type":"Point","coordinates":[5.6081,52.25739]}},{"type":"Feature","properties":{"Locatienummer":109005,"Organisatie":"Ziekenhuisgroep Twente","Naam":"Ziekenhuisgroep Twente Buitenpolikliniek Rijssen","Plaats":"Rijssen","Straat":"Wijnand Zeeuwstraat","Nummer":"26-101","Postcode":"7462 DE","Type":"Buitenpolikliniek","Routekaart":"Concept ingeleverd"},"geometry":{"type":"Point","coordinates":[6.51902,52.30182]}},{"type":"Feature","properties":{"Locatienummer":109007,"Organisatie":"Ziekenhuisgroep Twente","Naam":"Ziekenhuisgroep Twente Buitenpost Ootmarsum","Plaats":"Ootmarsum","Straat":"De Meijer","Nummer":"1","Postcode":"7631 AM","Type":"Buitenpolikliniek","Routekaart":"Concept ingeleverd"},"geometry":{"type":"Point","coordinates":[6.8971,52.40991]}},{"type":"Feature","properties":{"Locatienummer":109008,"Organisatie":"Ziekenhuisgroep Twente","Naam":"Ziekenhuisgroep Twente Buitenpost Geesteren","Plaats":"Geesteren","Straat":"De aanleg","Nummer":"17","Postcode":"7678VZ","Type":"Buitenpolikliniek","Routekaart":"Concept ingeleverd"},"geometry":{"type":"Point","coordinates":[6.73482,52.42087]}},{"type":"Feature","properties":{"Locatienummer":109202,"Organisatie":"Zorgpartners Friesland","Naam":"Medisch Centrum Leeuwarden Harlingen","Plaats":"Harlingen","Straat":"Achlumerdijk","Nummer":"2","Postcode":"8862 AJ","Type":"Buitenpolikliniek"},"geometry":{"type":"Point","coordinates":[5.42944,53.16218]}},{"type":"Feature","properties":{"Locatienummer":109203,"Organisatie":"Zorgpartners Friesland","Naam":"De Tjongerschans Polikliniek Steenwijk","Plaats":"Steenwijk","Straat":"Mr. Zigher ter Steghestraat","Nummer":"9","Postcode":"8331KG","Type":"Buitenpolikliniek"},"geometry":{"type":"Point","coordinates":[6.11133,52.79086]}},{"type":"Feature","properties":{"Locatienummer":109204,"Organisatie":"Zorgpartners Friesland","Naam":"De Tjongerschans Polikliniek Sportstad","Plaats":"Heerenveen","Straat":"Abe Lenstra Boulevard","Nummer":"21","Postcode":"8448 JA","Type":"Buitenpolikliniek"},"geometry":{"type":"Point","coordinates":[5.93558,52.95808]}},{"type":"Feature","properties":{"Locatienummer":109205,"Organisatie":"Zorgpartners Friesland","Naam":"De Tjongerschans Polikliniek Lemmer","Plaats":"Lemmer","Straat":"Van Rijgersmapark","Nummer":"1","Postcode":"8531 JA","Type":"Buitenpolikliniek"},"geometry":{"type":"Point","coordinates":[5.69805,52.84605]}},{"type":"Feature","properties":{"Locatienummer":108803,"Organisatie":"ZorgSaam Zeeuws-Vlaanderen","Naam":"Zorgsaam Zeeuw-Vlaanderen Locatie Liduina","Plaats":"Hulst","Straat":"Lyceumstraat","Nummer":"20","Postcode":"4561 HV","Type":"Buitenpolikliniek"},"geometry":{"type":"Point","coordinates":[4.05071,51.28701]}},{"type":"Feature","properties":{"Locatienummer":108805,"Organisatie":"ZorgSaam Zeeuws-Vlaanderen","Naam":"Zorgsaam Zeeuw-Vlaanderen Cardiologie centrum Middelburg","Plaats":"Middelburg","Straat":"Buitenruststraat","Nummer":"16","Postcode":"4337 EH","Type":"Buitenpolikliniek"},"geometry":{"type":"Point","coordinates":[3.61789,51.49198]}},{"type":"Feature","properties":{"Locatienummer":100702,"Organisatie":"Zuyderland Medisch Centrum","Naam":"Zuyderland Medisch Centrum Brunssum","Plaats":"Brunssum","Straat":"Prins Hendriklaan","Nummer":"376","Postcode":"6443 AE","Type":"Buitenpolikliniek"},"geometry":{"type":"Point","coordinates":[5.97839,50.94171]}},{"type":"Feature","properties":{"Locatienummer":100703,"Organisatie":"Zuyderland Medisch Centrum","Naam":"Zuyderland Medisch Centrum Kerkrade","Plaats":"Kerkrade","Straat":"Wijngracht","Nummer":"45","Postcode":"6461 AL","Type":"Buitenpolikliniek"},"geometry":{"type":"Point","coordinates":[6.06096,50.86613]}},{"type":"Feature","properties":{"Locatienummer":100705,"Organisatie":"Zuyderland Medisch Centrum","Naam":"Zuyderland Medisch Centrum Buitenpoli De Egthe","Plaats":"Echt","Straat":"De Egthe","Nummer":"1","Postcode":"6101 EX","Type":"Buitenpolikliniek"},"geometry":{"type":"Point","coordinates":[5.87351,51.10564]}}]}