{"type":"FeatureCollection","features":[{"type":"Feature","properties":{"Naam":"Woonzorgvoorziening \"de Meerenburgh\"","Organisatie":"CV Woonzorgvoorziening \"de Meerenburgh\"","Soort zorg":"Verzorgingshuizen","Huisnummer":"10","Postcode":"6615AA","Plaats":"Leur"},"geometry":{"type":"Point","coordinates":[5.69921,51.82659]}},{"type":"Feature","properties":{"Naam":"Stichting Kalorama","Organisatie":"Stichting Kalorama","Soort zorg":"Verpleeghuizen","Huisnummer":"12","Postcode":"6573DX","Plaats":"Beek"},"geometry":{"type":"Point","coordinates":[5.92151,51.82739]}},{"type":"Feature","properties":{"Naam":"Zorgcentrum 't Slot","Organisatie":"Stichting Zorgcentrum 't Slot","Soort zorg":"Verpleeghuizen, Verzorgingshuizen","Huisnummer":"1","Postcode":"5311CM","Plaats":"Gameren"},"geometry":{"type":"Point","coordinates":[5.20164,51.80207]}},{"type":"Feature","properties":{"Naam":"Zorgcentra De Betuwe/De Valentijn","Organisatie":"Zorgcentra De Betuwe","Soort zorg":"Verzorgingshuizen","Huisnummer":"84","Postcode":"4021HN","Plaats":"Maurik"},"geometry":{"type":"Point","coordinates":[5.42935,51.96276]}},{"type":"Feature","properties":{"Naam":"Stichting Zorgcentra Rivierenland","Organisatie":"Stichting Zorgcentra Rivierenland","Soort zorg":"Verpleeghuizen, Verzorgingshuizen","Huisnummer":"49","Postcode":"4003CA","Plaats":"Tiel"},"geometry":{"type":"Point","coordinates":[5.41194,51.891]}},{"type":"Feature","properties":{"Naam":"Verpleeghuis st. Elisabeth","Organisatie":"Stichting zorggroep Maas & Waal","Soort zorg":"Verpleeghuizen","Huisnummer":"10","Postcode":"6658WX","Plaats":"Beneden-Leeuwen"},"geometry":{"type":"Point","coordinates":[5.51871,51.88143]}},{"type":"Feature","properties":{"Naam":"Hospice Mariaweide","Organisatie":"Stichting Hospice Venlo","Soort zorg":"Verzorgingshuizen","Huisnummer":"41","Postcode":"5911JS","Plaats":"Venlo"},"geometry":{"type":"Point","coordinates":[6.16908,51.36774]}},{"type":"Feature","properties":{"Naam":"Huys Waerenberg","Organisatie":"Woon-Zorg ANJO","Soort zorg":"Verzorgingshuizen","Huisnummer":"40","Postcode":"6085NH","Plaats":"Horn"},"geometry":{"type":"Point","coordinates":[5.91971,51.2251]}},{"type":"Feature","properties":{"Naam":"Mosae Zorggroep","Organisatie":"Stichting Sevagram Maastricht","Soort zorg":"Verzorgingshuizen","Huisnummer":"1","Postcode":"6216CE","Plaats":"Maastricht"},"geometry":{"type":"Point","coordinates":[5.66739,50.85014]}},{"type":"Feature","properties":{"Naam":"Stichting Cicero Zorggroep","Organisatie":"Stichting Cicero Zorggroep","Soort zorg":"Verzorgingshuizen","Huisnummer":"3","Postcode":"6441CR","Plaats":"Brunssum","Routekaart":"Vastgesteld","Ambitie":"Route tot 2030"},"geometry":{"type":"Point","coordinates":[5.96984,50.94819]}},{"type":"Feature","properties":{"Naam":"'t Puther Höfke","Organisatie":"'t Puther Höfke V.O.F.","Soort zorg":"Verzorgingshuizen","Huisnummer":"82","Postcode":"6155KP","Plaats":"Puth"},"geometry":{"type":"Point","coordinates":[5.86956,50.95634]}},{"type":"Feature","properties":{"Naam":"Zuyderland Zorgcentra B.V.","Organisatie":"Zuyderland Zorgcentra B.V.","Soort zorg":"Verpleeghuizen","Huisnummer":"10","Postcode":"6131KG","Plaats":"Sittard"},"geometry":{"type":"Point","coordinates":[5.86475,50.99649]}},{"type":"Feature","properties":{"Naam":"Savant Zorg","Organisatie":"Savant Zorg","Soort zorg":"Verpleeghuizen","Huisnummer":"4","Postcode":"5708HN","Plaats":"Helmond"},"geometry":{"type":"Point","coordinates":[5.62681,51.47375]}},{"type":"Feature","properties":{"Naam":"Zorgcentrum Amaliazorg","Organisatie":"Stichting Amaliazorg","Soort zorg":"Verpleeghuizen","Huisnummer":"37","Postcode":"5688AG","Plaats":"Oirschot"},"geometry":{"type":"Point","coordinates":[5.30371,51.50145]}},{"type":"Feature","properties":{"Naam":"Stichting BrabantZorg","Organisatie":"Stichting BrabantZorg","Soort zorg":"Verzorgingshuizen","Huisnummer":"20","Postcode":"5349AA","Plaats":"Oss"},"geometry":{"type":"Point","coordinates":[5.52877,51.76421]}},{"type":"Feature","properties":{"Naam":"Stichting de Riethorst Stromenland","Organisatie":"Stichting de Riethorst Stromenland","Soort zorg":"Verpleeghuizen","Huisnummer":"1c","Postcode":"4941VX","Plaats":"Raamsdonksveer"},"geometry":{"type":"Point","coordinates":[4.87135,51.70774]}},{"type":"Feature","properties":{"Naam":"Stichting Schakelring/Eikendonk","Organisatie":"Stichting Schakelring","Soort zorg":"Verpleeghuizen","Huisnummer":"2","Postcode":"5143NG","Plaats":"Waalwijk","Routekaart":"Voorlopig","Ambitie":"Niet bekend"},"geometry":{"type":"Point","coordinates":[5.0985,51.6847]}},{"type":"Feature","properties":{"Naam":"Stichting Park Zuiderhout","Organisatie":"Stichting Park Zuiderhout","Soort zorg":"Verzorgingshuizen","Huisnummer":"46","Postcode":"4847DK","Plaats":"Teteringen","Routekaart":"Voorlopig","Ambitie":"Route tot +-2025"},"geometry":{"type":"Point","coordinates":[4.83149,51.61714]}},{"type":"Feature","properties":{"Naam":"Bureau Gerda Felius","Organisatie":"Bureau Gerda Felius","Soort zorg":"Verpleeghuizen","Huisnummer":"18","Postcode":"4461TW","Plaats":"Goes"},"geometry":{"type":"Point","coordinates":[3.90434,51.50975]}},{"type":"Feature","properties":{"Naam":"De Stelle","Organisatie":"Stichting Warmande","Soort zorg":"Verpleeghuizen","Huisnummer":"7","Postcode":"4501AE","Plaats":"Oostburg"},"geometry":{"type":"Point","coordinates":[3.48057,51.32551]}},{"type":"Feature","properties":{"Naam":"Hervormde Stichting \"Sonneburgh\"","Organisatie":"Hervormde Stichting \"Sonneburgh\"","Soort zorg":"Verzorgingshuizen","Huisnummer":"381","Postcode":"3084LM","Plaats":"Rotterdam"},"geometry":{"type":"Point","coordinates":[4.45703,51.87412]}},{"type":"Feature","properties":{"Naam":"Verpleeghuis De Sterrenlanden","Organisatie":"Stichting Het Spectrum","Soort zorg":"Verpleeghuizen","Huisnummer":"4","Postcode":"3328HN","Plaats":"Dordrecht"},"geometry":{"type":"Point","coordinates":[4.68579,51.78293]}},{"type":"Feature","properties":{"Naam":"Catharina Stichting","Organisatie":"Catharina Stichting","Soort zorg":"Verzorgingshuizen","Huisnummer":"7","Postcode":"3235AE","Plaats":"Rockanje"},"geometry":{"type":"Point","coordinates":[4.06834,51.87454]}},{"type":"Feature","properties":{"Naam":"De Ronsseveste","Organisatie":"SZMH","Soort zorg":"Verpleeghuizen, Verzorgingshuizen","Huisnummer":"242","Postcode":"2803ZX","Plaats":"Gouda","Routekaart":"Voorlopig","Ambitie":"EM ingepland"},"geometry":{"type":"Point","coordinates":[4.70724,52.01926]}},{"type":"Feature","properties":{"Naam":"Het Zonnehuis","Organisatie":"Het Zonnehuis","Soort zorg":"Verpleeghuizen","Huisnummer":"5","Postcode":"3136EA","Plaats":"Vlaardingen"},"geometry":{"type":"Point","coordinates":[4.35069,51.92489]}},{"type":"Feature","properties":{"Naam":"De Buitensluis","Organisatie":"Stichting Alerimus","Soort zorg":"Verpleeghuizen, Verzorgingshuizen","Huisnummer":"25","Postcode":"3281BC","Plaats":"Numansdorp"},"geometry":{"type":"Point","coordinates":[4.43385,51.73013]}},{"type":"Feature","properties":{"Naam":"Stg ZVGO","Organisatie":"Stg ZVGO","Soort zorg":"Verzorgingshuizen","Huisnummer":"22","Postcode":"3247BW","Plaats":"Dirksland"},"geometry":{"type":"Point","coordinates":[4.10199,51.75039]}},{"type":"Feature","properties":{"Naam":"Stichting Argos Zorggroep","Organisatie":"Stichting Argos Zorggroep","Soort zorg":"Verpleeghuizen","Huisnummer":"35","Postcode":"3123AX","Plaats":"Schiedam"},"geometry":{"type":"Point","coordinates":[4.36507,51.93931]}},{"type":"Feature","properties":{"Naam":"Swinhove","Organisatie":"Stichting Swinhove Groep","Soort zorg":"Verzorgingshuizen","Huisnummer":"3","Postcode":"3333GZ","Plaats":"Zwijndrecht"},"geometry":{"type":"Point","coordinates":[4.63064,51.81494]}},{"type":"Feature","properties":{"Naam":"Het Hospice Zoetermeer","Organisatie":"Hospice Zoetermeer","Soort zorg":"Verpleeghuizen","Huisnummer":"1","Postcode":"2712VC","Plaats":"Zoetermeer"},"geometry":{"type":"Point","coordinates":[4.50235,52.053]}},{"type":"Feature","properties":{"Naam":"Kruseman Aretz B.V.","Organisatie":"Kruseman Aretz B.V.","Soort zorg":"Verzorgingshuizen","Huisnummer":"671","Postcode":"2245CB","Plaats":"Wassenaar"},"geometry":{"type":"Point","coordinates":[4.3766,52.11521]}},{"type":"Feature","properties":{"Naam":"Huize Royal","Organisatie":"Stichting Saffier - De Residentie Groep","Soort zorg":"Verpleeghuizen","Huisnummer":"38","Postcode":"2584CV","Plaats":"'s-Gravenhage","Routekaart":"Voorlopig","Ambitie":"Niet bekend"},"geometry":{"type":"Point","coordinates":[4.28133,52.10183]}},{"type":"Feature","properties":{"Naam":"SWZ Sophieke / SWZ Thuiszorg","Organisatie":"Stichting Wassenaarse Zorgverlening","Soort zorg":"Verpleeghuizen, Verzorgingshuizen","Huisnummer":"313","Postcode":"2242LJ","Plaats":"Wassenaar"},"geometry":{"type":"Point","coordinates":[4.39135,52.14785]}},{"type":"Feature","properties":{"Naam":"Respect Zorggroep Scheveningen","Organisatie":"Stichting Respect Wonen Zorg Welzijn","Soort zorg":"Verzorgingshuizen","Huisnummer":"76","Postcode":"2517KZ","Plaats":"'s-Gravenhage"},"geometry":{"type":"Point","coordinates":[4.28255,52.09847]}},{"type":"Feature","properties":{"Naam":"Woonzorgcentrum Landscheiding","Organisatie":"Stichting Cardia","Soort zorg":"Verpleeghuizen, Verzorgingshuizen","Huisnummer":"150","Postcode":"2591SL","Plaats":"'s-Gravenhage","Routekaart":"Vastgesteld","Ambitie":"Route tot +-2025"},"geometry":{"type":"Point","coordinates":[4.36345,52.1003]}},{"type":"Feature","properties":{"Naam":"Gezondheidscentrum Sanitas West","Organisatie":"Stichting Zorg Nederland","Soort zorg":"Verpleeghuizen","Huisnummer":"540","Postcode":"3023HL","Plaats":"Rotterdam"},"geometry":{"type":"Point","coordinates":[4.44596,51.91635]}},{"type":"Feature","properties":{"Naam":"Zorgcentrum Nieuw Boschzicht","Organisatie":"Woon- en Zorgcentrum Nieuw-Boschzicht B.V.","Soort zorg":"Verzorgingshuizen","Huisnummer":"65","Postcode":"3956CJ","Plaats":"Leersum"},"geometry":{"type":"Point","coordinates":[5.43754,52.00815]}},{"type":"Feature","properties":{"Naam":"AC groep","Organisatie":"AC groep","Soort zorg":"Verzorgingshuizen","Huisnummer":"922","Postcode":"3526KJ","Plaats":"Utrecht","Routekaart":"Vastgesteld","Ambitie":"Route tot +-2025"},"geometry":{"type":"Point","coordinates":[5.10347,52.06835]}},{"type":"Feature","properties":{"Naam":"Euro. Care Residence and Hotel De Horst B.V.","Organisatie":"Euro. Care Residence and Hotel De Horst B.V.","Soort zorg":"Verpleeghuizen, Verzorgingshuizen","Huisnummer":"54","Postcode":"3436ZZ","Plaats":"Nieuwegein"},"geometry":{"type":"Point","coordinates":[5.06477,52.02697]}},{"type":"Feature","properties":{"Naam":"Het Behouden Huis B.V.","Organisatie":"Het Behouden Huis B.V.","Soort zorg":"Verzorgingshuizen","Huisnummer":"45","Postcode":"3701AK","Plaats":"Zeist"},"geometry":{"type":"Point","coordinates":[5.24893,52.08208]}},{"type":"Feature","properties":{"Naam":"Zorgvilla Viken B.V.","Organisatie":"Zorgvilla Viken B.V.","Soort zorg":"Verzorgingshuizen","Huisnummer":"261","Postcode":"3721AE","Plaats":"Bilthoven"},"geometry":{"type":"Point","coordinates":[5.20306,52.12811]}},{"type":"Feature","properties":{"Naam":"Stichting Huize Het Oosten","Organisatie":"Stichting Huize Het Oosten","Soort zorg":"Verzorgingshuizen","Huisnummer":"1","Postcode":"3723BM","Plaats":"Bilthoven"},"geometry":{"type":"Point","coordinates":[5.20032,52.1315]}},{"type":"Feature","properties":{"Naam":"Stichting Amaris Zorggroep","Organisatie":"Stichting Amaris Zorggroep","Soort zorg":"Verpleeghuizen","Huisnummer":"1","Postcode":"1251CM","Plaats":"Laren","Routekaart":"Voorlopig","Ambitie":"Route tot 2030"},"geometry":{"type":"Point","coordinates":[5.21625,52.25765]}},{"type":"Feature","properties":{"Naam":"Huize Westerheide B.V.","Organisatie":"Huize Westerheide B.V.","Soort zorg":"Verzorgingshuizen","Huisnummer":"102","Postcode":"1213LS","Plaats":"Hilversum"},"geometry":{"type":"Point","coordinates":[5.17543,52.21015]}},{"type":"Feature","properties":{"Naam":"Zorgcentrum De Meerwende","Organisatie":"R.K. Stichting Zorgcentra Meerlanden","Soort zorg":"Verzorgingshuizen","Huisnummer":"131","Postcode":"1171AE","Plaats":"Badhoevedorp"},"geometry":{"type":"Point","coordinates":[4.77231,52.33924]}},{"type":"Feature","properties":{"Naam":"Stichting Zonnehuisgroep Amstelland","Organisatie":"Stichting Zonnehuisgroep Amstelland","Soort zorg":"Verpleeghuizen","Huisnummer":"7","Postcode":"1186AA","Plaats":"Amstelveen"},"geometry":{"type":"Point","coordinates":[4.8714,52.29452]}},{"type":"Feature","properties":{"Naam":"ViVa! Zorggroep, locatie Grote Hout","Organisatie":"Stichting ViVa! Zorggroep","Soort zorg":"Verzorgingshuizen","Huisnummer":"23","Postcode":"1951AR","Plaats":"Velsen-Noord","Routekaart":"Voorlopig","Ambitie":"Route tot +-2025"},"geometry":{"type":"Point","coordinates":[4.63849,52.47033]}},{"type":"Feature","properties":{"Naam":"Zorgbalans Thuiszorg","Organisatie":"Stichting Zorgbalans","Soort zorg":"Verzorgingshuizen","Huisnummer":"588","Postcode":"2014HT","Plaats":"Haarlem","Routekaart":"Voorlopig","Ambitie":"Niet bekend"},"geometry":{"type":"Point","coordinates":[4.61029,52.36395]}},{"type":"Feature","properties":{"Naam":"Stichting Amsta / Dr. Sarphatihuis","Organisatie":"Stichting Amsta","Soort zorg":"Verpleeghuizen, Verzorgingshuizen","Huisnummer":"2","Postcode":"1018WC","Plaats":"Amsterdam"},"geometry":{"type":"Point","coordinates":[4.91055,52.3647]}},{"type":"Feature","properties":{"Naam":"Delano Holding","Organisatie":"Delano Holding B.V.","Soort zorg":"Verpleeghuizen","Huisnummer":"180","Postcode":"1075HM","Plaats":"Amsterdam"},"geometry":{"type":"Point","coordinates":[4.86535,52.35209]}},{"type":"Feature","properties":{"Naam":"Sassen t.h.o.d.n. Herbergier Dussen","Organisatie":"V.O.F. Sassen","Soort zorg":"Verzorgingshuizen","Huisnummer":"19","Postcode":"4271AA","Plaats":"Dussen"},"geometry":{"type":"Point","coordinates":[4.96094,51.73]}},{"type":"Feature","properties":{"Naam":"De Rusthoeve","Organisatie":"Stichting Wonen en Zorg Purmerend","Soort zorg":"Verzorgingshuizen","Huisnummer":"1","Postcode":"1441DN","Plaats":"Purmerend","Routekaart":"Vastgesteld","Ambitie":"Route tot +-2025"},"geometry":{"type":"Point","coordinates":[4.95187,52.50731]}},{"type":"Feature","properties":{"Naam":"Zorgcentrum De Lichtboei","Organisatie":"Stichting Zorggroep Tellus","Soort zorg":"Verzorgingshuizen","Huisnummer":"2","Postcode":"1784MA","Plaats":"Den Helder","Routekaart":"Voorlopig","Ambitie":"Route tot 2030"},"geometry":{"type":"Point","coordinates":[4.74379,52.93792]}},{"type":"Feature","properties":{"Naam":"Respijthuis","Organisatie":"Stichting Respijtzorg Alkmaar","Soort zorg":"Verpleeghuizen","Huisnummer":"972","Postcode":"1816PZ","Plaats":"Alkmaar"},"geometry":{"type":"Point","coordinates":[4.71687,52.62931]}},{"type":"Feature","properties":{"Naam":"Ceelie & Ceelie Sierkstra thodn Herbergier","Organisatie":"Ceelie & Ceelie-Sierkstra thodn Herbergier","Soort zorg":"Verzorgingshuizen","Huisnummer":"13","Postcode":"1566PH","Plaats":"Assendelft"},"geometry":{"type":"Point","coordinates":[4.74757,52.46423]}},{"type":"Feature","properties":{"Naam":"Coloriet","Organisatie":"Stichting Coloriet","Soort zorg":"Verzorgingshuizen","Huisnummer":"5","Postcode":"8232JT","Plaats":"Lelystad"},"geometry":{"type":"Point","coordinates":[5.47425,52.50659]}},{"type":"Feature","properties":{"Naam":"Stichting Rendant","Organisatie":"Stichting Rendant","Soort zorg":"Verzorgingshuizen","Huisnummer":"2","Postcode":"8935AA","Plaats":"Leeuwarden"},"geometry":{"type":"Point","coordinates":[5.80283,53.1846]}},{"type":"Feature","properties":{"Naam":"Mienskipssintrum Leppehiem","Organisatie":"Stichting Leppehiem","Soort zorg":"Verpleeghuizen, Verzorgingshuizen","Huisnummer":"37","Postcode":"8491GJ","Plaats":"Akkrum"},"geometry":{"type":"Point","coordinates":[5.83518,53.05131]}},{"type":"Feature","properties":{"Naam":"Zorgcentrum Talma Haven","Organisatie":"Stichting Zorgcentrum Talma Urk","Soort zorg":"Verzorgingshuizen","Huisnummer":"2","Postcode":"8321RT","Plaats":"Urk"},"geometry":{"type":"Point","coordinates":[5.62192,52.6637]}},{"type":"Feature","properties":{"Naam":"WRS","Organisatie":"WRS","Soort zorg":"Verzorgingshuizen","Huisnummer":"1n","Postcode":"9251MP","Plaats":"Burgum"},"geometry":{"type":"Point","coordinates":[5.98532,53.2043]}},{"type":"Feature","properties":{"Naam":"Stichting Zorggroep Hof en Hiem","Organisatie":"Stichting Zorggroep Hof en Hiem","Soort zorg":"Verzorgingshuizen","Huisnummer":"2","Postcode":"8521GA","Plaats":"Sint Nicolaasga"},"geometry":{"type":"Point","coordinates":[5.74418,52.92192]}},{"type":"Feature","properties":{"Naam":"Stichting Zorggroep Liante","Organisatie":"Stichting Zorggroep Liante","Soort zorg":"Verzorgingshuizen","Huisnummer":"1","Postcode":"8431LD","Plaats":"Oosterwolde","Routekaart":"Voorlopig","Ambitie":"EM ingepland"},"geometry":{"type":"Point","coordinates":[6.29459,52.99302]}},{"type":"Feature","properties":{"Naam":"Stichting Vredewold","Organisatie":"Stichting Vredewold","Soort zorg":"Verpleeghuizen, Verzorgingshuizen","Huisnummer":"1","Postcode":"9351BP","Plaats":"Leek"},"geometry":{"type":"Point","coordinates":[6.38744,53.16268]}},{"type":"Feature","properties":{"Naam":"Heymanscentrum","Organisatie":"Stichting Dignis","Soort zorg":"Verzorgingshuizen","Huisnummer":"20","Postcode":"9728HD","Plaats":"Groningen"},"geometry":{"type":"Point","coordinates":[6.5601,53.19423]}},{"type":"Feature","properties":{"Naam":"Woonzorgcentrum Westerholm","Organisatie":"Stichting Westerholm/Rikkers-Lubbers","Soort zorg":"Verzorgingshuizen","Huisnummer":"1","Postcode":"9752LS","Plaats":"Haren Gn"},"geometry":{"type":"Point","coordinates":[6.60457,53.16851]}},{"type":"Feature","properties":{"Naam":"De Dilgt/ Stichting Zinn","Organisatie":"Stichting Zinn (Zorgorganisatie in Noord Ned)","Soort zorg":"Verpleeghuizen","Huisnummer":"3","Postcode":"9751ND","Plaats":"Haren Gn"},"geometry":{"type":"Point","coordinates":[6.59528,53.182]}},{"type":"Feature","properties":{"Naam":"Gasthuis Groningen","Organisatie":"Stichting Exploitatie Gasthuis Groningen","Soort zorg":"Verpleeghuizen","Huisnummer":"19","Postcode":"9718BB","Plaats":"Groningen"},"geometry":{"type":"Point","coordinates":[6.55348,53.2145]}},{"type":"Feature","properties":{"Naam":"De Blanckenborg","Organisatie":"Stichting Zorgcentrum 'de Blanckenborg'","Soort zorg":"Verpleeghuizen","Huisnummer":"34","Postcode":"9697RW","Plaats":"Blijham"},"geometry":{"type":"Point","coordinates":[7.08252,53.1091]}},{"type":"Feature","properties":{"Naam":"Stichting BCM Zorg","Organisatie":"Stichting BCM Zorg","Soort zorg":"Verzorgingshuizen","Huisnummer":"2","Postcode":"9501EA","Plaats":"Stadskanaal"},"geometry":{"type":"Point","coordinates":[6.95085,52.9922]}},{"type":"Feature","properties":{"Naam":"Wijkverpleging Oosterlengte","Organisatie":"Stichting Oosterlengte","Soort zorg":"Verpleeghuizen","Huisnummer":"2","Postcode":"9672BN","Plaats":"Winschoten"},"geometry":{"type":"Point","coordinates":[7.05225,53.15183]}},{"type":"Feature","properties":{"Naam":"Woon- en zorgcentrum de Westerkim","Organisatie":"Woon- en zorgcentrum de Westerkim","Soort zorg":"Verpleeghuizen, Verzorgingshuizen","Huisnummer":"11","Postcode":"7901EB","Plaats":"Hoogeveen"},"geometry":{"type":"Point","coordinates":[6.46834,52.72627]}},{"type":"Feature","properties":{"Naam":"Het Derkshoes","Organisatie":"STICHTING DERKSHOES ZORG EN DIENSTVERLENING","Soort zorg":"Verpleeghuizen","Huisnummer":"1","Postcode":"9431LE","Plaats":"Westerbork"},"geometry":{"type":"Point","coordinates":[6.608,52.84714]}},{"type":"Feature","properties":{"Naam":"Verpleeghuis Myosotis","Organisatie":"St. IJsselheem","Soort zorg":"Verpleeghuizen","Huisnummer":"3","Postcode":"8266AB","Plaats":"Kampen"},"geometry":{"type":"Point","coordinates":[5.92084,52.55103]}},{"type":"Feature","properties":{"Naam":"Carintreggeland","Organisatie":"Carintreggeland","Soort zorg":"Verzorgingshuizen","Huisnummer":"20","Postcode":"7554RS","Plaats":"Hengelo"},"geometry":{"type":"Point","coordinates":[6.79255,52.24445]}},{"type":"Feature","properties":{"Naam":"Huize Den Oostenborgh / Welstee","Organisatie":"Stichting Zorgvilla's Twente","Soort zorg":"Verpleeghuizen","Huisnummer":"9","Postcode":"7631GB","Plaats":"Ootmarsum"},"geometry":{"type":"Point","coordinates":[6.89827,52.4084]}},{"type":"Feature","properties":{"Naam":"Stichting Woon- en Zorgcentrum Herfstzon","Organisatie":"Stichting Woon- en Zorgcentrum Herfstzon","Soort zorg":"Verzorgingshuizen","Huisnummer":"2","Postcode":"7471RG","Plaats":"Goor"},"geometry":{"type":"Point","coordinates":[6.58499,52.23659]}},{"type":"Feature","properties":{"Naam":"Stichting Vrienden van Het Baken","Organisatie":"Stichting Vrienden van Het Baken","Soort zorg":"Verpleeghuizen","Huisnummer":"25","Postcode":"8081DL","Plaats":"Elburg"},"geometry":{"type":"Point","coordinates":[5.85823,52.44615]}},{"type":"Feature","properties":{"Naam":"Stichting Zorg-Wooncentrum den Bouw Warnsveld","Organisatie":"Stichting Zorg-Wooncentrum den Bouw Warnsveld","Soort zorg":"Verzorgingshuizen","Huisnummer":"9","Postcode":"7231CR","Plaats":"Warnsveld"},"geometry":{"type":"Point","coordinates":[6.2296,52.14011]}},{"type":"Feature","properties":{"Naam":"Stichting Trimenzo","Organisatie":"Stichting Trimenzo","Soort zorg":"Verzorgingshuizen","Huisnummer":"85","Postcode":"7391AG","Plaats":"Twello"},"geometry":{"type":"Point","coordinates":[6.09328,52.229]}},{"type":"Feature","properties":{"Naam":"Stichting Serviceflat \"De IJssel\"","Organisatie":"Serviceflat De IJssel","Soort zorg":"Verzorgingshuizen","Huisnummer":"252","Postcode":"7206DE","Plaats":"Zutphen"},"geometry":{"type":"Point","coordinates":[6.19898,52.12658]}},{"type":"Feature","properties":{"Naam":"Stichting Samen Zorgen","Organisatie":"Stichting Samen Zorgen","Soort zorg":"Verzorgingshuizen","Huisnummer":"1","Postcode":"6674BR","Plaats":"Herveld"},"geometry":{"type":"Point","coordinates":[5.73523,51.90877]}},{"type":"Feature","properties":{"Naam":"Het Maanderzand","Organisatie":"Het Maanderzand","Soort zorg":"Verzorgingshuizen","Huisnummer":"17","Postcode":"6713MG","Plaats":"Ede"},"geometry":{"type":"Point","coordinates":[5.66567,52.03249]}},{"type":"Feature","properties":{"Naam":"St. Christelijke Zorgorganisatie Norschoten","Organisatie":"Zorgorganisatie Norschoten","Soort zorg":"Verpleeghuizen","Huisnummer":"1","Postcode":"3773AW","Plaats":"Barneveld"},"geometry":{"type":"Point","coordinates":[5.59865,52.14011]}},{"type":"Feature","properties":{"Naam":"SVRO","Organisatie":"SVRO","Soort zorg":"Verpleeghuizen, Verzorgingshuizen","Huisnummer":"120","Postcode":"2984AB","Plaats":"Ridderkerk"},"geometry":{"type":"Point","coordinates":[4.60547,51.87103]}},{"type":"Feature","properties":{"Naam":"Rumah Saya","Organisatie":"Stichting Nusantara Zorg","Soort zorg":"Verzorgingshuizen","Huisnummer":"34","Postcode":"7339HJ","Plaats":"Ugchelen"},"geometry":{"type":"Point","coordinates":[5.94586,52.18932]}},{"type":"Feature","properties":{"Naam":"Stichting LuciVer","Organisatie":"Stichting LuciVer","Soort zorg":"Verpleeghuizen","Huisnummer":"134","Postcode":"6603AM","Plaats":"Wijchen"},"geometry":{"type":"Point","coordinates":[5.7538,51.80362]}},{"type":"Feature","properties":{"Naam":"Stichting Gasthuis Sint Jan de Deo","Organisatie":"Stichting Gasthuis Sint Jan de Deo","Soort zorg":"Verzorgingshuizen","Huisnummer":"1","Postcode":"6566DD","Plaats":"Millingen aan de Rijn"},"geometry":{"type":"Point","coordinates":[6.04612,51.86331]}},{"type":"Feature","properties":{"Naam":"Stichting Malderburch, welzijn, wonen en zorg","Organisatie":"Stichting Malderburch, welzijn, wonen en zorg","Soort zorg":"Verzorgingshuizen","Huisnummer":"16","Postcode":"6581AE","Plaats":"Malden"},"geometry":{"type":"Point","coordinates":[5.84951,51.7813]}},{"type":"Feature","properties":{"Naam":"Zorgcentrum Anker","Organisatie":"St. Pr-Christelijk Zorgcentrum Anker","Soort zorg":"Verpleeghuizen","Huisnummer":"11","Postcode":"4041CA","Plaats":"Kesteren"},"geometry":{"type":"Point","coordinates":[5.57834,51.93333]}},{"type":"Feature","properties":{"Naam":"Stichting Woon- en Zorgcentrum Avondlicht","Organisatie":"Stichting Woon- en Zorgcentrum Avondlicht","Soort zorg":"Verzorgingshuizen","Huisnummer":"18","Postcode":"4171BR","Plaats":"Herwijnen"},"geometry":{"type":"Point","coordinates":[5.13312,51.82572]}},{"type":"Feature","properties":{"Naam":"Zorgcentrum Beek en Bos","Organisatie":"Zorgcentrum Beek en Bos","Soort zorg":"Verzorgingshuizen","Huisnummer":"1","Postcode":"6093GE","Plaats":"Heythuysen"},"geometry":{"type":"Point","coordinates":[5.90384,51.24965]}},{"type":"Feature","properties":{"Naam":"Sint Jozef Wonen en Zorg","Organisatie":"Stichting Sint Jozef wonen en zorg","Soort zorg":"Verpleeghuizen","Huisnummer":"1","Postcode":"5768AW","Plaats":"Meijel"},"geometry":{"type":"Point","coordinates":[5.89358,51.34341]}},{"type":"Feature","properties":{"Naam":"Stichting Land van Horne","Organisatie":"Land van Horne","Soort zorg":"Verpleeghuizen, Verzorgingshuizen","Huisnummer":"3","Postcode":"6001HZ","Plaats":"Weert","Routekaart":"Voorlopig","Ambitie":"EM ingepland"},"geometry":{"type":"Point","coordinates":[5.70287,51.25717]}},{"type":"Feature","properties":{"Naam":"Verpleeghuis Bergweide","Organisatie":"Stichting Verpleeghuis Bergweide","Soort zorg":"Verpleeghuizen","Huisnummer":"12","Postcode":"6416AK","Plaats":"Heerlen","Routekaart":"Voorlopig","Ambitie":"Route tot +-2025"},"geometry":{"type":"Point","coordinates":[5.99034,50.88906]}},{"type":"Feature","properties":{"Naam":"Stichting Sevagram Zorgcentra","Organisatie":"Stichting Sevagram","Soort zorg":"Verpleeghuizen","Huisnummer":"3","Postcode":"6419PB","Plaats":"Heerlen"},"geometry":{"type":"Point","coordinates":[5.97529,50.87128]}},{"type":"Feature","properties":{"Naam":"WZC Bunderhof/Thuiszorg Vivantes","Organisatie":"Stichting Vivantes Zorggroep","Soort zorg":"Verzorgingshuizen","Huisnummer":"1","Postcode":"6164EM","Plaats":"Geleen"},"geometry":{"type":"Point","coordinates":[5.82774,50.95263]}},{"type":"Feature","properties":{"Naam":"Stichting Envida","Organisatie":"Stichting Envida","Soort zorg":"Verpleeghuizen","Huisnummer":"2a","Postcode":"6211LS","Plaats":"Maastricht"},"geometry":{"type":"Point","coordinates":[5.68382,50.8472]}},{"type":"Feature","properties":{"Naam":"Stg. Kloosterverz. Zusters Onder de Bogen","Organisatie":"Stg. Kloosterverz. Zusters Onder de Bogen","Soort zorg":"Verzorgingshuizen","Huisnummer":"25","Postcode":"6211NX","Plaats":"Maastricht"},"geometry":{"type":"Point","coordinates":[5.68463,50.8482]}},{"type":"Feature","properties":{"Naam":"Woonzorgcentrum De Beyart","Organisatie":"Stichting Woonzorgcentrum De Beyart","Soort zorg":"Verpleeghuizen","Huisnummer":"38","Postcode":"6211PG","Plaats":"Maastricht"},"geometry":{"type":"Point","coordinates":[5.68372,50.84967]}},{"type":"Feature","properties":{"Naam":"Van Neynsel Eemwijk","Organisatie":"Van Neynsel","Soort zorg":"Verpleeghuizen, Verzorgingshuizen","Huisnummer":"114","Postcode":"5215HR","Plaats":"'s-Hertogenbosch","Routekaart":"Voorlopig","Ambitie":"Route tot 2030"},"geometry":{"type":"Point","coordinates":[5.33719,51.69262]}},{"type":"Feature","properties":{"Naam":"Jozefoord","Organisatie":"Stg. St. Jozefoord","Soort zorg":"Verpleeghuizen","Huisnummer":"15","Postcode":"5391EC","Plaats":"Nuland"},"geometry":{"type":"Point","coordinates":[5.42638,51.72296]}},{"type":"Feature","properties":{"Naam":"Thuiszorg en Zorgcentra Pantein B.V.","Organisatie":"Thuiszorg en Zorgcentra Pantein B.V.","Soort zorg":"Verpleeghuizen","Huisnummer":"2","Postcode":"5835DV","Plaats":"Beugen"},"geometry":{"type":"Point","coordinates":[5.94134,51.66318]}},{"type":"Feature","properties":{"Naam":"Woonzorgcentr.Theresia/Thuiszorg Vughterstede","Organisatie":"Stichting Vughterstede","Soort zorg":"Verzorgingshuizen","Huisnummer":"48","Postcode":"5262TN","Plaats":"Vught"},"geometry":{"type":"Point","coordinates":[5.27906,51.64594]}},{"type":"Feature","properties":{"Naam":"Archipel","Organisatie":"Stichting Archipel","Soort zorg":"Verpleeghuizen","Huisnummer":"415","Postcode":"5654NN","Plaats":"Eindhoven","Routekaart":"Vastgesteld","Ambitie":"Route tot 2030"},"geometry":{"type":"Point","coordinates":[5.44901,51.42088]}},{"type":"Feature","properties":{"Naam":"Zorgcentrum Kempenhof","Organisatie":"Stichting Valkenhof","Soort zorg":"Verpleeghuizen, Verzorgingshuizen","Huisnummer":"3","Postcode":"5554JV","Plaats":"Valkenswaard"},"geometry":{"type":"Point","coordinates":[5.45519,51.34706]}},{"type":"Feature","properties":{"Naam":"Stichting Oktober","Organisatie":"Stichting Oktober","Soort zorg":"Verpleeghuizen, Verzorgingshuizen","Huisnummer":"10","Postcode":"5531LJ","Plaats":"Bladel"},"geometry":{"type":"Point","coordinates":[5.21471,51.36279]}},{"type":"Feature","properties":{"Naam":"Stichting De Wever","Organisatie":"Stichting De Wever","Soort zorg":"Verpleeghuizen","Huisnummer":"6","Postcode":"5042AD","Plaats":"Tilburg","Routekaart":"Voorlopig","Ambitie":"Niet bekend"},"geometry":{"type":"Point","coordinates":[5.06428,51.57823]}},{"type":"Feature","properties":{"Naam":"Joris Zorg","Organisatie":"Joris Zorg","Soort zorg":"Verzorgingshuizen","Huisnummer":"1","Postcode":"5688AS","Plaats":"Oirschot"},"geometry":{"type":"Point","coordinates":[5.31095,51.50462]}},{"type":"Feature","properties":{"Naam":"Zorgcentrum Sint Franciscus","Organisatie":"Stichting Verzorging St. Franciscus","Soort zorg":"Verzorgingshuizen","Huisnummer":"20","Postcode":"5126GC","Plaats":"Gilze"},"geometry":{"type":"Point","coordinates":[4.94187,51.53892]}},{"type":"Feature","properties":{"Naam":"Zorgstichting 't Heem","Organisatie":"Zorgstichting 't Heem","Soort zorg":"Verzorgingshuizen","Huisnummer":"2a","Postcode":"5071EJ","Plaats":"Udenhout"},"geometry":{"type":"Point","coordinates":[5.1405,51.61195]}},{"type":"Feature","properties":{"Naam":"Stichting \"De Wijngaerd\"","Organisatie":"Stichting \"De Wijngaerd\"","Soort zorg":"Verzorgingshuizen","Huisnummer":"2a","Postcode":"4921JC","Plaats":"Made"},"geometry":{"type":"Point","coordinates":[4.78562,51.67581]}},{"type":"Feature","properties":{"Naam":"Stichting Residentie Molenwijck","Organisatie":"Stichting Residentie Molenwijck","Soort zorg":"Verzorgingshuizen","Huisnummer":"1","Postcode":"5175WB","Plaats":"Loon op Zand"},"geometry":{"type":"Point","coordinates":[5.07888,51.62409]}},{"type":"Feature","properties":{"Naam":"Wijkestein","Organisatie":"Stichting Zorgplein Maaswaarden","Soort zorg":"Verpleeghuizen","Huisnummer":"26","Postcode":"4261CW","Plaats":"Wijk en Aalburg"},"geometry":{"type":"Point","coordinates":[5.12701,51.75838]}},{"type":"Feature","properties":{"Naam":"Stichting Zorgorganisatie Het Hoge Veer","Organisatie":"Stichting Zorgorganisatie Het Hoge Veer","Soort zorg":"Verpleeghuizen","Huisnummer":"1","Postcode":"4941KH","Plaats":"Raamsdonksveer"},"geometry":{"type":"Point","coordinates":[4.87872,51.69411]}},{"type":"Feature","properties":{"Naam":"Avoord","Organisatie":"Avoord","Soort zorg":"Verzorgingshuizen","Huisnummer":"1","Postcode":"4876CV","Plaats":"Etten-Leur"},"geometry":{"type":"Point","coordinates":[4.64097,51.56154]}},{"type":"Feature","properties":{"Naam":"St. Elisabeth Roosendaal","Organisatie":"Stichting St. Elisabeth","Soort zorg":"Verzorgingshuizen","Huisnummer":"21","Postcode":"4703BL","Plaats":"Roosendaal"},"geometry":{"type":"Point","coordinates":[4.4439,51.53132]}},{"type":"Feature","properties":{"Naam":"Woonzorgcentrum Raffy","Organisatie":"Stichting Woonzorgcentrum Raffy-Leystroom","Soort zorg":"Verzorgingshuizen","Huisnummer":"400","Postcode":"4827EG","Plaats":"Breda"},"geometry":{"type":"Point","coordinates":[4.7978,51.60823]}},{"type":"Feature","properties":{"Naam":"St. Ouderenzorg Kapelle","Organisatie":"St. Ouderenzorg Kapelle","Soort zorg":"Verpleeghuizen","Huisnummer":"9","Postcode":"4421BZ","Plaats":"Kapelle"},"geometry":{"type":"Point","coordinates":[3.96231,51.48128]}},{"type":"Feature","properties":{"Naam":"De Schutse Zorgcentrum","Organisatie":"Stichting Schutse Zorg Tholen","Soort zorg":"Verzorgingshuizen","Huisnummer":"10","Postcode":"4697GM","Plaats":"Sint-Annaland"},"geometry":{"type":"Point","coordinates":[4.09759,51.60007]}},{"type":"Feature","properties":{"Naam":"WVO Zorg","Organisatie":"WVO Zorg","Soort zorg":"Verpleeghuizen","Huisnummer":"370","Postcode":"4382CJ","Plaats":"Vlissingen"},"geometry":{"type":"Point","coordinates":[3.56034,51.45367]}},{"type":"Feature","properties":{"Naam":"Zorgcentrum Ter Weel","Organisatie":"STICHTING ZORGGROEP TER WEEL","Soort zorg":"Verpleeghuizen","Huisnummer":"1","Postcode":"4462AV","Plaats":"Goes"},"geometry":{"type":"Point","coordinates":[3.9039,51.49493]}},{"type":"Feature","properties":{"Naam":"Hospice het Clarahofje","Organisatie":"St. Het Clarahofje","Soort zorg":"Verpleeghuizen","Huisnummer":"100","Postcode":"4461EC","Plaats":"Goes"},"geometry":{"type":"Point","coordinates":[3.87651,51.50428]}},{"type":"Feature","properties":{"Naam":"PZC Dordrecht - Crabbehoven","Organisatie":"Stichting Protestantse Zorggroep Crabbehoff","Soort zorg":"Verpleeghuizen","Huisnummer":"38","Postcode":"3317SP","Plaats":"Dordrecht"},"geometry":{"type":"Point","coordinates":[4.66574,51.79078]}},{"type":"Feature","properties":{"Naam":"Hof van Sliedrecht","Organisatie":"Stichting Senioren Residenties Drechtstreek","Soort zorg":"Verzorgingshuizen","Huisnummer":"31","Postcode":"3362BB","Plaats":"Sliedrecht"},"geometry":{"type":"Point","coordinates":[4.78585,51.82377]}},{"type":"Feature","properties":{"Naam":"Stichting Het Parkhuis","Organisatie":"Stichting Het Parkhuis","Soort zorg":"Verpleeghuizen","Huisnummer":"69a","Postcode":"3319GB","Plaats":"Dordrecht"},"geometry":{"type":"Point","coordinates":[4.71368,51.7952]}},{"type":"Feature","properties":{"Naam":"Huize Matthijs Marijke","Organisatie":"Stichting \"Huize Matthijs Marijke\"","Soort zorg":"Verzorgingshuizen","Huisnummer":"15","Postcode":"4201CV","Plaats":"Gorinchem"},"geometry":{"type":"Point","coordinates":[4.97494,51.82905]}},{"type":"Feature","properties":{"Naam":"Woonzorgcentrum Heemzicht","Organisatie":"St. Woongemeenschap voor Ouderen","Soort zorg":"Verzorgingshuizen","Huisnummer":"26","Postcode":"3265BV","Plaats":"Piershil"},"geometry":{"type":"Point","coordinates":[4.31587,51.79315]}},{"type":"Feature","properties":{"Naam":"'t Achterdorp (wooncomplex)","Organisatie":"St. Huisvesting Ouderen","Soort zorg":"Verzorgingshuizen","Huisnummer":"87","Postcode":"3772BZ","Plaats":"Barneveld"},"geometry":{"type":"Point","coordinates":[5.58575,52.13706]}},{"type":"Feature","properties":{"Naam":"Stichting De Merwelanden","Organisatie":"Stichting De Merwelanden","Soort zorg":"Verzorgingshuizen","Huisnummer":"515","Postcode":"3313EM","Plaats":"Dordrecht"},"geometry":{"type":"Point","coordinates":[4.72045,51.81138]}},{"type":"Feature","properties":{"Naam":"Akropolis","Organisatie":"Stichting Humanitas","Soort zorg":"Verpleeghuizen","Huisnummer":"290","Postcode":"3054RL","Plaats":"Rotterdam"},"geometry":{"type":"Point","coordinates":[4.48621,51.96434]}},{"type":"Feature","properties":{"Naam":"De Vijverhof","Organisatie":"De Vijverhof","Soort zorg":"Verpleeghuizen","Huisnummer":"251","Postcode":"2903LJ","Plaats":"Capelle aan den IJssel"},"geometry":{"type":"Point","coordinates":[4.59179,51.92951]}},{"type":"Feature","properties":{"Naam":"Stichting Laurens","Organisatie":"Stichting Laurens","Soort zorg":"Verpleeghuizen","Huisnummer":"29a","Postcode":"3014GB","Plaats":"Rotterdam"},"geometry":{"type":"Point","coordinates":[4.47113,51.91678]}},{"type":"Feature","properties":{"Naam":"Harg-Spaland centrum voor zorg en wonen","Organisatie":"Harg-Spaland centrum voor zorg en wonen","Soort zorg":"Verpleeghuizen, Verzorgingshuizen","Huisnummer":"2","Postcode":"3122JT","Plaats":"Schiedam"},"geometry":{"type":"Point","coordinates":[4.3739,51.92954]}},{"type":"Feature","properties":{"Naam":"Stichting Cedrah","Organisatie":"Cedrah","Soort zorg":"Verzorgingshuizen","Huisnummer":"40","Postcode":"2992XC","Plaats":"Barendrecht"},"geometry":{"type":"Point","coordinates":[4.53503,51.8664]}},{"type":"Feature","properties":{"Naam":"Frankeland - Sint Liduinastichting","Organisatie":"Frankeland - Sint Liduinastichting","Soort zorg":"Verpleeghuizen, Verzorgingshuizen","Huisnummer":"10","Postcode":"3117CS","Plaats":"Schiedam"},"geometry":{"type":"Point","coordinates":[4.39406,51.91416]}},{"type":"Feature","properties":{"Naam":"Stg Zorgverlening voor Ouderen Schiewaegh","Organisatie":"Stg Zorgverlening voor Ouderen Schiewaegh","Soort zorg":"Verpleeghuizen, Verzorgingshuizen","Huisnummer":"759","Postcode":"3119AT","Plaats":"Schiedam"},"geometry":{"type":"Point","coordinates":[4.38851,51.91937]}},{"type":"Feature","properties":{"Naam":"STICHTING FLORENCE","Organisatie":"Stichting Zorggroep Florence","Soort zorg":"Verpleeghuizen, Verzorgingshuizen","Huisnummer":"1","Postcode":"2289DA","Plaats":"Rijswijk"},"geometry":{"type":"Point","coordinates":[4.34491,52.05189]}},{"type":"Feature","properties":{"Naam":"Huize Eykenburg","Organisatie":"Stichting Eykenburg","Soort zorg":"Verpleeghuizen, Verzorgingshuizen","Huisnummer":"12","Postcode":"2564VD","Plaats":"'s-Gravenhage"},"geometry":{"type":"Point","coordinates":[4.26153,52.07191]}},{"type":"Feature","properties":{"Naam":"Stichting Lindenhof","Organisatie":"Stichting Lindenhof","Soort zorg":"Verzorgingshuizen","Huisnummer":"79","Postcode":"2242HE","Plaats":"Wassenaar"},"geometry":{"type":"Point","coordinates":[4.39058,52.13966]}},{"type":"Feature","properties":{"Naam":"Woonzorgcentrum Bloemswaard","Organisatie":"Stichting HOZO","Soort zorg":"Verpleeghuizen","Huisnummer":"3","Postcode":"2182LA","Plaats":"Hillegom"},"geometry":{"type":"Point","coordinates":[4.57776,52.2856]}},{"type":"Feature","properties":{"Naam":"De Zevenster","Organisatie":"De Zevenster","Soort zorg":"Verpleeghuizen","Huisnummer":"3","Postcode":"2761HD","Plaats":"Zevenhuizen"},"geometry":{"type":"Point","coordinates":[4.58584,52.01325]}},{"type":"Feature","properties":{"Naam":"Stichting Charim Vastgoed","Organisatie":"Stichting Charim Vastgoed","Soort zorg":"Verpleeghuizen","Huisnummer":"42","Postcode":"3905KW"},"geometry":{"type":"Point","coordinates":[5.56333,52.04053]}},{"type":"Feature","properties":{"Naam":"Woon- en Zorgcentrum de Wulverhorst","Organisatie":"Stichting Ouderenzorg Oudewater","Soort zorg":"Verzorgingshuizen","Huisnummer":"2","Postcode":"3421JD"},"geometry":{"type":"Point","coordinates":[4.86831,52.02843]}},{"type":"Feature","properties":{"Naam":"Woonzorgcentrum Maria Dommer","Organisatie":"Maria Dommer Stichting","Soort zorg":"Verzorgingshuizen","Huisnummer":"1","Postcode":"3601EX"},"geometry":{"type":"Point","coordinates":[5.0395,52.14411]}},{"type":"Feature","properties":{"Naam":"Accolade Zorggroep","Organisatie":"stichting Accolade Zorg","Soort zorg":"Verpleeghuizen","Huisnummer":"2","Postcode":"3735MR","Plaats":"Bosch en Duin","Routekaart":"Voorlopig","Ambitie":"EM ingepland"},"geometry":{"type":"Point","coordinates":[5.24436,52.11495]}},{"type":"Feature","properties":{"Naam":"Wooncentrum Heerewegen","Organisatie":"Warande","Soort zorg":"Verpleeghuizen","Huisnummer":"80","Postcode":"3708AH","Plaats":"Zeist"},"geometry":{"type":"Point","coordinates":[5.2571,52.07324]}},{"type":"Feature","properties":{"Naam":"Zorg- en Wooncentrum De Haven","Organisatie":"Stichting Zorg- en Wooncentrum De Haven","Soort zorg":"Verzorgingshuizen","Huisnummer":"161","Postcode":"3752GM","Plaats":"Bunschoten-Spakenburg"},"geometry":{"type":"Point","coordinates":[5.37307,52.25089]}},{"type":"Feature","properties":{"Naam":"Mgr. Blom Stichting","Organisatie":"Mgr. Blom Stichting","Soort zorg":"Verzorgingshuizen","Huisnummer":"55","Postcode":"3819AB","Plaats":"Amersfoort"},"geometry":{"type":"Point","coordinates":[5.35003,52.15169]}},{"type":"Feature","properties":{"Naam":"Agnietenhove","Organisatie":"Julia Stichting Agnietenhove","Soort zorg":"Verzorgingshuizen","Huisnummer":"38","Postcode":"3811HC","Plaats":"Amersfoort"},"geometry":{"type":"Point","coordinates":[5.39207,52.15421]}},{"type":"Feature","properties":{"Naam":"Stichting Lyvore","Organisatie":"Stichting Lyvore","Soort zorg":"Verzorgingshuizen","Huisnummer":"267","Postcode":"3584AA","Plaats":"Utrecht"},"geometry":{"type":"Point","coordinates":[5.14734,52.07856]}},{"type":"Feature","properties":{"Naam":"HilverPoint / HilverZorg Thuis","Organisatie":"HilverZorg","Soort zorg":"Verzorgingshuizen","Huisnummer":"10d","Postcode":"1216SK","Plaats":"Hilversum","Routekaart":"Voorlopig","Ambitie":"Route tot 2050"},"geometry":{"type":"Point","coordinates":[5.14252,52.21356]}},{"type":"Feature","properties":{"Naam":"'t Huis a/d Poel/Thuiszorg BrentanoAmstelveen","Organisatie":"Stichting Brentano Amstelveen","Soort zorg":"Verpleeghuizen","Huisnummer":"21","Postcode":"1185SE","Plaats":"Amstelveen"},"geometry":{"type":"Point","coordinates":[4.84563,52.29557]}},{"type":"Feature","properties":{"Naam":"Verzorgingscentrum Horizon","Organisatie":"de Stichting PCSOH Zorgverlening","Soort zorg":"Verzorgingshuizen","Huisnummer":"54","Postcode":"2131WE","Plaats":"Hoofddorp"},"geometry":{"type":"Point","coordinates":[4.68825,52.30673]}},{"type":"Feature","properties":{"Naam":"Reinaldahuis","Organisatie":"Zorggroep Reinalda","Soort zorg":"Verpleeghuizen, Verzorgingshuizen","Huisnummer":"1","Postcode":"2033TA","Plaats":"Haarlem","Routekaart":"Voorlopig","Ambitie":"Route tot +-2025"},"geometry":{"type":"Point","coordinates":[4.65985,52.37557]}},{"type":"Feature","properties":{"Naam":"St. Huize Spaar en Hout Tehuis Doopsgezinden","Organisatie":"St. Huize Spaar en Hout Tehuis Doopsgezinden","Soort zorg":"Verzorgingshuizen","Huisnummer":"139","Postcode":"2012CG","Plaats":"Haarlem"},"geometry":{"type":"Point","coordinates":[4.6351,52.36899]}},{"type":"Feature","properties":{"Naam":"Zorgcentrum Aalsmeer","Organisatie":"Hervormd/Gem. St. Zorgcentrum Aelsmeer","Soort zorg":"Verzorgingshuizen","Huisnummer":"2","Postcode":"1431BZ","Plaats":"Aalsmeer"},"geometry":{"type":"Point","coordinates":[4.74477,52.26976]}},{"type":"Feature","properties":{"Naam":"Sint Jacob","Organisatie":"Stichting Sint Jacob","Soort zorg":"Verpleeghuizen","Huisnummer":"24","Postcode":"2033PZ","Plaats":"Haarlem","Routekaart":"Voorlopig","Ambitie":"Route tot +-2025"},"geometry":{"type":"Point","coordinates":[4.65199,52.37229]}},{"type":"Feature","properties":{"Naam":"Stichting Alkcare","Organisatie":"Stichting Alkcare","Soort zorg":"Verzorgingshuizen","Huisnummer":"91","Postcode":"1829AC","Plaats":"Oudorp"},"geometry":{"type":"Point","coordinates":[4.77456,52.6372]}},{"type":"Feature","properties":{"Naam":"Woonzorgcentrum De Raatstede","Organisatie":"De Pieter Raat Stichting","Soort zorg":"Verzorgingshuizen","Huisnummer":"2","Postcode":"1703DX","Plaats":"Heerhugowaard"},"geometry":{"type":"Point","coordinates":[4.82592,52.66563]}},{"type":"Feature","properties":{"Naam":"Verpleeghuis Magnushof","Organisatie":"STICHTING WOONZORGGROEP SAMEN","Soort zorg":"Verpleeghuizen, Verzorgingshuizen","Huisnummer":"30","Postcode":"1741KW","Plaats":"Schagen","Routekaart":"Vastgesteld","Ambitie":"Route tot 2050"},"geometry":{"type":"Point","coordinates":[4.80284,52.79443]}},{"type":"Feature","properties":{"Naam":"Woonzorg Flevoland","Organisatie":"Stichting Woonzorg Flevoland","Soort zorg":"Verzorgingshuizen","Huisnummer":"12","Postcode":"8224BP","Plaats":"Lelystad"},"geometry":{"type":"Point","coordinates":[5.47763,52.51532]}},{"type":"Feature","properties":{"Naam":"St. Woon-Zorgcentra De Rijnhoven, Vijverhof","Organisatie":"Stichting Woon-Zorgcentra De Rijnhoven","Soort zorg":"Verzorgingshuizen","Huisnummer":"1","Postcode":"3481EZ","Plaats":"Harmelen","Routekaart":"Voorlopig","Ambitie":"Route tot 2030"},"geometry":{"type":"Point","coordinates":[4.95133,52.0934]}},{"type":"Feature","properties":{"Naam":"'t Huys te Hoecke","Organisatie":"Stichting Zorgwaard","Soort zorg":"Verpleeghuizen, Verzorgingshuizen","Huisnummer":"15","Postcode":"3297SE","Plaats":"Puttershoek"},"geometry":{"type":"Point","coordinates":[4.56221,51.80287]}},{"type":"Feature","properties":{"Naam":"Present","Organisatie":"Present","Soort zorg":"Verzorgingshuizen","Huisnummer":"34","Postcode":"4233HM","Plaats":"Ameide"},"geometry":{"type":"Point","coordinates":[4.96634,51.95424]}},{"type":"Feature","properties":{"Naam":"Stichting Hospice Vijfheerenlanden","Organisatie":"Stichting Hospice Vijfheerenlanden","Soort zorg":"Verpleeghuizen","Huisnummer":"14","Postcode":"4133GX","Plaats":"Vianen"},"geometry":{"type":"Point","coordinates":[5.0791,51.98475]}},{"type":"Feature","properties":{"Naam":"Stichting Vecht en IJssel","Organisatie":"Stichting Vecht en IJssel","Soort zorg":"Verpleeghuizen, Verzorgingshuizen","Huisnummer":"16","Postcode":"3526XB","Plaats":"Utrecht"},"geometry":{"type":"Point","coordinates":[5.10085,52.07417]}},{"type":"Feature","properties":{"Naam":"GeboorteHotel Maasstad B.V.","Organisatie":"GeboorteHotel Maasstad B.V.","Soort zorg":"Verzorgingshuizen","Huisnummer":"4","Postcode":"3079DZ","Plaats":"Rotterdam"},"geometry":{"type":"Point","coordinates":[4.53609,51.88014]}},{"type":"Feature","properties":{"Naam":"Stichting Futura Zorg","Organisatie":"Stichting Futura Zorg","Soort zorg":"Verzorgingshuizen","Huisnummer":"112","Postcode":"3342LG","Plaats":"Hendrik-Ido-Ambacht"},"geometry":{"type":"Point","coordinates":[4.61625,51.83334]}},{"type":"Feature","properties":{"Naam":"INNBalanz B.V.","Organisatie":"INNBalanz B.V.","Soort zorg":"Verzorgingshuizen","Huisnummer":"6","Postcode":"9403DS","Plaats":"Assen"},"geometry":{"type":"Point","coordinates":[6.57654,53.02414]}},{"type":"Feature","properties":{"Naam":"Hart van Zwaag","Organisatie":"Hart van Zwaag","Soort zorg":"Verzorgingshuizen","Huisnummer":"23","Postcode":"1689EP","Plaats":"Zwaag"},"geometry":{"type":"Point","coordinates":[5.04711,52.66102]}},{"type":"Feature","properties":{"Naam":"Woonzorg de Berkenhof B.V.","Organisatie":"Woonzorg de Berkenhof B.V.","Soort zorg":"Verzorgingshuizen","Huisnummer":"24","Postcode":"7926TC","Plaats":"Kerkenveld"},"geometry":{"type":"Point","coordinates":[6.49938,52.66786]}},{"type":"Feature","properties":{"Naam":"De Herberg Arnhem","Organisatie":"De Herberg Arnhem","Soort zorg":"Verzorgingshuizen","Huisnummer":"14","Postcode":"6828DZ","Plaats":"Arnhem"},"geometry":{"type":"Point","coordinates":[5.91788,51.98317]}},{"type":"Feature","properties":{"Naam":"Woon-/ Zorgcentrum De Nieuwpoort","Organisatie":"Stichting Zorgorganisatie NiKo","Soort zorg":"Verzorgingshuizen","Huisnummer":"25","Postcode":"1814XK","Plaats":"Alkmaar"},"geometry":{"type":"Point","coordinates":[4.73862,52.61816]}},{"type":"Feature","properties":{"Naam":"Cunera De Bongerd","Organisatie":"stichting Laverhof","Soort zorg":"Verpleeghuizen","Huisnummer":"1","Postcode":"5473CJ","Plaats":"Heeswijk-Dinther"},"geometry":{"type":"Point","coordinates":[5.47067,51.6531]}},{"type":"Feature","properties":{"Naam":"Vitassist Zorghotels B.V.","Organisatie":"Vitassist Zorghotels B.V.","Soort zorg":"Verzorgingshuizen","Huisnummer":"23","Postcode":"5753SV","Plaats":"Deurne"},"geometry":{"type":"Point","coordinates":[5.76581,51.45504]}},{"type":"Feature","properties":{"Naam":"Dagelijks Leven Zorg B.V.","Organisatie":"Dagelijks Leven Zorg B.V.","Soort zorg":"Verpleeghuizen","Huisnummer":"145","Postcode":"7327AA","Plaats":"Apeldoorn"},"geometry":{"type":"Point","coordinates":[5.98627,52.19025]}},{"type":"Feature","properties":{"Naam":"Porta da Vida B.V.","Organisatie":"Porta da Vida B.V.","Soort zorg":"Verzorgingshuizen","Huisnummer":"1","Postcode":"6123BX","Plaats":"Holtum"},"geometry":{"type":"Point","coordinates":[5.82212,51.05073]}},{"type":"Feature","properties":{"Naam":"De Bregthoeve Zorg B.V.","Organisatie":"De Bregthoeve Zorg B.V.","Soort zorg":"Verpleeghuizen","Huisnummer":"55","Postcode":"1871CL","Plaats":"Schoorl"},"geometry":{"type":"Point","coordinates":[4.69502,52.70977]}},{"type":"Feature","properties":{"Naam":"Huize Zocher B.V.","Organisatie":"Huize Zocher B.V.","Soort zorg":"Verzorgingshuizen","Huisnummer":"3","Postcode":"2011MA","Plaats":"Haarlem"},"geometry":{"type":"Point","coordinates":[4.6426,52.38867]}},{"type":"Feature","properties":{"Naam":"TSN Mercator B.V.","Organisatie":"TSN Mercator B.V.","Soort zorg":"Verpleeghuizen","Huisnummer":"66","Postcode":"8025AZ","Plaats":"Zwolle"},"geometry":{"type":"Point","coordinates":[6.12054,52.51524]}},{"type":"Feature","properties":{"Naam":"Hoeve de Schutsluis B.V.","Organisatie":"Hoeve de Schutsluis B.V.","Soort zorg":"Verzorgingshuizen","Huisnummer":"8","Postcode":"9997PP","Plaats":"Zandeweer"},"geometry":{"type":"Point","coordinates":[6.6849,53.38807]}},{"type":"Feature","properties":{"Naam":"Herbergier Steenwijkerwold","Organisatie":"Mariënwold","Soort zorg":"Verpleeghuizen, Verzorgingshuizen","Huisnummer":"20","Postcode":"8341PR","Plaats":"Steenwijkerwold"},"geometry":{"type":"Point","coordinates":[6.05619,52.80155]}},{"type":"Feature","properties":{"Naam":"Q-kliniek B.V.","Organisatie":"Q-kliniek B.V.","Soort zorg":"Verzorgingshuizen","Huisnummer":"31","Postcode":"3755LC","Plaats":"Eemnes"},"geometry":{"type":"Point","coordinates":[5.31065,52.22189]}},{"type":"Feature","properties":{"Naam":"Berckendael Zorgvilla B.V.","Organisatie":"Berckendael Zorgvilla B.V.","Soort zorg":"Verzorgingshuizen","Huisnummer":"5","Postcode":"2651CA","Plaats":"Berkel en Rodenrijs"},"geometry":{"type":"Point","coordinates":[4.47371,51.99366]}},{"type":"Feature","properties":{"Naam":"Z O v d Geref. Gemeente Kootwijkerbroek","Organisatie":"Z O v d Geref. Gemeente Kootwijkerbroek","Soort zorg":"Verzorgingshuizen","Huisnummer":"27","Postcode":"3774BG","Plaats":"Kootwijkerbroek"},"geometry":{"type":"Point","coordinates":[5.66867,52.1506]}},{"type":"Feature","properties":{"Naam":"Verzorgingshuis Liduina","Organisatie":"Stichting RijnWaal Zorggroep","Soort zorg":"Verzorgingshuizen","Huisnummer":"120","Postcode":"6681WP","Plaats":"Bemmel"},"geometry":{"type":"Point","coordinates":[5.9044,51.89407]}},{"type":"Feature","properties":{"Naam":"Stichting Patyna","Organisatie":"Patyna","Soort zorg":"Verzorgingshuizen","Huisnummer":"15","Postcode":"8602JX","Plaats":"Sneek"},"geometry":{"type":"Point","coordinates":[5.64877,53.03656]}},{"type":"Feature","properties":{"Naam":"DM Holland B.V.","Organisatie":"DM Holland B.V.","Soort zorg":"Verzorgingshuizen","Huisnummer":"1","Postcode":"3743HE","Plaats":"Baarn"},"geometry":{"type":"Point","coordinates":[5.29094,52.20943]}},{"type":"Feature","properties":{"Naam":"DM Benvenuta B.V.","Organisatie":"DM Benvenuta B.V.","Soort zorg":"Verzorgingshuizen","Huisnummer":"40","Postcode":"1217BR","Plaats":"Hilversum"},"geometry":{"type":"Point","coordinates":[5.16193,52.23721]}},{"type":"Feature","properties":{"Naam":"DM Hildebrand B.V.","Organisatie":"DM Hildebrand B.V.","Soort zorg":"Verzorgingshuizen","Huisnummer":"9","Postcode":"2012JG","Plaats":"Haarlem"},"geometry":{"type":"Point","coordinates":[4.62841,52.36957]}},{"type":"Feature","properties":{"Naam":"DM Slingerbosch B.V.","Organisatie":"DM Slingerbosch B.V.","Soort zorg":"Verzorgingshuizen","Huisnummer":"202","Postcode":"1272RS","Plaats":"Huizen"},"geometry":{"type":"Point","coordinates":[5.19372,52.27382]}},{"type":"Feature","properties":{"Naam":"DM Molenenk B.V.","Organisatie":"DM Molenenk B.V.","Soort zorg":"Verzorgingshuizen","Huisnummer":"7","Postcode":"7414GS","Plaats":"Deventer"},"geometry":{"type":"Point","coordinates":[6.15382,52.27004]}},{"type":"Feature","properties":{"Naam":"Edsersheerd B.V.","Organisatie":"Edsersheerd B.V.","Soort zorg":"Verzorgingshuizen","Huisnummer":"2","Postcode":"9621BZ","Plaats":"Slochteren"},"geometry":{"type":"Point","coordinates":[6.79405,53.20314]}},{"type":"Feature","properties":{"Naam":"Polder Résidence B.V.","Organisatie":"Polder Résidence B.V.","Soort zorg":"Verpleeghuizen","Huisnummer":"62","Postcode":"1764ND","Plaats":"Breezand"},"geometry":{"type":"Point","coordinates":[4.83774,52.89372]}},{"type":"Feature","properties":{"Naam":"de Amanshoeve Zorg B.V.","Organisatie":"de Amanshoeve Zorg B.V.","Soort zorg":"Verzorgingshuizen","Huisnummer":"34","Postcode":"7636PL","Plaats":"Agelo"},"geometry":{"type":"Point","coordinates":[6.90006,52.38322]}},{"type":"Feature","properties":{"Naam":"VWE Zorg B.V.","Organisatie":"VWE Zorg B.V.","Soort zorg":"Verzorgingshuizen","Huisnummer":"70","Postcode":"7875AD","Plaats":"Exloo"},"geometry":{"type":"Point","coordinates":[6.86077,52.8831]}},{"type":"Feature","properties":{"Naam":"HaZo Zorg B.V.","Organisatie":"HaZo Zorg B.V.","Soort zorg":"Verzorgingshuizen","Huisnummer":"9","Postcode":"7415CR","Plaats":"Deventer"},"geometry":{"type":"Point","coordinates":[6.17098,52.26248]}},{"type":"Feature","properties":{"Naam":"Nieuw Boekenroode B.V.","Organisatie":"Nieuw Boekenroode B.V.","Soort zorg":"Verzorgingshuizen","Huisnummer":"1","Postcode":"2031BJ","Plaats":"Haarlem"},"geometry":{"type":"Point","coordinates":[4.6515,52.38975]}},{"type":"Feature","properties":{"Naam":"Huize Weltevrede","Organisatie":"Huize Weltevrede","Soort zorg":"Verzorgingshuizen","Huisnummer":"12","Postcode":"8389TM","Plaats":"Zandhuizen"},"geometry":{"type":"Point","coordinates":[6.13864,52.91275]}},{"type":"Feature","properties":{"Naam":"De Eschpoort","Organisatie":"Stichting Liberein","Soort zorg":"Verpleeghuizen, Verzorgingshuizen","Huisnummer":"505","Postcode":"7511AD","Plaats":"Enschede"},"geometry":{"type":"Point","coordinates":[6.9067,52.21752]}},{"type":"Feature","properties":{"Naam":"Protestants-Christelijke St. Waardeburgh","Organisatie":"Protestants-Christelijke St. Waardeburgh","Soort zorg":"Verzorgingshuizen","Huisnummer":"12","Postcode":"3363EL","Plaats":"Sliedrecht"},"geometry":{"type":"Point","coordinates":[4.77232,51.82451]}},{"type":"Feature","properties":{"Naam":"Zorghotel Roermond B.V.","Organisatie":"Zorghotel Roermond B.V.","Soort zorg":"Verzorgingshuizen","Huisnummer":"35","Postcode":"5915PN","Plaats":"Venlo"},"geometry":{"type":"Point","coordinates":[6.18603,51.34044]}},{"type":"Feature","properties":{"Naam":"Zorghaven B.V.","Organisatie":"Zorghaven B.V.","Soort zorg":"Verpleeghuizen","Huisnummer":"72","Postcode":"3116EX","Plaats":"Schiedam"},"geometry":{"type":"Point","coordinates":[4.39896,51.91027]}},{"type":"Feature","properties":{"Naam":"ZorgSaam Thuis- en Ouderenzorg","Organisatie":"ZorgSaam Thuis- en Ouderenzorg B.V.","Soort zorg":"Verpleeghuizen","Huisnummer":"2","Postcode":"4535PA","Plaats":"Terneuzen"},"geometry":{"type":"Point","coordinates":[3.86135,51.30896]}},{"type":"Feature","properties":{"Naam":"Bestezorg SG","Organisatie":"Bestezorg SG","Soort zorg":"Verzorgingshuizen","Huisnummer":"40a","Postcode":"6373JD","Plaats":"Landgraaf"},"geometry":{"type":"Point","coordinates":[6.027,50.90505]}},{"type":"Feature","properties":{"Naam":"Huize Spoorzicht B.V.","Organisatie":"Huize Spoorzicht B.V.","Soort zorg":"Verzorgingshuizen","Huisnummer":"170","Postcode":"3911RR","Plaats":"Rhenen"},"geometry":{"type":"Point","coordinates":[5.57732,51.97526]}},{"type":"Feature","properties":{"Naam":"Het Ouden Huis Waddinxveen B.V.","Organisatie":"Het Ouden Huis Waddinxveen B.V.","Soort zorg":"Verzorgingshuizen","Huisnummer":"2","Postcode":"2831BP","Plaats":"Gouderak"},"geometry":{"type":"Point","coordinates":[4.67874,51.98776]}},{"type":"Feature","properties":{"Naam":"Zorg-S","Organisatie":"Zorg-S","Soort zorg":"Verzorgingshuizen","Huisnummer":"17","Postcode":"3451WH","Plaats":"Vleuten"},"geometry":{"type":"Point","coordinates":[5.01332,52.09994]}},{"type":"Feature","properties":{"Naam":"Thuisparken B.V. i.o.","Organisatie":"Thuisparken B.V. i.o.","Soort zorg":"Verzorgingshuizen","Huisnummer":"1","Postcode":"5394LE","Plaats":"Oijen"},"geometry":{"type":"Point","coordinates":[5.51792,51.81391]}},{"type":"Feature","properties":{"Naam":"Shabcare","Organisatie":"Shabcare","Soort zorg":"Verpleeghuizen, Verzorgingshuizen","Huisnummer":"23","Postcode":"5571PH","Plaats":"Bergeijk"},"geometry":{"type":"Point","coordinates":[5.35241,51.32253]}},{"type":"Feature","properties":{"Naam":"Stichting KleinGeluk","Organisatie":"Stichting KleinGeluk","Soort zorg":"Verpleeghuizen, Verzorgingshuizen","Huisnummer":"1","Postcode":"7314AA","Plaats":"Apeldoorn"},"geometry":{"type":"Point","coordinates":[5.95504,52.21847]}},{"type":"Feature","properties":{"Naam":"Villa Hooghe Heide B.V.","Organisatie":"Villa Hooghe Heide B.V.","Soort zorg":"Verzorgingshuizen","Huisnummer":"1","Postcode":"3823GL","Plaats":"Amersfoort"},"geometry":{"type":"Point","coordinates":[5.40085,52.18777]}},{"type":"Feature","properties":{"Naam":"N4Care","Organisatie":"N4Care","Soort zorg":"Verpleeghuizen, Verzorgingshuizen","Huisnummer":"10","Postcode":"6092NC","Plaats":"Leveroy"},"geometry":{"type":"Point","coordinates":[5.84817,51.25083]}},{"type":"Feature","properties":{"Naam":"WonenPlus Zuidlaren B.V.","Organisatie":"WonenPlus Zuidlaren B.V.","Soort zorg":"Verzorgingshuizen","Huisnummer":"4","Postcode":"9471KN","Plaats":"Zuidlaren"},"geometry":{"type":"Point","coordinates":[6.67902,53.0906]}},{"type":"Feature","properties":{"Naam":"Mira Care","Organisatie":"Mira Care","Soort zorg":"Verzorgingshuizen","Huisnummer":"233","Postcode":"3027JE","Plaats":"Rotterdam"},"geometry":{"type":"Point","coordinates":[4.43598,51.9179]}},{"type":"Feature","properties":{"Naam":"DAYMA zorg","Organisatie":"DAYMA zorg","Soort zorg":"Verzorgingshuizen","Huisnummer":"15","Postcode":"6826VE","Plaats":"Arnhem"},"geometry":{"type":"Point","coordinates":[5.94356,51.98208]}},{"type":"Feature","properties":{"Naam":"Hadassah Care","Organisatie":"Hadassah Care","Soort zorg":"Verzorgingshuizen","Huisnummer":"87","Postcode":"3052NC","Plaats":"Rotterdam"},"geometry":{"type":"Point","coordinates":[4.46779,51.95299]}},{"type":"Feature","properties":{"Naam":"MathildaZorg","Organisatie":"MathildaZorg","Soort zorg":"Verzorgingshuizen","Huisnummer":"6","Postcode":"4625GD","Plaats":"Bergen op Zoom"},"geometry":{"type":"Point","coordinates":[4.30117,51.47541]}},{"type":"Feature","properties":{"Naam":"P.I zorg","Organisatie":"P.I zorg","Soort zorg":"Verzorgingshuizen","Huisnummer":"16","Postcode":"6865NN","Plaats":"Doorwerth"},"geometry":{"type":"Point","coordinates":[5.79105,51.97726]}},{"type":"Feature","properties":{"Naam":"Rosa Care","Organisatie":"Rosa Care","Soort zorg":"Verpleeghuizen, Verzorgingshuizen","Huisnummer":"2","Postcode":"3551VH","Plaats":"Utrecht"},"geometry":{"type":"Point","coordinates":[5.08987,52.10473]}},{"type":"Feature","properties":{"Naam":"Herbergier Velp","Organisatie":"Abraham van Rijswijk","Soort zorg":"Verzorgingshuizen","Huisnummer":"9","Postcode":"6881TA","Plaats":"Velp"},"geometry":{"type":"Point","coordinates":[5.97866,51.99615]}},{"type":"Feature","properties":{"Naam":"zorg bij shivanie","Organisatie":"zorg bij shivanie","Soort zorg":"Verzorgingshuizen","Huisnummer":"98e","Postcode":"2524VL","Plaats":"'s-Gravenhage"},"geometry":{"type":"Point","coordinates":[4.30947,52.05388]}},{"type":"Feature","properties":{"Naam":"Meredith Manoushka","Organisatie":"Meredith Manoushka","Soort zorg":"Verpleeghuizen","Huisnummer":"119","Postcode":"2533AH","Plaats":"'s-Gravenhage"},"geometry":{"type":"Point","coordinates":[4.27727,52.05375]}},{"type":"Feature","properties":{"Naam":"Valuas Groot Bijstervelt B.V.","Organisatie":"Valuas Groot Bijstervelt B.V.","Soort zorg":"Verpleeghuizen","Huisnummer":"12","Postcode":"5688NM","Plaats":"Oirschot"},"geometry":{"type":"Point","coordinates":[5.33365,51.50805]}},{"type":"Feature","properties":{"Naam":"CaroCares","Organisatie":"CaroCares","Soort zorg":"Verzorgingshuizen","Huisnummer":"136","Postcode":"1014ZB","Plaats":"Amsterdam"},"geometry":{"type":"Point","coordinates":[4.87625,52.39438]}},{"type":"Feature","properties":{"Naam":"Van der Veen t.h.o.d.n. Herbergier Doetinchem","Organisatie":"Van der Veen t.h.o.d.n. Herbergier Doetinchem","Soort zorg":"Verzorgingshuizen","Huisnummer":"6","Postcode":"7004BS","Plaats":"Doetinchem"},"geometry":{"type":"Point","coordinates":[6.30858,51.94967]}},{"type":"Feature","properties":{"Naam":"John ontzorgt","Organisatie":"John ontzorgt","Soort zorg":"Verpleeghuizen, Verzorgingshuizen","Huisnummer":"10","Postcode":"5621BM","Plaats":"Eindhoven"},"geometry":{"type":"Point","coordinates":[5.4538,51.45421]}},{"type":"Feature","properties":{"Naam":"Caring Next Level","Organisatie":"Caring Next Level","Soort zorg":"Verpleeghuizen, Verzorgingshuizen","Huisnummer":"67","Postcode":"3071JM","Plaats":"Rotterdam"},"geometry":{"type":"Point","coordinates":[4.50456,51.91263]}},{"type":"Feature","properties":{"Naam":"Richelle Zorgt","Organisatie":"Richelle Zorgt","Soort zorg":"Verzorgingshuizen","Huisnummer":"3","Postcode":"4744PB","Plaats":"Bosschenhoofd"},"geometry":{"type":"Point","coordinates":[4.54273,51.56541]}},{"type":"Feature","properties":{"Naam":"Zorginstelling Armin B.V.","Organisatie":"Zorginstelling Armin B.V.","Soort zorg":"Verzorgingshuizen","Huisnummer":"174","Postcode":"7523BT","Plaats":"Enschede"},"geometry":{"type":"Point","coordinates":[6.89558,52.23139]}},{"type":"Feature","properties":{"Naam":"Shetera Somers Ontzorgt","Organisatie":"Shetera Somers Ontzorgt","Soort zorg":"Verzorgingshuizen","Huisnummer":"367","Postcode":"5553BJ","Plaats":"Valkenswaard"},"geometry":{"type":"Point","coordinates":[5.47783,51.35586]}},{"type":"Feature","properties":{"Naam":"Herbergier Grathem","Organisatie":"Herbergier Grathem","Soort zorg":"Verzorgingshuizen","Huisnummer":"54","Postcode":"6096AC","Plaats":"Grathem"},"geometry":{"type":"Point","coordinates":[5.85704,51.19155]}},{"type":"Feature","properties":{"Naam":"FlexZorg Twente","Organisatie":"FlexZorg Twente","Soort zorg":"Verpleeghuizen, Verzorgingshuizen","Huisnummer":"185","Postcode":"7462RN","Plaats":"Rijssen"},"geometry":{"type":"Point","coordinates":[6.49945,52.29732]}},{"type":"Feature","properties":{"Naam":"Pazzorg.nl","Organisatie":"Pazzorg.nl","Soort zorg":"Verpleeghuizen, Verzorgingshuizen","Huisnummer":"21","Postcode":"4625AR","Plaats":"Bergen op Zoom"},"geometry":{"type":"Point","coordinates":[4.30912,51.47513]}},{"type":"Feature","properties":{"Naam":"Thuiszorg Bureau Nederland Amsterdam B.V.","Organisatie":"Thuiszorg Bureau Nederland Amsterdam B.V.","Soort zorg":"Verzorgingshuizen","Huisnummer":"27","Postcode":"2031CN","Plaats":"Haarlem"},"geometry":{"type":"Point","coordinates":[4.65818,52.38921]}},{"type":"Feature","properties":{"Naam":"Ik Zorg Lieneke","Organisatie":"Ik Zorg Lieneke","Soort zorg":"Verzorgingshuizen","Huisnummer":"11","Postcode":"5131HL","Plaats":"Alphen"},"geometry":{"type":"Point","coordinates":[4.96323,51.48445]}},{"type":"Feature","properties":{"Naam":"EF Care","Organisatie":"EF Care","Soort zorg":"Verpleeghuizen","Huisnummer":"10","Postcode":"8141PX","Plaats":"Heino"},"geometry":{"type":"Point","coordinates":[6.28649,52.44033]}},{"type":"Feature","properties":{"Naam":"Suzie's care","Organisatie":"Suzie's care","Soort zorg":"Verpleeghuizen, Verzorgingshuizen","Huisnummer":"59","Postcode":"4651DB","Plaats":"Steenbergen"},"geometry":{"type":"Point","coordinates":[4.32005,51.58443]}},{"type":"Feature","properties":{"Naam":"Multizorg Emily","Organisatie":"Multizorg Emily","Soort zorg":"Verpleeghuizen, Verzorgingshuizen","Huisnummer":"123","Postcode":"5428NL","Plaats":"Venhorst"},"geometry":{"type":"Point","coordinates":[5.74733,51.60949]}},{"type":"Feature","properties":{"Naam":"DNursing","Organisatie":"DNursing","Soort zorg":"Verpleeghuizen, Verzorgingshuizen","Huisnummer":"3","Postcode":"4537AA","Plaats":"Terneuzen"},"geometry":{"type":"Point","coordinates":[3.82929,51.33422]}},{"type":"Feature","properties":{"Naam":"Riaya","Organisatie":"Riaya","Soort zorg":"Verzorgingshuizen","Huisnummer":"3196","Postcode":"6537AJ","Plaats":"Nijmegen"},"geometry":{"type":"Point","coordinates":[5.80455,51.8043]}},{"type":"Feature","properties":{"Naam":"Adem Zorgbegeleiding","Organisatie":"Adem Zorgbegeleiding","Soort zorg":"Verzorgingshuizen","Huisnummer":"17a","Postcode":"3021SV","Plaats":"Rotterdam"},"geometry":{"type":"Point","coordinates":[4.45842,51.91871]}},{"type":"Feature","properties":{"Naam":"Tiffanyzorg4all","Organisatie":"Tiffanyzorg4all","Soort zorg":"Verzorgingshuizen","Huisnummer":"103","Postcode":"3136EK","Plaats":"Vlaardingen"},"geometry":{"type":"Point","coordinates":[4.35184,51.92685]}},{"type":"Feature","properties":{"Naam":"Medische Kliniek Velsen","Organisatie":"Stichting Medische Kliniek Velsen","Soort zorg":"Verpleeghuizen","Huisnummer":"1b0001","Postcode":"1951NA","Plaats":"Velsen-Noord"},"geometry":{"type":"Point","coordinates":[4.6568,52.47391]}},{"type":"Feature","properties":{"Naam":"D. Brouwer Medische Dienstverlening","Organisatie":"D. Brouwer Medische Dienstverlening","Soort zorg":"Verpleeghuizen","Huisnummer":"31","Postcode":"1273TD","Plaats":"Huizen"},"geometry":{"type":"Point","coordinates":[5.25212,52.30316]}},{"type":"Feature","properties":{"Naam":"Mina Care","Organisatie":"Mina Care","Soort zorg":"Verpleeghuizen","Huisnummer":"156","Postcode":"3901PV","Plaats":"Veenendaal"},"geometry":{"type":"Point","coordinates":[5.56217,52.02361]}},{"type":"Feature","properties":{"Naam":"Purecare","Organisatie":"Purecare","Soort zorg":"Verpleeghuizen","Huisnummer":"39","Postcode":"4703VB","Plaats":"Roosendaal"},"geometry":{"type":"Point","coordinates":[4.43704,51.5337]}},{"type":"Feature","properties":{"Naam":"Z.A. Zorg","Organisatie":"Z.A. Zorg","Soort zorg":"Verzorgingshuizen","Huisnummer":"65","Postcode":"7381CG","Plaats":"Klarenbeek"},"geometry":{"type":"Point","coordinates":[6.06098,52.16587]}},{"type":"Feature","properties":{"Naam":"Zsolnai Zorg","Organisatie":"Zsolnai Zorg","Soort zorg":"Verzorgingshuizen","Huisnummer":"210","Postcode":"5688HT","Plaats":"Oirschot"},"geometry":{"type":"Point","coordinates":[5.30331,51.50316]}},{"type":"Feature","properties":{"Naam":"MarjaZorgt","Organisatie":"MarjaZorgt","Soort zorg":"Verzorgingshuizen","Huisnummer":"15","Postcode":"6703ED","Plaats":"Wageningen"},"geometry":{"type":"Point","coordinates":[5.69281,51.9694]}},{"type":"Feature","properties":{"Naam":"S.T. Zorgverlening","Organisatie":"S.T. Zorgverlening","Soort zorg":"Verpleeghuizen, Verzorgingshuizen","Huisnummer":"59","Postcode":"3563AG","Plaats":"Utrecht"},"geometry":{"type":"Point","coordinates":[5.10766,52.11676]}},{"type":"Feature","properties":{"Naam":"Zeker in Zorg","Organisatie":"Zeker in Zorg","Soort zorg":"Verpleeghuizen","Huisnummer":"121","Postcode":"8224DS","Plaats":"Lelystad"},"geometry":{"type":"Point","coordinates":[5.48989,52.51638]}},{"type":"Feature","properties":{"Naam":"Emmy Care","Organisatie":"Emmy Care","Soort zorg":"Verpleeghuizen, Verzorgingshuizen","Huisnummer":"37","Postcode":"4871ZP","Plaats":"Etten-Leur"},"geometry":{"type":"Point","coordinates":[4.64593,51.57832]}},{"type":"Feature","properties":{"Naam":"'R zorgt voor u thuiszorg","Organisatie":"'R zorgt voor u thuiszorg","Soort zorg":"Verzorgingshuizen","Huisnummer":"91b","Postcode":"3074BD","Plaats":"Rotterdam"},"geometry":{"type":"Point","coordinates":[4.50876,51.89001]}},{"type":"Feature","properties":{"Naam":"All around day & night care","Organisatie":"All around day & night care","Soort zorg":"Verpleeghuizen, Verzorgingshuizen","Huisnummer":"18","Postcode":"5071GK","Plaats":"Udenhout"},"geometry":{"type":"Point","coordinates":[5.13358,51.60735]}},{"type":"Feature","properties":{"Naam":"Loubs Goedezorg","Organisatie":"Loubs Goedezorg","Soort zorg":"Verzorgingshuizen","Huisnummer":"16","Postcode":"3544CG","Plaats":"Utrecht"},"geometry":{"type":"Point","coordinates":[5.05869,52.08854]}},{"type":"Feature","properties":{"Naam":"Herbergier Scherpenzeel","Organisatie":"Herbergier Scherpenzeel","Soort zorg":"Verzorgingshuizen","Huisnummer":"282","Postcode":"3925CA","Plaats":"Scherpenzeel"},"geometry":{"type":"Point","coordinates":[5.48179,52.0786]}},{"type":"Feature","properties":{"Naam":"Youssra's Zorg","Organisatie":"Youssra's Zorg","Soort zorg":"Verzorgingshuizen","Huisnummer":"19","Postcode":"4105CK","Plaats":"Culemborg"},"geometry":{"type":"Point","coordinates":[5.22252,51.94839]}},{"type":"Feature","properties":{"Naam":"Andrea Oberhollenzer","Organisatie":"Andrea Oberhollenzer","Soort zorg":"Verzorgingshuizen","Huisnummer":"12","Postcode":"4333EL","Plaats":"Middelburg"},"geometry":{"type":"Point","coordinates":[3.61197,51.50864]}},{"type":"Feature","properties":{"Naam":"Dahlia Zorg","Organisatie":"Dahlia Zorg","Soort zorg":"Verpleeghuizen, Verzorgingshuizen","Huisnummer":"122","Postcode":"1705GH","Plaats":"Heerhugowaard"},"geometry":{"type":"Point","coordinates":[4.83376,52.6473]}},{"type":"Feature","properties":{"Naam":"De S.e.T. Residentie B.V.","Organisatie":"De S.e.T. Residentie B.V.","Soort zorg":"Verzorgingshuizen","Huisnummer":"40","Postcode":"3641ND","Plaats":"Mijdrecht"},"geometry":{"type":"Point","coordinates":[4.86073,52.21173]}},{"type":"Feature","properties":{"Naam":"Elfriede Zorg","Organisatie":"Elfriede Zorg","Soort zorg":"Verzorgingshuizen","Huisnummer":"2","Postcode":"1705ME","Plaats":"Heerhugowaard"},"geometry":{"type":"Point","coordinates":[4.81542,52.64972]}},{"type":"Feature","properties":{"Naam":"Shekinah's care","Organisatie":"Shekinah's care","Soort zorg":"Verzorgingshuizen","Huisnummer":"44d","Postcode":"6414BC","Plaats":"Heerlen"},"geometry":{"type":"Point","coordinates":[5.96906,50.91479]}},{"type":"Feature","properties":{"Naam":"Liyam allround zorg","Organisatie":"Liyam allround zorg","Soort zorg":"Verzorgingshuizen","Huisnummer":"104","Postcode":"4735AE","Plaats":"Zegge"},"geometry":{"type":"Point","coordinates":[4.51676,51.5555]}},{"type":"Feature","properties":{"Naam":"RC.Ware","Organisatie":"RC.Ware","Soort zorg":"Verzorgingshuizen","Huisnummer":"108","Postcode":"1501XP","Plaats":"Zaandam"},"geometry":{"type":"Point","coordinates":[4.8367,52.43691]}},{"type":"Feature","properties":{"Naam":"Jowen Blijer","Organisatie":"Jowen Blijer","Soort zorg":"Verpleeghuizen, Verzorgingshuizen","Huisnummer":"9","Postcode":"4105CL","Plaats":"Culemborg"},"geometry":{"type":"Point","coordinates":[5.22139,51.94766]}},{"type":"Feature","properties":{"Naam":"Jameelaa's Zorg","Organisatie":"Jameelaa's Zorg","Soort zorg":"Verzorgingshuizen","Huisnummer":"93c","Postcode":"3026XR","Plaats":"Rotterdam"},"geometry":{"type":"Point","coordinates":[4.43979,51.91427]}},{"type":"Feature","properties":{"Naam":"Auxilium Zorg","Organisatie":"Auxilium Zorg","Soort zorg":"Verpleeghuizen","Huisnummer":"8","Postcode":"6662CL","Plaats":"Elst"},"geometry":{"type":"Point","coordinates":[5.8692,51.925]}},{"type":"Feature","properties":{"Naam":"BelforZorg","Organisatie":"BelforZorg","Soort zorg":"Verpleeghuizen, Verzorgingshuizen","Huisnummer":"8","Postcode":"6932LE","Plaats":"Westervoort"},"geometry":{"type":"Point","coordinates":[5.97847,51.9472]}},{"type":"Feature","properties":{"Naam":"Bo-zorg","Organisatie":"Bo-zorg","Soort zorg":"Verzorgingshuizen","Huisnummer":"8","Postcode":"4707HJ","Plaats":"Roosendaal"},"geometry":{"type":"Point","coordinates":[4.45705,51.523]}},{"type":"Feature","properties":{"Naam":"Kirsten Zorgt","Organisatie":"Kirsten Zorgt","Soort zorg":"Verpleeghuizen","Huisnummer":"29a33","Postcode":"1507EA","Plaats":"Zaandam"},"geometry":{"type":"Point","coordinates":[4.81216,52.43871]}},{"type":"Feature","properties":{"Naam":"Nice Lief zorg","Organisatie":"Nice Lief zorg","Soort zorg":"Verpleeghuizen","Huisnummer":"7","Postcode":"2564KE","Plaats":"'s-Gravenhage"},"geometry":{"type":"Point","coordinates":[4.27143,52.07166]}},{"type":"Feature","properties":{"Naam":"Loes Zorgt","Organisatie":"Loes Zorgt","Soort zorg":"Verpleeghuizen","Huisnummer":"31a","Postcode":"5243WC","Plaats":"Rosmalen"},"geometry":{"type":"Point","coordinates":[5.37039,51.72121]}},{"type":"Feature","properties":{"Naam":"Dos Santos","Organisatie":"Dos Santos","Soort zorg":"Verpleeghuizen, Verzorgingshuizen","Huisnummer":"25","Postcode":"6991VH","Plaats":"Rheden"},"geometry":{"type":"Point","coordinates":[6.02867,52.00435]}},{"type":"Feature","properties":{"Naam":"Ozgen Care","Organisatie":"Ozgen Care","Soort zorg":"Verzorgingshuizen","Huisnummer":"25","Postcode":"1064BT","Plaats":"Amsterdam"},"geometry":{"type":"Point","coordinates":[4.83175,52.37583]}},{"type":"Feature","properties":{"Naam":"Care for you Veenendaal","Organisatie":"Care for you Veenendaal","Soort zorg":"Verzorgingshuizen","Huisnummer":"3","Postcode":"3902ZG","Plaats":"Veenendaal"},"geometry":{"type":"Point","coordinates":[5.56488,52.02435]}},{"type":"Feature","properties":{"Naam":"L. Tuitert Zorg","Organisatie":"L. Tuitert Zorg","Soort zorg":"Verpleeghuizen","Huisnummer":"31","Postcode":"5971DE","Plaats":"Grubbenvorst"},"geometry":{"type":"Point","coordinates":[6.14079,51.41833]}},{"type":"Feature","properties":{"Naam":"PVZ-Sam","Organisatie":"PVZ-Sam","Soort zorg":"Verzorgingshuizen","Huisnummer":"97","Postcode":"6043RT","Plaats":"Roermond"},"geometry":{"type":"Point","coordinates":[6.02144,51.18604]}},{"type":"Feature","properties":{"Naam":"Boazcare","Organisatie":"Boazcare","Soort zorg":"Verzorgingshuizen","Huisnummer":"16e","Postcode":"1261JB","Plaats":"Blaricum"},"geometry":{"type":"Point","coordinates":[5.24991,52.27104]}},{"type":"Feature","properties":{"Naam":"Merijn Zorgt","Organisatie":"Merijn Zorgt","Soort zorg":"Verpleeghuizen","Huisnummer":"179","Postcode":"5665CH","Plaats":"Geldrop"},"geometry":{"type":"Point","coordinates":[5.56736,51.4153]}},{"type":"Feature","properties":{"Naam":"Senior Care Arnhem","Organisatie":"Senior Care Arnhem","Soort zorg":"Verpleeghuizen, Verzorgingshuizen","Huisnummer":"47","Postcode":"6843CT","Plaats":"Arnhem"},"geometry":{"type":"Point","coordinates":[5.85667,51.96372]}},{"type":"Feature","properties":{"Naam":"JO Zorgondersteuner","Organisatie":"JO Zorgondersteuner","Soort zorg":"Verpleeghuizen, Verzorgingshuizen","Huisnummer":"69","Postcode":"3014LP","Plaats":"Rotterdam"},"geometry":{"type":"Point","coordinates":[4.4644,51.92191]}},{"type":"Feature","properties":{"Naam":"LesS Is More","Organisatie":"LesS Is More","Soort zorg":"Verzorgingshuizen","Huisnummer":"428","Postcode":"6822GV","Plaats":"Arnhem"},"geometry":{"type":"Point","coordinates":[5.92158,51.98841]}},{"type":"Feature","properties":{"Naam":"Medical Care Saskia","Organisatie":"Medical Care Saskia","Soort zorg":"Verpleeghuizen, Verzorgingshuizen","Huisnummer":"20","Postcode":"5035DM","Plaats":"Tilburg"},"geometry":{"type":"Point","coordinates":[4.98014,51.5903]}},{"type":"Feature","properties":{"Naam":"Woonzorgvoorziening De Gouden Leeuw Zutphen","Organisatie":"Woonzorgvoorziening De Gouden Leeuw Zutphen","Soort zorg":"Verzorgingshuizen","Huisnummer":"37","Postcode":"7064AA","Plaats":"Silvolde"},"geometry":{"type":"Point","coordinates":[6.37817,51.91435]}},{"type":"Feature","properties":{"Naam":"Vanity Lucassen","Organisatie":"Vanity Lucassen","Soort zorg":"Verpleeghuizen, Verzorgingshuizen","Huisnummer":"17","Postcode":"4871VM","Plaats":"Etten-Leur"},"geometry":{"type":"Point","coordinates":[4.65415,51.58322]}},{"type":"Feature","properties":{"Naam":"Avena Zorg","Organisatie":"Avena Zorg","Soort zorg":"Verpleeghuizen, Verzorgingshuizen","Huisnummer":"9","Postcode":"6832HA","Plaats":"Arnhem"},"geometry":{"type":"Point","coordinates":[5.90537,51.96017]}},{"type":"Feature","properties":{"Naam":"Lisa zorgt extra","Organisatie":"Lisa zorgt extra","Soort zorg":"Verpleeghuizen, Verzorgingshuizen","Huisnummer":"31","Postcode":"5664VA","Plaats":"Geldrop"},"geometry":{"type":"Point","coordinates":[5.56118,51.41579]}},{"type":"Feature","properties":{"Naam":"CharCare","Organisatie":"CharCare","Soort zorg":"Verzorgingshuizen","Huisnummer":"4e","Postcode":"1091LE","Plaats":"Amsterdam"},"geometry":{"type":"Point","coordinates":[4.91887,52.35358]}},{"type":"Feature","properties":{"Naam":"Honingraatzorg B.V.","Organisatie":"Honingraatzorg B.V.","Soort zorg":"Verpleeghuizen","Huisnummer":"139","Postcode":"1749AB","Plaats":"Warmenhuizen"},"geometry":{"type":"Point","coordinates":[4.73918,52.72298]}},{"type":"Feature","properties":{"Naam":"Josiens hart voor zorg","Organisatie":"Josiens hart voor zorg","Soort zorg":"Verpleeghuizen","Huisnummer":"87","Postcode":"6225EB","Plaats":"Maastricht"},"geometry":{"type":"Point","coordinates":[5.73246,50.86597]}},{"type":"Feature","properties":{"Naam":"Stichting Hospice Hoeksche Waard Zorg","Organisatie":"Stichting Hospice Hoeksche Waard Zorg","Soort zorg":"Verpleeghuizen","Huisnummer":"1","Postcode":"3284CA","Plaats":"Zuid-Beijerland"},"geometry":{"type":"Point","coordinates":[4.36829,51.75007]}},{"type":"Feature","properties":{"Naam":"ysset","Organisatie":"ysset","Soort zorg":"Verpleeghuizen, Verzorgingshuizen","Huisnummer":"1","Postcode":"6662AZ","Plaats":"Elst"},"geometry":{"type":"Point","coordinates":[5.85254,51.91519]}},{"type":"Feature","properties":{"Naam":"jumiro7care","Organisatie":"jumiro7care","Soort zorg":"Verzorgingshuizen","Huisnummer":"6","Postcode":"1106PK","Plaats":"Amsterdam"},"geometry":{"type":"Point","coordinates":[4.96014,52.30257]}},{"type":"Feature","properties":{"Naam":"Natasha Zorg","Organisatie":"Natasha Zorg","Soort zorg":"Verpleeghuizen","Huisnummer":"612","Postcode":"1093KP","Plaats":"Amsterdam"},"geometry":{"type":"Point","coordinates":[4.93442,52.3582]}},{"type":"Feature","properties":{"Naam":"Narin Zorgt","Organisatie":"Narin Zorgt","Soort zorg":"Verpleeghuizen, Verzorgingshuizen","Huisnummer":"22","Postcode":"4006EC","Plaats":"Tiel"},"geometry":{"type":"Point","coordinates":[5.4173,51.88165]}},{"type":"Feature","properties":{"Naam":"Huize Mientje B.V.","Organisatie":"Huize Mientje B.V.","Soort zorg":"Verzorgingshuizen","Huisnummer":"21","Postcode":"6545AK","Plaats":"Nijmegen"},"geometry":{"type":"Point","coordinates":[5.80061,51.84282]}},{"type":"Feature","properties":{"Naam":"Thuis bij Ons","Organisatie":"Thuis bij Ons","Soort zorg":"Verpleeghuizen","Huisnummer":"2","Postcode":"2132WS","Plaats":"Hoofddorp"},"geometry":{"type":"Point","coordinates":[4.68992,52.29103]}},{"type":"Feature","properties":{"Naam":"Essyzorgt","Organisatie":"Essyzorgt","Soort zorg":"Verpleeghuizen, Verzorgingshuizen","Huisnummer":"5","Postcode":"4904LE","Plaats":"Oosterhout"},"geometry":{"type":"Point","coordinates":[4.85708,51.62673]}},{"type":"Feature","properties":{"Naam":"Asiya's Care","Organisatie":"Asiya's Care","Soort zorg":"Verpleeghuizen, Verzorgingshuizen","Huisnummer":"13","Postcode":"1356JA","Plaats":"Almere"},"geometry":{"type":"Point","coordinates":[5.23986,52.34115]}},{"type":"Feature","properties":{"Naam":"Regine van den Kieboom","Organisatie":"Regine van den Kieboom","Soort zorg":"Verpleeghuizen","Huisnummer":"37","Postcode":"4611LB","Plaats":"Bergen op Zoom"},"geometry":{"type":"Point","coordinates":[4.28765,51.48924]}},{"type":"Feature","properties":{"Naam":"Eminent Wonen & Zorg Ruurlo B.V.","Organisatie":"Eminent Wonen & Zorg Ruurlo B.V.","Soort zorg":"Verzorgingshuizen","Huisnummer":"12","Postcode":"7261AN","Plaats":"Ruurlo"},"geometry":{"type":"Point","coordinates":[6.45343,52.08346]}},{"type":"Feature","properties":{"Naam":"Acyclo B.V.","Organisatie":"Acyclo B.V.","Soort zorg":"Verpleeghuizen","Huisnummer":"2","Postcode":"3903LA","Plaats":"Veenendaal"},"geometry":{"type":"Point","coordinates":[5.56191,52.01551]}},{"type":"Feature","properties":{"Naam":"Ikram Cares","Organisatie":"Ikram Cares","Soort zorg":"Verpleeghuizen, Verzorgingshuizen","Huisnummer":"16","Postcode":"6832BZ","Plaats":"Arnhem"},"geometry":{"type":"Point","coordinates":[5.90325,51.96523]}},{"type":"Feature","properties":{"Naam":"Siem Cares","Organisatie":"Siem Cares","Soort zorg":"Verpleeghuizen","Huisnummer":"17","Postcode":"4051EP","Plaats":"Ochten"},"geometry":{"type":"Point","coordinates":[5.5705,51.91174]}},{"type":"Feature","properties":{"Naam":"Marloes van Boven","Organisatie":"Marloes van Boven","Soort zorg":"Verzorgingshuizen","Huisnummer":"101","Postcode":"4382SG","Plaats":"Vlissingen"},"geometry":{"type":"Point","coordinates":[3.57268,51.45383]}},{"type":"Feature","properties":{"Naam":"JA.grace-care","Organisatie":"JA.grace-care","Soort zorg":"Verpleeghuizen, Verzorgingshuizen","Huisnummer":"1","Postcode":"8064CP","Plaats":"Zwartsluis"},"geometry":{"type":"Point","coordinates":[6.07173,52.64347]}},{"type":"Feature","properties":{"Naam":"Talitha Zorg Walcheren","Organisatie":"Talitha Zorg Walcheren","Soort zorg":"Verpleeghuizen, Verzorgingshuizen","Huisnummer":"26","Postcode":"4341MB","Plaats":"Arnemuiden"},"geometry":{"type":"Point","coordinates":[3.67209,51.50382]}},{"type":"Feature","properties":{"Naam":"INES ZORG","Organisatie":"INES ZORG","Soort zorg":"Verpleeghuizen, Verzorgingshuizen","Huisnummer":"590","Postcode":"3905DR","Plaats":"Veenendaal"},"geometry":{"type":"Point","coordinates":[5.54514,52.02912]}},{"type":"Feature","properties":{"Naam":"De allroundverpleegkundige","Organisatie":"De allroundverpleegkundige","Soort zorg":"Verpleeghuizen, Verzorgingshuizen","Huisnummer":"34","Postcode":"6833EG","Plaats":"Arnhem"},"geometry":{"type":"Point","coordinates":[5.91531,51.9666]}},{"type":"Feature","properties":{"Naam":"Jenny Holistische Zorg","Organisatie":"Jenny Holistische Zorg","Soort zorg":"Verzorgingshuizen","Huisnummer":"31","Postcode":"8014GA","Plaats":"Zwolle"},"geometry":{"type":"Point","coordinates":[6.11803,52.48955]}},{"type":"Feature","properties":{"Naam":"Balans Zorg Gelderland","Organisatie":"Balans Zorg Gelderland","Soort zorg":"Verzorgingshuizen","Huisnummer":"2804","Postcode":"6538HG","Plaats":"Nijmegen"},"geometry":{"type":"Point","coordinates":[5.80982,51.81413]}},{"type":"Feature","properties":{"Naam":"Broederlijk Care","Organisatie":"Broederlijk Care","Soort zorg":"Verpleeghuizen, Verzorgingshuizen","Huisnummer":"47","Postcode":"2959BC","Plaats":"Streefkerk"},"geometry":{"type":"Point","coordinates":[4.74051,51.89904]}},{"type":"Feature","properties":{"Naam":"Zorgpension De Koning-Inn B.V.","Organisatie":"Zorgpension De Koning-Inn B.V.","Soort zorg":"Verzorgingshuizen","Huisnummer":"2a","Postcode":"5091JV","Plaats":"Oost West en Middelbeers"},"geometry":{"type":"Point","coordinates":[5.27758,51.48011]}},{"type":"Feature","properties":{"Naam":"Narges","Organisatie":"Narges","Soort zorg":"Verpleeghuizen, Verzorgingshuizen","Huisnummer":"4","Postcode":"7002EC","Plaats":"Doetinchem"},"geometry":{"type":"Point","coordinates":[6.31638,51.97502]}},{"type":"Feature","properties":{"Naam":"The Nursing Zorg","Organisatie":"The Nursing Zorg","Soort zorg":"Verzorgingshuizen","Huisnummer":"52","Postcode":"1431DD","Plaats":"Aalsmeer"},"geometry":{"type":"Point","coordinates":[4.75458,52.27025]}},{"type":"Feature","properties":{"Naam":"Vinkenzorg","Organisatie":"Vinkenzorg","Soort zorg":"Verpleeghuizen","Huisnummer":"19","Postcode":"3645SC","Plaats":"Vinkeveen"},"geometry":{"type":"Point","coordinates":[4.92127,52.20661]}},{"type":"Feature","properties":{"Naam":"Infinitascare B.V.","Organisatie":"Infinitascare B.V.","Soort zorg":"Verpleeghuizen","Huisnummer":"539","Postcode":"3125BD","Plaats":"Schiedam"},"geometry":{"type":"Point","coordinates":[4.39982,51.9293]}},{"type":"Feature","properties":{"Naam":"Salwa Zorg","Organisatie":"Salwa Zorg","Soort zorg":"Verzorgingshuizen","Huisnummer":"69","Postcode":"2034PH","Plaats":"Haarlem"},"geometry":{"type":"Point","coordinates":[4.64397,52.36531]}},{"type":"Feature","properties":{"Naam":"UniqueZorg Veronique","Organisatie":"UniqueZorg Veronique","Soort zorg":"Verpleeghuizen, Verzorgingshuizen","Huisnummer":"175","Postcode":"4708EH","Plaats":"Roosendaal"},"geometry":{"type":"Point","coordinates":[4.44169,51.51526]}},{"type":"Feature","properties":{"Naam":"Manuela cares for you","Organisatie":"Manuela cares for you","Soort zorg":"Verzorgingshuizen","Huisnummer":"142","Postcode":"1104PS","Plaats":"Amsterdam"},"geometry":{"type":"Point","coordinates":[4.97174,52.31657]}},{"type":"Feature","properties":{"Naam":"Day en night care","Organisatie":"Day en night care","Soort zorg":"Verpleeghuizen, Verzorgingshuizen","Huisnummer":"352","Postcode":"7544GK","Plaats":"Enschede"},"geometry":{"type":"Point","coordinates":[6.88074,52.19784]}},{"type":"Feature","properties":{"Naam":"Gezinshuis Grow Up","Organisatie":"Gezinshuis Grow Up","Soort zorg":"Verpleeghuizen, Verzorgingshuizen","Huisnummer":"133","Postcode":"5305CD","Plaats":"Zuilichem"},"geometry":{"type":"Point","coordinates":[5.11891,51.81077]}},{"type":"Feature","properties":{"Naam":"Verzorgende IG Esther","Organisatie":"Verzorgende IG Esther","Soort zorg":"Verpleeghuizen, Verzorgingshuizen","Huisnummer":"94","Postcode":"7544XD","Plaats":"Enschede"},"geometry":{"type":"Point","coordinates":[6.88371,52.1957]}},{"type":"Feature","properties":{"Naam":"Escare Zorg","Organisatie":"Escare Zorg","Soort zorg":"Verzorgingshuizen","Huisnummer":"20","Postcode":"7609NH","Plaats":"Almelo"},"geometry":{"type":"Point","coordinates":[6.64522,52.33713]}},{"type":"Feature","properties":{"Naam":"Christiana Care","Organisatie":"Christiana Care","Soort zorg":"Verpleeghuizen, Verzorgingshuizen","Huisnummer":"38","Postcode":"1092VG","Plaats":"Amsterdam"},"geometry":{"type":"Point","coordinates":[4.92323,52.35642]}},{"type":"Feature","properties":{"Naam":"TuanaZorg","Organisatie":"TuanaZorg","Soort zorg":"Verzorgingshuizen","Huisnummer":"125","Postcode":"7331NX","Plaats":"Apeldoorn"},"geometry":{"type":"Point","coordinates":[5.9771,52.19555]}},{"type":"Feature","properties":{"Naam":"Afsa","Organisatie":"Afsa","Soort zorg":"Verzorgingshuizen","Huisnummer":"21","Postcode":"3067AZ","Plaats":"Rotterdam"},"geometry":{"type":"Point","coordinates":[4.54716,51.94205]}},{"type":"Feature","properties":{"Naam":"AVIVA Zorg","Organisatie":"AVIVA Zorg","Soort zorg":"Verpleeghuizen","Huisnummer":"25","Postcode":"2524LV","Plaats":"'s-Gravenhage"},"geometry":{"type":"Point","coordinates":[4.31484,52.0532]}},{"type":"Feature","properties":{"Naam":"PAVO Zorghuizen B.V.","Organisatie":"PAVO Zorghuizen B.V.","Soort zorg":"Verzorgingshuizen","Huisnummer":"10","Postcode":"5865AA","Plaats":"Tienray"},"geometry":{"type":"Point","coordinates":[6.09287,51.49672]}},{"type":"Feature","properties":{"Naam":"Vayni's zorg","Organisatie":"Vayni's zorg","Soort zorg":"Verzorgingshuizen","Huisnummer":"123","Postcode":"2544TT","Plaats":"'s-Gravenhage"},"geometry":{"type":"Point","coordinates":[4.25523,52.04418]}},{"type":"Feature","properties":{"Naam":"Elenad","Organisatie":"Elenad","Soort zorg":"Verpleeghuizen, Verzorgingshuizen","Huisnummer":"24","Postcode":"4533ET","Plaats":"Terneuzen"},"geometry":{"type":"Point","coordinates":[3.86567,51.32738]}},{"type":"Feature","properties":{"Naam":"Priscilla Zorgt met Hart","Organisatie":"Priscilla Zorgt met Hart","Soort zorg":"Verpleeghuizen","Huisnummer":"11","Postcode":"5612BS","Plaats":"Eindhoven"},"geometry":{"type":"Point","coordinates":[5.47513,51.44982]}},{"type":"Feature","properties":{"Naam":"David Lopes Rodrigues Zorgverlening","Organisatie":"David Lopes Rodrigues Zorgverlening","Soort zorg":"Verzorgingshuizen","Huisnummer":"227","Postcode":"3027JE","Plaats":"Rotterdam"},"geometry":{"type":"Point","coordinates":[4.43598,51.9179]}},{"type":"Feature","properties":{"Naam":"Faats goede zorg","Organisatie":"Faats goede zorg","Soort zorg":"Verpleeghuizen, Verzorgingshuizen","Huisnummer":"21","Postcode":"3161ND","Plaats":"Rhoon"},"geometry":{"type":"Point","coordinates":[4.41457,51.86105]}},{"type":"Feature","properties":{"Naam":"Kootje Zorg","Organisatie":"Kootje Zorg","Soort zorg":"Verpleeghuizen, Verzorgingshuizen","Huisnummer":"11","Postcode":"3544CL","Plaats":"Utrecht"},"geometry":{"type":"Point","coordinates":[5.05647,52.08911]}},{"type":"Feature","properties":{"Naam":"VOF de Haer Hoogendoorn","Organisatie":"VOF de Haer Hoogendoorn","Soort zorg":"Verzorgingshuizen","Huisnummer":"25","Postcode":"8181ET","Plaats":"Heerde"},"geometry":{"type":"Point","coordinates":[6.03558,52.38271]}},{"type":"Feature","properties":{"Naam":"Roeljoy zorg","Organisatie":"Roeljoy zorg","Soort zorg":"Verpleeghuizen","Huisnummer":"14","Postcode":"1060SM","Plaats":"Amsterdam"},"geometry":{"type":"Point","coordinates":[4.78849,52.34699]}},{"type":"Feature","properties":{"Naam":"Zorgverlener Althie Swanborn","Organisatie":"Zorgverlener Althie Swanborn","Soort zorg":"Verpleeghuizen","Huisnummer":"12","Postcode":"4581PW","Plaats":"Vogelwaarde"},"geometry":{"type":"Point","coordinates":[3.96147,51.3369]}},{"type":"Feature","properties":{"Naam":"Woonzorg Palsma Zathe B.V.","Organisatie":"Woonzorg Palsma Zathe B.V.","Soort zorg":"Verzorgingshuizen","Huisnummer":"1a","Postcode":"8912CE","Plaats":"Leeuwarden"},"geometry":{"type":"Point","coordinates":[5.7856,53.17043]}},{"type":"Feature","properties":{"Naam":"Jill's Zorgverlening","Organisatie":"Jill's Zorgverlening","Soort zorg":"Verpleeghuizen, Verzorgingshuizen","Huisnummer":"52","Postcode":"7546CB","Plaats":"Enschede"},"geometry":{"type":"Point","coordinates":[6.85613,52.18902]}},{"type":"Feature","properties":{"Naam":"Aldenborgh Exploitatie B.V.","Organisatie":"Aldenborgh Exploitatie B.V.","Soort zorg":"Verzorgingshuizen","Huisnummer":"1a","Postcode":"6041GC","Plaats":"Roermond"},"geometry":{"type":"Point","coordinates":[5.9891,51.19525]}},{"type":"Feature","properties":{"Naam":"Mandy Kloosterboer Verzorging & Verpleging","Organisatie":"Mandy Kloosterboer Verzorging & Verpleging","Soort zorg":"Verpleeghuizen","Huisnummer":"54a","Postcode":"7396BL","Plaats":"Terwolde"},"geometry":{"type":"Point","coordinates":[6.10617,52.27253]}},{"type":"Feature","properties":{"Naam":"Tanja Zorgt","Organisatie":"Tanja Zorgt","Soort zorg":"Verzorgingshuizen","Huisnummer":"21","Postcode":"5666AA","Plaats":"Geldrop"},"geometry":{"type":"Point","coordinates":[5.56687,51.42209]}},{"type":"Feature","properties":{"Naam":"nova21","Organisatie":"nova21","Soort zorg":"Verpleeghuizen, Verzorgingshuizen","Huisnummer":"280","Postcode":"2035VM","Plaats":"Haarlem"},"geometry":{"type":"Point","coordinates":[4.6622,52.36494]}},{"type":"Feature","properties":{"Naam":"Gul Zorg","Organisatie":"Gul Zorg","Soort zorg":"Verpleeghuizen, Verzorgingshuizen","Huisnummer":"53a","Postcode":"3818EA","Plaats":"Amersfoort"},"geometry":{"type":"Point","coordinates":[5.37924,52.15044]}},{"type":"Feature","properties":{"Naam":"SMV Zorg","Organisatie":"SMV Zorg","Soort zorg":"Verpleeghuizen","Huisnummer":"60","Postcode":"5625BD","Plaats":"Eindhoven"},"geometry":{"type":"Point","coordinates":[5.47177,51.46937]}},{"type":"Feature","properties":{"Naam":"ZorgBijBrittany","Organisatie":"ZorgBijBrittany","Soort zorg":"Verzorgingshuizen","Huisnummer":"63","Postcode":"7916RP","Plaats":"Elim"},"geometry":{"type":"Point","coordinates":[6.57697,52.68355]}},{"type":"Feature","properties":{"Naam":"Lucas Nursing","Organisatie":"Lucas Nursing","Soort zorg":"Verpleeghuizen","Huisnummer":"125","Postcode":"4872RP","Plaats":"Etten-Leur"},"geometry":{"type":"Point","coordinates":[4.65903,51.57816]}},{"type":"Feature","properties":{"Naam":"Corina Mind","Organisatie":"Corina Mind","Soort zorg":"Verpleeghuizen","Huisnummer":"56","Postcode":"4921VR","Plaats":"Made"},"geometry":{"type":"Point","coordinates":[4.78507,51.67032]}},{"type":"Feature","properties":{"Naam":"MeCe zorg","Organisatie":"MeCe zorg","Soort zorg":"Verzorgingshuizen","Huisnummer":"42","Postcode":"4142CL","Plaats":"Leerdam"},"geometry":{"type":"Point","coordinates":[5.08026,51.89063]}},{"type":"Feature","properties":{"Naam":"Alivera","Organisatie":"Alivera","Soort zorg":"Verpleeghuizen","Huisnummer":"4","Postcode":"5521VK","Plaats":"Eersel"},"geometry":{"type":"Point","coordinates":[5.31729,51.35402]}},{"type":"Feature","properties":{"Naam":"Sou Care","Organisatie":"Sou Care","Soort zorg":"Verpleeghuizen, Verzorgingshuizen","Huisnummer":"478","Postcode":"4822ZV","Plaats":"Breda"},"geometry":{"type":"Point","coordinates":[4.72635,51.60685]}},{"type":"Feature","properties":{"Naam":"Kim for care","Organisatie":"Kim for care","Soort zorg":"Verpleeghuizen, Verzorgingshuizen","Huisnummer":"83","Postcode":"7546GJ","Plaats":"Enschede"},"geometry":{"type":"Point","coordinates":[6.8465,52.19149]}},{"type":"Feature","properties":{"Naam":"mijnagapezorg","Organisatie":"mijnagapezorg","Soort zorg":"Verzorgingshuizen","Huisnummer":"66","Postcode":"4826KN","Plaats":"Breda"},"geometry":{"type":"Point","coordinates":[4.78591,51.6057]}},{"type":"Feature","properties":{"Naam":"Jorgen zorgt","Organisatie":"Jorgen zorgt","Soort zorg":"Verzorgingshuizen","Huisnummer":"240","Postcode":"5348SP","Plaats":"Oss"},"geometry":{"type":"Point","coordinates":[5.54081,51.7735]}},{"type":"Feature","properties":{"Naam":"Sander Zorgt","Organisatie":"Sander Zorgt","Soort zorg":"Verpleeghuizen","Huisnummer":"545","Postcode":"6831GM","Plaats":"Arnhem"},"geometry":{"type":"Point","coordinates":[5.89266,51.95962]}},{"type":"Feature","properties":{"Naam":"CBL Cosmetics","Organisatie":"CBL Cosmetics","Soort zorg":"Verpleeghuizen","Huisnummer":"13","Postcode":"5451BT","Plaats":"Mill"},"geometry":{"type":"Point","coordinates":[5.78417,51.688]}},{"type":"Feature","properties":{"Naam":"Soraya Derks","Organisatie":"Soraya Derks","Soort zorg":"Verzorgingshuizen","Huisnummer":"26","Postcode":"7331HH","Plaats":"Apeldoorn"},"geometry":{"type":"Point","coordinates":[5.96869,52.19843]}},{"type":"Feature","properties":{"Naam":"Scheltinga Zorgverlening","Organisatie":"Scheltinga Zorgverlening","Soort zorg":"Verpleeghuizen, Verzorgingshuizen","Huisnummer":"13","Postcode":"7545TE","Plaats":"Enschede"},"geometry":{"type":"Point","coordinates":[6.87377,52.21442]}},{"type":"Feature","properties":{"Naam":"Verpleegkundige MaHe ouderenzorg","Organisatie":"Verpleegkundige MaHe ouderenzorg","Soort zorg":"Verpleeghuizen","Huisnummer":"10a","Postcode":"6281NC","Plaats":"Mechelen"},"geometry":{"type":"Point","coordinates":[5.90784,50.78888]}},{"type":"Feature","properties":{"Naam":"J. en R. Staakman V.O.F.","Organisatie":"J. en R. Staakman V.O.F.","Soort zorg":"Verzorgingshuizen","Huisnummer":"12","Postcode":"2721BC","Plaats":"Zoetermeer"},"geometry":{"type":"Point","coordinates":[4.54364,52.06295]}},{"type":"Feature","properties":{"Naam":"Lara4Care","Organisatie":"Lara4Care","Soort zorg":"Verzorgingshuizen","Huisnummer":"13","Postcode":"8261AP","Plaats":"Kampen"},"geometry":{"type":"Point","coordinates":[5.91509,52.55916]}},{"type":"Feature","properties":{"Naam":"Havva Zorg","Organisatie":"Havva Zorg","Soort zorg":"Verpleeghuizen, Verzorgingshuizen","Huisnummer":"57","Postcode":"7332CJ","Plaats":"Apeldoorn"},"geometry":{"type":"Point","coordinates":[5.97938,52.20327]}},{"type":"Feature","properties":{"Naam":"Linda Rijkse","Organisatie":"Linda Rijkse","Soort zorg":"Verpleeghuizen, Verzorgingshuizen","Huisnummer":"407","Postcode":"4382ML","Plaats":"Vlissingen"},"geometry":{"type":"Point","coordinates":[3.58402,51.44995]}},{"type":"Feature","properties":{"Naam":"Care by Atici","Organisatie":"Care by Atici","Soort zorg":"Verzorgingshuizen","Huisnummer":"25a","Postcode":"4811DB","Plaats":"Breda"},"geometry":{"type":"Point","coordinates":[4.78724,51.59157]}},{"type":"Feature","properties":{"Naam":"Joyce Mes Zorg","Organisatie":"Joyce Mes Zorg","Soort zorg":"Verpleeghuizen","Huisnummer":"34","Postcode":"4337XW","Plaats":"Middelburg"},"geometry":{"type":"Point","coordinates":[3.63896,51.48648]}},{"type":"Feature","properties":{"Naam":"Felicitatum","Organisatie":"Felicitatum","Soort zorg":"Verzorgingshuizen","Huisnummer":"79","Postcode":"4817HA","Plaats":"Breda"},"geometry":{"type":"Point","coordinates":[4.80363,51.58631]}},{"type":"Feature","properties":{"Naam":"Huize Widaad B.V.","Organisatie":"Huize Widaad B.V.","Soort zorg":"Verzorgingshuizen","Huisnummer":"253","Postcode":"1411XR","Plaats":"Naarden"},"geometry":{"type":"Point","coordinates":[5.1415,52.3032]}},{"type":"Feature","properties":{"Naam":"Manar zorg","Organisatie":"Manar zorg","Soort zorg":"Verpleeghuizen","Huisnummer":"49","Postcode":"6717BN","Plaats":"Ede"},"geometry":{"type":"Point","coordinates":[5.65184,52.0292]}},{"type":"Feature","properties":{"Naam":"YEB4CARE","Organisatie":"YEB4CARE","Soort zorg":"Verzorgingshuizen","Huisnummer":"26","Postcode":"3445VP","Plaats":"Woerden"},"geometry":{"type":"Point","coordinates":[4.90455,52.08916]}},{"type":"Feature","properties":{"Naam":"ZorgenMetLiefde","Organisatie":"ZorgenMetLiefde","Soort zorg":"Verpleeghuizen","Huisnummer":"9","Postcode":"4817AD","Plaats":"Breda"},"geometry":{"type":"Point","coordinates":[4.81146,51.59618]}},{"type":"Feature","properties":{"Naam":"Joyful Hands","Organisatie":"Joyful Hands","Soort zorg":"Verpleeghuizen","Huisnummer":"23","Postcode":"4621EC","Plaats":"Bergen op Zoom"},"geometry":{"type":"Point","coordinates":[4.30489,51.49403]}},{"type":"Feature","properties":{"Naam":"JMS zorg","Organisatie":"JMS zorg","Soort zorg":"Verpleeghuizen","Huisnummer":"23","Postcode":"2652PA","Plaats":"Berkel en Rodenrijs"},"geometry":{"type":"Point","coordinates":[4.48022,52.00037]}},{"type":"Feature","properties":{"Naam":"Marielle Lamper","Organisatie":"Marielle Lamper","Soort zorg":"Verzorgingshuizen","Huisnummer":"49","Postcode":"2825AJ","Plaats":"Berkenwoude"},"geometry":{"type":"Point","coordinates":[4.68676,51.935]}},{"type":"Feature","properties":{"Naam":"ZZ Zorg","Organisatie":"ZZ Zorg","Soort zorg":"Verpleeghuizen, Verzorgingshuizen","Huisnummer":"32","Postcode":"7491KR","Plaats":"Delden"},"geometry":{"type":"Point","coordinates":[6.71749,52.25474]}},{"type":"Feature","properties":{"Naam":"Wef's Zorg","Organisatie":"Wef's Zorg","Soort zorg":"Verpleeghuizen","Huisnummer":"1016","Postcode":"3526BR","Plaats":"Utrecht"},"geometry":{"type":"Point","coordinates":[5.09611,52.06465]}},{"type":"Feature","properties":{"Naam":"Roza Yildirim","Organisatie":"Roza Yildirim","Soort zorg":"Verpleeghuizen, Verzorgingshuizen","Huisnummer":"14","Postcode":"7413VV","Plaats":"Deventer"},"geometry":{"type":"Point","coordinates":[6.16545,52.26074]}},{"type":"Feature","properties":{"Naam":"MonicaCares","Organisatie":"MonicaCares","Soort zorg":"Verzorgingshuizen","Huisnummer":"19","Postcode":"4813CX","Plaats":"Breda"},"geometry":{"type":"Point","coordinates":[4.73233,51.57888]}},{"type":"Feature","properties":{"Naam":"JO.Zorgt","Organisatie":"JO.Zorgt","Soort zorg":"Verpleeghuizen, Verzorgingshuizen","Huisnummer":"26","Postcode":"7681LL","Plaats":"Vroomshoop"},"geometry":{"type":"Point","coordinates":[6.56781,52.46763]}},{"type":"Feature","properties":{"Naam":"Claudia Hultermans","Organisatie":"Claudia Hultermans","Soort zorg":"Verpleeghuizen","Huisnummer":"24","Postcode":"5161HW","Plaats":"Sprang-Capelle"},"geometry":{"type":"Point","coordinates":[5.02071,51.66944]}},{"type":"Feature","properties":{"Naam":"Ju-annZorg","Organisatie":"Ju-annZorg","Soort zorg":"Verzorgingshuizen","Huisnummer":"9","Postcode":"5102DV","Plaats":"Dongen"},"geometry":{"type":"Point","coordinates":[4.92546,51.63008]}},{"type":"Feature","properties":{"Naam":"Baarssen Zorg","Organisatie":"Baarssen Zorg","Soort zorg":"Verpleeghuizen, Verzorgingshuizen","Huisnummer":"29","Postcode":"8322DN","Plaats":"Urk"},"geometry":{"type":"Point","coordinates":[5.62828,52.66821]}},{"type":"Feature","properties":{"Naam":"Driezorg Woonzorgcentrum Rivierenhof","Organisatie":"Stichting Driezorg, Wonen Welzijn & Zorg","Soort zorg":"Verpleeghuizen, Verzorgingshuizen","Huisnummer":"4","Postcode":"8032HX","Plaats":"Zwolle"},"geometry":{"type":"Point","coordinates":[6.10191,52.53101]}},{"type":"Feature","properties":{"Naam":"Vilente Mooi-Land/servicebureau/Thuiszorg","Organisatie":"Stichting Vilente","Soort zorg":"Verzorgingshuizen","Huisnummer":"425","Postcode":"6865CK","Plaats":"Doorwerth","Routekaart":"Voorlopig","Ambitie":"Niet bekend"},"geometry":{"type":"Point","coordinates":[5.78281,51.98569]}},{"type":"Feature","properties":{"Naam":"Markenhof","Organisatie":"Stichting Atlant Zorggroep","Soort zorg":"Verpleeghuizen","Huisnummer":"1","Postcode":"7361TC","Plaats":"Beekbergen","Routekaart":"Voorlopig","Ambitie":"Route tot 2030"},"geometry":{"type":"Point","coordinates":[5.96707,52.14968]}},{"type":"Feature","properties":{"Naam":"Stichting Zorggroep Tangenborgh","Organisatie":"Stichting Zorggroep Tangenborgh","Soort zorg":"Verpleeghuizen, Verzorgingshuizen","Huisnummer":"1","Postcode":"7812KA","Plaats":"Emmen","Routekaart":"Voorlopig","Ambitie":"Niet bekend"},"geometry":{"type":"Point","coordinates":[6.89231,52.76318]}},{"type":"Feature","properties":{"Naam":"Bedrijfsbureau Woonzorg Unie Veluwe","Organisatie":"WZU Veluwe","Soort zorg":"Verpleeghuizen, Verzorgingshuizen","Huisnummer":"27","Postcode":"8161CP","Plaats":"Epe"},"geometry":{"type":"Point","coordinates":[5.98909,52.34785]}},{"type":"Feature","properties":{"Naam":"ZuidOostZorg Locatie Neibertilla","Organisatie":"Stichting ZuidOostZorg","Soort zorg":"Verpleeghuizen","Huisnummer":"140","Postcode":"9203KP","Plaats":"Drachten","Routekaart":"Voorlopig","Ambitie":"Route tot 2050"},"geometry":{"type":"Point","coordinates":[6.09817,53.09668]}},{"type":"Feature","properties":{"Naam":"Oranje Nassau's Oord","Organisatie":"Stichting Zinzia Zorggroep","Soort zorg":"Verpleeghuizen","Huisnummer":"4","Postcode":"6704AV","Plaats":"Wageningen"},"geometry":{"type":"Point","coordinates":[5.71598,51.97432]}},{"type":"Feature","properties":{"Naam":"Kinderhospice Binnenveld","Organisatie":"Stichting Kinderhospice Binnenveld","Soort zorg":"Verpleeghuizen","Huisnummer":"11","Postcode":"3771PL","Plaats":"Barneveld"},"geometry":{"type":"Point","coordinates":[5.59657,52.16018]}},{"type":"Feature","properties":{"Naam":"Stichting De Hoven","Organisatie":"Stichting De Hoven","Soort zorg":"Verpleeghuizen","Huisnummer":"2","Postcode":"9959PG","Plaats":"Onderdendam"},"geometry":{"type":"Point","coordinates":[6.58832,53.33518]}},{"type":"Feature","properties":{"Naam":"Antonia","Organisatie":"Stichting Azora","Soort zorg":"Verpleeghuizen","Huisnummer":"115","Postcode":"7061AP","Plaats":"Terborg","Routekaart":"Voorlopig","Ambitie":"Route tot +-2025"},"geometry":{"type":"Point","coordinates":[6.35932,51.92213]}},{"type":"Feature","properties":{"Naam":"Insula Dei","Organisatie":"Stichting Insula Dei Huize Kohlmann","Soort zorg":"Verzorgingshuizen","Huisnummer":"139","Postcode":"6824HK","Plaats":"Arnhem"},"geometry":{"type":"Point","coordinates":[5.94482,51.99313]}},{"type":"Feature","properties":{"Naam":"Stichting Zonnehuisgroep Noord","Organisatie":"Stichting Zonnehuisgroep Noord","Soort zorg":"Verpleeghuizen","Huisnummer":"1","Postcode":"9801VH","Plaats":"Zuidhorn"},"geometry":{"type":"Point","coordinates":[6.41312,53.2473]}},{"type":"Feature","properties":{"Naam":"Noord Ned. Coöp. van Zorgorganisaties U.A.","Organisatie":"Noord Ned. Coöp. van Zorgorganisaties U.A.","Soort zorg":"Verzorgingshuizen","Huisnummer":"1","Postcode":"7903AS","Plaats":"Hoogeveen","Routekaart":"Vastgesteld","Ambitie":"Route tot +-2025"},"geometry":{"type":"Point","coordinates":[6.50509,52.72984]}},{"type":"Feature","properties":{"Naam":"Hanzeheerd De Bongerd","Organisatie":"\"Hanzeheerd\"","Soort zorg":"Verzorgingshuizen","Huisnummer":"32","Postcode":"8051VL","Plaats":"Hattem"},"geometry":{"type":"Point","coordinates":[6.06508,52.47348]}},{"type":"Feature","properties":{"Naam":"Stichting Careaz","Organisatie":"Stichting Careaz","Soort zorg":"Verzorgingshuizen","Huisnummer":"2","Postcode":"7132EJ","Plaats":"Lichtenvoorde"},"geometry":{"type":"Point","coordinates":[6.54639,51.9795]}},{"type":"Feature","properties":{"Naam":"Rev.centr.PW.Janssen/De Winde/Solis par.centr","Organisatie":"Zorggroep Solis","Soort zorg":"Verpleeghuizen","Huisnummer":"2","Postcode":"7423EJ","Plaats":"Deventer","Routekaart":"Voorlopig","Ambitie":"Route tot +-2025"},"geometry":{"type":"Point","coordinates":[6.2145,52.25417]}},{"type":"Feature","properties":{"Naam":"Joachim en Anna","Organisatie":"St. De Waalboog, zorg, welzijn en wonen","Soort zorg":"Verpleeghuizen","Huisnummer":"327","Postcode":"6523PA","Plaats":"Nijmegen"},"geometry":{"type":"Point","coordinates":[5.87801,51.82681]}},{"type":"Feature","properties":{"Naam":"Maartenshof","Organisatie":"Stichting Zorggroep Groningen","Soort zorg":"Verpleeghuizen, Verzorgingshuizen","Huisnummer":"100","Postcode":"9728PG","Plaats":"Groningen"},"geometry":{"type":"Point","coordinates":[6.55987,53.19239]}},{"type":"Feature","properties":{"Naam":"Liemerije","Organisatie":"Liemerije","Soort zorg":"Verpleeghuizen","Huisnummer":"12","Postcode":"6903ZN","Plaats":"Zevenaar"},"geometry":{"type":"Point","coordinates":[6.07007,51.94274]}},{"type":"Feature","properties":{"Naam":"Herbergier Bartlehiem","Organisatie":"Herbergier Bartlehiem","Soort zorg":"Verzorgingshuizen","Huisnummer":"35","Postcode":"9091BH","Plaats":"Wyns"},"geometry":{"type":"Point","coordinates":[5.84131,53.27645]}},{"type":"Feature","properties":{"Naam":"V.O.F. Vastenhoud","Organisatie":"V.O.F. Vastenhoud","Soort zorg":"Verzorgingshuizen","Huisnummer":"66","Postcode":"7863PD","Plaats":"Gees"},"geometry":{"type":"Point","coordinates":[6.68767,52.74577]}},{"type":"Feature","properties":{"Naam":"De Horst","Organisatie":"Stichting Treant Care","Soort zorg":"Verzorgingshuizen","Huisnummer":"97","Postcode":"7825TC","Plaats":"Emmen"},"geometry":{"type":"Point","coordinates":[6.94548,52.78503]}},{"type":"Feature","properties":{"Naam":"Verpleeghuis Zandhove","Organisatie":"Stichting Zorgspectrum Het Zand","Soort zorg":"Verpleeghuizen, Verzorgingshuizen","Huisnummer":"17","Postcode":"8014BE","Plaats":"Zwolle","Routekaart":"Voorlopig","Ambitie":"Route tot +-2025"},"geometry":{"type":"Point","coordinates":[6.12681,52.47519]}},{"type":"Feature","properties":{"Naam":"Stichting Carinova Woonzorg","Organisatie":"Stichting Carinova Woonzorg","Soort zorg":"Verpleeghuizen, Verzorgingshuizen","Huisnummer":"12","Postcode":"7415EH","Plaats":"Deventer"},"geometry":{"type":"Point","coordinates":[6.17168,52.26572]}},{"type":"Feature","properties":{"Naam":"Huis Ter Weegen B.V.","Organisatie":"Huis Ter Weegen B.V.","Soort zorg":"Verzorgingshuizen","Huisnummer":"158","Postcode":"7231AK","Plaats":"Warnsveld"},"geometry":{"type":"Point","coordinates":[6.23216,52.14431]}},{"type":"Feature","properties":{"Naam":"Thuiszorg Rijn en IJssel B.V.","Organisatie":"Thuiszorg Rijn en IJssel B.V.","Soort zorg":"Verzorgingshuizen","Huisnummer":"91","Postcode":"6998AG","Plaats":"Laag-Keppel"},"geometry":{"type":"Point","coordinates":[6.2252,51.99636]}},{"type":"Feature","properties":{"Naam":"Acufit Nederland B.V.","Organisatie":"Acufit Nederland B.V.","Soort zorg":"Verpleeghuizen","Huisnummer":"43","Postcode":"6814CC","Plaats":"Arnhem"},"geometry":{"type":"Point","coordinates":[5.90266,51.98668]}},{"type":"Feature","properties":{"Naam":"Rusthuis Regina","Organisatie":"Rusthuis Regina B.V.","Soort zorg":"Verzorgingshuizen","Huisnummer":"21","Postcode":"6881NC","Plaats":"Velp"},"geometry":{"type":"Point","coordinates":[5.96424,51.9956]}},{"type":"Feature","properties":{"Naam":"Verzorgingstehuis Monte Bello B.V.","Organisatie":"Verzorgingstehuis Monte Bello B.V.","Soort zorg":"Verzorgingshuizen","Huisnummer":"13","Postcode":"6881KA","Plaats":"Velp"},"geometry":{"type":"Point","coordinates":[5.97377,52.00131]}},{"type":"Feature","properties":{"Naam":"Hospice De Lelie","Organisatie":"St. Vrijwilligers Terminale Zorg O Achterhoek","Soort zorg":"Verpleeghuizen","Huisnummer":"36","Postcode":"7101CJ","Plaats":"Winterswijk"},"geometry":{"type":"Point","coordinates":[6.71073,51.97481]}},{"type":"Feature","properties":{"Naam":"Vrijwilligers Palliatieve Terminale Zorg","Organisatie":"St. Vrijw. Palliatieve Term. Zorg N-W Friesl.","Soort zorg":"Verpleeghuizen","Huisnummer":"113","Postcode":"8917AP","Plaats":"Leeuwarden"},"geometry":{"type":"Point","coordinates":[5.78888,53.20657]}},{"type":"Feature","properties":{"Naam":"De Schutse","Organisatie":"De Schutse","Soort zorg":"Verpleeghuizen","Huisnummer":"13a","Postcode":"9901GS","Plaats":"Appingedam"},"geometry":{"type":"Point","coordinates":[6.84806,53.32287]}},{"type":"Feature","properties":{"Naam":"Zorgcentrum Linquenda V.O.F.","Organisatie":"Zorgcentrum Linquenda V.O.F.","Soort zorg":"Verzorgingshuizen","Huisnummer":"2","Postcode":"9671EB","Plaats":"Winschoten"},"geometry":{"type":"Point","coordinates":[7.03931,53.14065]}},{"type":"Feature","properties":{"Naam":"De Witte Roos B.V.","Organisatie":"De Witte Roos B.V.","Soort zorg":"Verzorgingshuizen","Huisnummer":"184b","Postcode":"1092EG","Plaats":"Amsterdam"},"geometry":{"type":"Point","coordinates":[4.92067,52.35744]}},{"type":"Feature","properties":{"Naam":"Stichting Hospice Noord en Midden Drenthe","Organisatie":"Stichting Hospice Noord en Midden Drenthe","Soort zorg":"Verpleeghuizen","Huisnummer":"15","Postcode":"9451BE","Plaats":"Rolde"},"geometry":{"type":"Point","coordinates":[6.64463,52.98613]}},{"type":"Feature","properties":{"Naam":"Hospice 't Huis aan de Vecht","Organisatie":"Stichting Hospice Groep VechtZathe","Soort zorg":"Verpleeghuizen","Huisnummer":"15","Postcode":"7772AN","Plaats":"Hardenberg"},"geometry":{"type":"Point","coordinates":[6.61728,52.56995]}},{"type":"Feature","properties":{"Naam":"Stichting Hospice Apeldoorn","Organisatie":"Stichting Hospice Apeldoorn","Soort zorg":"Verpleeghuizen","Huisnummer":"5","Postcode":"7323KZ","Plaats":"Apeldoorn"},"geometry":{"type":"Point","coordinates":[5.99067,52.23261]}},{"type":"Feature","properties":{"Naam":"Stichting Berkelhof","Organisatie":"Stichting Berkelhof","Soort zorg":"Verzorgingshuizen","Huisnummer":"11","Postcode":"7609WV","Plaats":"Almelo"},"geometry":{"type":"Point","coordinates":[6.64527,52.33285]}}]}