{"type":"FeatureCollection","features":[{"type":"Feature","properties":{"Locatienummer":101804,"Organisatie":"Admiraal De Ruyter Ziekenhuis","Name":"Admiraal De Ruyter Ziekenhuis Goes","Type":"Algemeen ziekenhuis","Plaats":"Goes","Straat":"'s-Gravenpolderseweg","Nummer":"114","Postcode":"4462 RA"},"geometry":{"type":"Point","coordinates":[3.90922,51.48465]}},{"type":"Feature","properties":{"Locatienummer":101805,"Organisatie":"Admiraal De Ruyter Ziekenhuis","Name":"Admiraal De Ruyter Ziekenhuis Middelburg Kalverstraat","Type":"Buitenpolikliniek","Plaats":"Middelburg","Straat":"Kalverstraat","Nummer":"1","Postcode":"4331 LZ"},"geometry":{"type":"Point","coordinates":[3.61031,51.4965]}},{"type":"Feature","properties":{"Locatienummer":101807,"Organisatie":"Admiraal De Ruyter Ziekenhuis","Name":"Admiraal De Ruyter Ziekenhuis Vlissingen","Type":"Algemeen ziekenhuis","Plaats":"Vlissingen","Straat":"Koudekerkseweg","Nummer":"88","Postcode":"4382 EE"},"geometry":{"type":"Point","coordinates":[3.56529,51.45127]}},{"type":"Feature","properties":{"Locatienummer":101808,"Organisatie":"Admiraal De Ruyter Ziekenhuis","Name":"Admiraal De Ruyter Ziekenhuis Zierikzee","Type":"Buitenpolikliniek","Plaats":"Zierikzee","Straat":"Koning Gustaafweg","Nummer":"2","Postcode":"4301 NP"},"geometry":{"type":"Point","coordinates":[3.92836,51.6564]}},{"type":"Feature","properties":{"Locatienummer":100301,"Organisatie":"Albert Schweitzer Ziekenhuis","Name":"Albert Schweitzer Ziekenhuis Dordwijk","Type":"Algemeen ziekenhuis","Plaats":"Dordrecht","Straat":"A. Schweitzerplaats","Nummer":" 25","Postcode":"3318 AT"},"geometry":{"type":"Point","coordinates":[4.6824,51.79199]}},{"type":"Feature","properties":{"Locatienummer":100302,"Organisatie":"Albert Schweitzer Ziekenhuis","Name":"Albert Schweitzer Ziekenhuis Zwijndrecht","Type":"Algemeen ziekenhuis","Plaats":"Zwijndrecht","Straat":"Langeweg","Nummer":"336","Postcode":"3331 LZ"},"geometry":{"type":"Point","coordinates":[4.62957,51.82714]}},{"type":"Feature","properties":{"Locatienummer":100303,"Organisatie":"Albert Schweitzer Ziekenhuis","Name":"Albert Schweitzer Ziekenhuis Sliedrecht","Type":"Algemeen ziekenhuis","Plaats":"Sliedrecht","Straat":"Stationspark","Nummer":"400","Postcode":"3364 DA"},"geometry":{"type":"Point","coordinates":[4.77725,51.82826]}},{"type":"Feature","properties":{"Locatienummer":100306,"Organisatie":"Albert Schweitzer Ziekenhuis","Name":"Albert Schweitzer Ziekenhuis Buitenpoli GOED Ridderkerk","Type":"Buitenpolikliniek","Plaats":"Ridderkerk","Straat":"Jan Luykenstraat","Nummer":"8","Postcode":"2985 BV"},"geometry":{"type":"Point","coordinates":[4.60251,51.86673]}},{"type":"Feature","properties":{"Locatienummer":101301,"Organisatie":"Alrijne Zorggroep","Name":"Alrijne Leiden","Type":"Algemeen ziekenhuis","Plaats":"Leiden","Straat":"Houtlaan","Nummer":"55","Postcode":"2334 CK"},"geometry":{"type":"Point","coordinates":[4.48272,52.17402]}},{"type":"Feature","properties":{"Locatienummer":101303,"Organisatie":"Alrijne Zorggroep","Name":"Alrijne Ziekenhuis Buitenlocatie  Katwijk","Type":"Buitenpolikliniek","Plaats":"Katwijk","Straat":"Randweg","Nummer":"47","Postcode":"2225 PJ"},"geometry":{"type":"Point","coordinates":[4.40463,52.19976]}},{"type":"Feature","properties":{"Locatienummer":101304,"Organisatie":"Alrijne Zorggroep","Name":"Alrijne Ziekenhuis Buitenlocatie Sassenheim","Type":"Buitenpolikliniek","Plaats":"Sassenheim","Straat":"Jan van Brabantweg","Nummer":"33","Postcode":"2171 HE"},"geometry":{"type":"Point","coordinates":[4.60306,51.86602]}},{"type":"Feature","properties":{"Locatienummer":101305,"Organisatie":"Alrijne Zorggroep","Name":"Alrijne Ziekenhuis Leiderdorp","Type":"Algemeen ziekenhuis","Plaats":"Leiderdorp","Straat":"Simon Smitweg","Nummer":"1","Postcode":"2353 GA"},"geometry":{"type":"Point","coordinates":[4.54083,52.15652]}},{"type":"Feature","properties":{"Locatienummer":101306,"Organisatie":"Alrijne Zorggroep","Name":"Alrijne Ziekenhuis Alphen aan den Rijn","Type":"Buitenpolikliniek","Plaats":"Alphen a/d Rijn","Straat":"Metoorlaan","Nummer":"4","Postcode":"2402 WC"},"geometry":{"type":"Point","coordinates":[4.66166,52.14272]}},{"type":"Feature","properties":{"Locatienummer":100501,"Organisatie":"Amphia Ziekenhuis","Name":"Amphia Ziekenhuis Breda Molengracht","Type":"Algemeen ziekenhuis","Plaats":"Breda","Straat":"Molengracht","Nummer":"21","Postcode":"4818 CK"},"geometry":{"type":"Point","coordinates":[4.79732,51.58185]}},{"type":"Feature","properties":{"Locatienummer":100502,"Organisatie":"Amphia Ziekenhuis","Name":"Amphia Ziekenhuis Breda Langendijk","Type":"Algemeen ziekenhuis","Plaats":"Breda","Straat":"Langendijk","Nummer":"75","Postcode":"4819 EV"},"geometry":{"type":"Point","coordinates":[4.76313,51.57331]}},{"type":"Feature","properties":{"Locatienummer":100503,"Organisatie":"Amphia Ziekenhuis","Name":"Amphia Ziekenhuis Oosterhout","Type":"Algemeen ziekenhuis","Plaats":"Oosterhout","Straat":"Pasteurlaan","Nummer":"9","Postcode":"4901 DH"},"geometry":{"type":"Point","coordinates":[4.87213,51.64923]}},{"type":"Feature","properties":{"Locatienummer":100504,"Organisatie":"Amphia Ziekenhuis","Name":"Amphia Ziekenhuis Etten-Leur","Type":"Buitenpolikliniek","Plaats":"Etten-Leur","Straat":"Trivium","Nummer":"76","Postcode":"4873 LP"},"geometry":{"type":"Point","coordinates":[4.66198,51.56983]}},{"type":"Feature","properties":{"Locatienummer":100101,"Organisatie":"Amsterdam UMC","Name":"AMC","Type":"Academisch ziekenhuis","Plaats":"Amsterdam Zuidoost","Straat":"Meibergdreef","Nummer":"9","Postcode":"1105 AZ"},"geometry":{"type":"Point","coordinates":[4.95739,52.2942]}},{"type":"Feature","properties":{"Locatienummer":100102,"Organisatie":"Amsterdam UMC","Name":"Emma Kinderziekenhuis","Type":"Kinderziekenhuis","Plaats":"Amsterdam","Straat":"Meibergdreef","Nummer":"9","Postcode":"1105 AZ"},"geometry":{"type":"Point","coordinates":[4.95791,52.29499]}},{"type":"Feature","properties":{"Locatienummer":100103,"Organisatie":"Amsterdam UMC","Name":"Vumc","Type":"Academisch ziekenhuis","Plaats":"Amsterdam","Straat":"de Boelelaan","Nummer":"1117","Postcode":"1081 HV"},"geometry":{"type":"Point","coordinates":[4.85983,52.33462]}},{"type":"Feature","properties":{"Locatienummer":109801,"Organisatie":"Antoni van Leeuwenhoek","Name":"Antoni van Leeuwenhoek","Type":"Algemeen ziekenhuis","Plaats":"Amsterdam","Straat":"Plesmanlaan","Nummer":"121","Postcode":"1066 CX"},"geometry":{"type":"Point","coordinates":[4.82642,52.35087]}},{"type":"Feature","properties":{"Locatienummer":100601,"Organisatie":"Antonius Zorggroep","Name":"Antonius Ziekenhuis Sneek","Type":"Algemeen ziekenhuis","Plaats":"Sneek","Straat":"Bolswarderbaan","Nummer":" 1","Postcode":"8601 ZK"},"geometry":{"type":"Point","coordinates":[5.64287,53.03469]}},{"type":"Feature","properties":{"Locatienummer":100602,"Organisatie":"Antonius Zorggroep","Name":"Antonius Ziekenhuis Emmeloord","Type":"Buitenpolikliniek","Plaats":"Emmeloord","Straat":"Urkerweg","Nummer":"4","Postcode":"8303 BX"},"geometry":{"type":"Point","coordinates":[5.73367,52.70376]}},{"type":"Feature","properties":{"Locatienummer":100604,"Organisatie":"Antonius Zorggroep","Name":"Emmeloord Dokter Jansencentrum","Type":"Buitenpolikliniek","Plaats":"Emmeloord","Straat":"Urkerweg","Nummer":"1","Postcode":"8303 BX"},"geometry":{"type":"Point","coordinates":[5.74369,52.70784]}},{"type":"Feature","properties":{"Locatienummer":100801,"Organisatie":"BovenIJ Ziekenhuis","Name":"BovenIJ Ziekenhuis","Type":"Algemeen ziekenhuis","Plaats":"Amsterdam","Straat":"Statenjachtstraat","Nummer":"1","Postcode":"1034 CS","Routekaart":"Concept ingeleverd"},"geometry":{"type":"Point","coordinates":[4.92239,52.40518]}},{"type":"Feature","properties":{"Locatienummer":102001,"Organisatie":"Bravis Ziekenhuis","Name":"Bravis Ziekenhuis Bergen op Zoom","Type":"Algemeen ziekenhuis","Plaats":"Roosendaal","Straat":"Boerhaavelaan","Nummer":"25","Postcode":"4708 AE","Routekaart":"Definitief ingeleverd"},"geometry":{"type":"Point","coordinates":[4.43732,51.52896]}},{"type":"Feature","properties":{"Locatienummer":102002,"Organisatie":"Bravis Ziekenhuis","Name":"Bravis Ziekenhuis Oudenbosch Medisch Centrum","Type":"Buitenpolikliniek","Plaats":"Oudenbosch","Straat":"West-Vaardeke","Nummer":"11A","Postcode":"4731 MA","Routekaart":"Definitief ingeleverd"},"geometry":{"type":"Point","coordinates":[5.87429,51.105]}},{"type":"Feature","properties":{"Locatienummer":102003,"Organisatie":"Bravis Ziekenhuis","Name":"Bravis Ziekenhuis Polikliniek Etten-Leur","Type":"Buitenpolikliniek","Plaats":"Etten-Leur","Straat":"Schoonhout","Nummer":"215","Postcode":"4872 MC","Routekaart":"Definitief ingeleverd"},"geometry":{"type":"Point","coordinates":[4.65006,51.57185]}},{"type":"Feature","properties":{"Locatienummer":102004,"Organisatie":"Bravis Ziekenhuis","Name":"Bravis Ziekenhuis Polikliniek Steenbergen","Type":"Buitenpolikliniek","Plaats":"Steenbergen","Straat":"De Wei","Nummer":"26","Postcode":"4651 EZ","Routekaart":"Definitief ingeleverd"},"geometry":{"type":"Point","coordinates":[5.82997,51.81472]}},{"type":"Feature","properties":{"Locatienummer":102005,"Organisatie":"Bravis Ziekenhuis","Name":"Bravis Ziekenhuis Roosendaal","Type":"Algemeen ziekenhuis","Plaats":"Bergen Op Zoom","Straat":"Boerhaaveplein","Nummer":"1","Postcode":"4624 VT","Routekaart":"Definitief ingeleverd"},"geometry":{"type":"Point","coordinates":[4.31422,51.48689]}},{"type":"Feature","properties":{"Locatienummer":100901,"Organisatie":"Canisius-Wilhelmina Ziekenhuis","Name":"Canisius-Wilhelmina Ziekenhuis","Type":"Algemeen ziekenhuis","Plaats":"Nijmegen","Straat":"Weg door Jonkerbos","Nummer":"100","Postcode":"6532 SZ"},"geometry":{"type":"Point","coordinates":[5.83121,51.81731]}},{"type":"Feature","properties":{"Locatienummer":100902,"Organisatie":"Canisius-Wilhelmina Ziekenhuis","Name":"Canisius-Wilhelmina Ziekenhuis Waalsprong","Type":"Buitenpolikliniek","Plaats":"Nijmegen","Straat":"Carbatinastraat","Nummer":"3","Postcode":"6515 GM"},"geometry":{"type":"Point","coordinates":[5.84531,51.88199]}},{"type":"Feature","properties":{"Locatienummer":100903,"Organisatie":"Canisius-Wilhelmina Ziekenhuis","Name":"Canisius-Wilhelmina Ziekenhuis Druten","Type":"Buitenpolikliniek","Plaats":"Druten","Straat":"Kerkeland","Nummer":"3","Postcode":"6651 KN"},"geometry":{"type":"Point","coordinates":[5.61505,51.88801]}},{"type":"Feature","properties":{"Locatienummer":100905,"Organisatie":"Canisius-Wilhelmina Ziekenhuis","Name":"Canisius-Wilhelmina Polikliniek Jonkerbosch","Type":"Buitenpolikliniek","Plaats":"Nijmegen","Straat":"Burgemeester Daleslaan","Nummer":"27","Postcode":"6532 CL"},"geometry":{"type":"Point","coordinates":[5.83262,51.81907]}},{"type":"Feature","properties":{"Locatienummer":101001,"Organisatie":"Catharina Ziekenhuis","Name":"Catharina Ziekenhuis","Type":"Algemeen ziekenhuis","Plaats":"Eindhoven","Straat":"Michelangelolaan","Nummer":"2","Postcode":"5623 EJ"},"geometry":{"type":"Point","coordinates":[5.47071,51.46559]}},{"type":"Feature","properties":{"Locatienummer":106702,"Organisatie":"Deventer Ziekenhuis","Name":"Deventer Ziekenhuisgroep","Type":"Algemeen ziekenhuis","Plaats":"Deventer","Straat":"Nico Bolkesteinlaan","Nummer":"75","Postcode":"7416 SE"},"geometry":{"type":"Point","coordinates":[6.19207,52.26158]}},{"type":"Feature","properties":{"Locatienummer":106703,"Organisatie":"Deventer Ziekenhuis","Name":"Deventer Ziekenhuis Polikliniek Raalte","Type":"Buitenpolikliniek","Plaats":"Raalte","Straat":"Vrieswijk","Nummer":"6b","Postcode":"8103 PB"},"geometry":{"type":"Point","coordinates":[6.27318,52.39942]}},{"type":"Feature","properties":{"Locatienummer":106704,"Organisatie":"Deventer Ziekenhuis","Name":"Deventer ZiekenhuisPolikliniek Rijssen","Type":"Buitenpolikliniek","Plaats":"Rijssen","Straat":"Wijnand Zeeuwstraat","Nummer":"26-101","Postcode":"7462 DE"},"geometry":{"type":"Point","coordinates":[6.51889,52.30182]}},{"type":"Feature","properties":{"Locatienummer":101401,"Organisatie":"Diakonessenhuis","Name":"Diakonessenhuis Utrecht","Type":"Algemeen ziekenhuis","Plaats":"Utrecht","Straat":"Bosboomstraat","Nummer":"1","Postcode":"3582 KE"},"geometry":{"type":"Point","coordinates":[5.13826,52.08156]}},{"type":"Feature","properties":{"Locatienummer":101402,"Organisatie":"Diakonessenhuis","Name":"Diakonessenhuis Zeist","Type":"Algemeen ziekenhuis","Plaats":"Zeist","Straat":"Jagersingel","Nummer":"1","Postcode":"3707 JA"},"geometry":{"type":"Point","coordinates":[5.26218,52.09127]}},{"type":"Feature","properties":{"Locatienummer":101403,"Organisatie":"Diakonessenhuis","Name":"Diakonessenhuis Buitenpolikliniek Doorn","Type":"Buitenpolikliniek","Plaats":"Doorn","Straat":"Bergweg","Nummer":"2","Postcode":"3941 RB"},"geometry":{"type":"Point","coordinates":[5.35148,52.03511]}},{"type":"Feature","properties":{"Locatienummer":108001,"Organisatie":"Dijklander Ziekenhuis","Name":"Waterlandziekenhuis","Type":"Algemeen ziekenhuis","Plaats":"Purmerend","Straat":"Waterlandlaan","Nummer":"250","Postcode":"1441 RN"},"geometry":{"type":"Point","coordinates":[4.96266,52.50069]}},{"type":"Feature","properties":{"Locatienummer":108002,"Organisatie":"Dijklander Ziekenhuis","Name":"Waterlandziekenhuis Behandelcentrum Waterland-Oost","Type":"Buitenpolikliniek","Plaats":"Volendam","Straat":"Heideweg","Nummer":"1b","Postcode":"1132 DA"},"geometry":{"type":"Point","coordinates":[5.05665,52.49205]}},{"type":"Feature","properties":{"Locatienummer":108003,"Organisatie":"Dijklander Ziekenhuis","Name":"Westfries Gasthuis","Type":"Algemeen ziekenhuis","Plaats":"Hoorn Nh","Straat":"Fr. Maelsonstraat","Nummer":"3","Postcode":"1624 NP"},"geometry":{"type":"Point","coordinates":[5.05414,52.64718]}},{"type":"Feature","properties":{"Locatienummer":108004,"Organisatie":"Dijklander Ziekenhuis","Name":"Westfries Gasthuis Enkhuizen","Type":"Buitenpolikliniek","Plaats":"Enkhuizen","Straat":"Molenweg","Nummer":"9b","Postcode":"1601 SR"},"geometry":{"type":"Point","coordinates":[5.28176,52.70334]}},{"type":"Feature","properties":{"Locatienummer":107301,"Organisatie":"Elisabeth-TweeSteden","Name":"ETZ Tilburg","Type":"Algemeen ziekenhuis","Plaats":"Tilburg","Straat":"Dr. Deelenlaan","Nummer":"5","Postcode":"5042 AD"},"geometry":{"type":"Point","coordinates":[5.06065,51.57721]}},{"type":"Feature","properties":{"Locatienummer":107302,"Organisatie":"Elisabeth-TweeSteden","Name":"ETZ Waalwijk","Type":"Algemeen ziekenhuis","Plaats":"Waalwijk","Straat":"Kasteellaan","Nummer":"2","Postcode":"5141 BM"},"geometry":{"type":"Point","coordinates":[5.0523,51.68616]}},{"type":"Feature","properties":{"Locatienummer":107303,"Organisatie":"Elisabeth-TweeSteden","Name":"ETZ Oisterwijk","Type":"Buitenpolikliniek","Plaats":"Oisterwijk","Straat":"Moergestelseweg","Nummer":"32G","Postcode":"5062 JW"},"geometry":{"type":"Point","coordinates":[5.181,51.57347]}},{"type":"Feature","properties":{"Locatienummer":107304,"Organisatie":"Elisabeth-TweeSteden","Name":"ETZ Elisabeth","Type":"Algemeen ziekenhuis","Plaats":"Tilburg","Straat":"Hilvarenbeekseweg","Nummer":"60","Postcode":"5022 GC"},"geometry":{"type":"Point","coordinates":[5.10352,51.53943]}},{"type":"Feature","properties":{"Locatienummer":101701,"Organisatie":"Elkerliek Ziekenhuis","Name":"Elkerliek Ziekenhuis Helmond","Type":"Algemeen ziekenhuis","Plaats":"Helmond","Straat":"Wesselmanlaan","Nummer":"25","Postcode":"5707 HA"},"geometry":{"type":"Point","coordinates":[5.64297,51.48318]}},{"type":"Feature","properties":{"Locatienummer":101702,"Organisatie":"Elkerliek Ziekenhuis","Name":"Elkerliek Ziekenhuis Deurne","Type":"Buitenpolikliniek","Plaats":"Deurne","Straat":"Dunantweg","Nummer":"16","Postcode":"5751 CB"},"geometry":{"type":"Point","coordinates":[5.79099,51.46836]}},{"type":"Feature","properties":{"Locatienummer":101703,"Organisatie":"Elkerliek Ziekenhuis","Name":"Elkerliek Ziekenhuis Gemert","Type":"Buitenpolikliniek","Plaats":"Gemert","Straat":"Julianastraat","Nummer":"2","Postcode":"5421 DB"},"geometry":{"type":"Point","coordinates":[5.6854,51.55414]}},{"type":"Feature","properties":{"Locatienummer":101704,"Organisatie":"Elkerliek Ziekenhuis","Name":"Elkerliek Ziekenhuis Polikliniek Asten","Type":"Buitenpolikliniek","Plaats":"Asten","Straat":"Floralaan","Nummer":"30","Postcode":"5721  CV"},"geometry":{"type":"Point","coordinates":[5.75325,51.40548]}},{"type":"Feature","properties":{"Locatienummer":101801,"Organisatie":"Erasmus Medisch Centrum","Name":"Erasmus Medisch Centrum","Type":"Academisch ziekenhuis","Plaats":"Rotterdam","Straat":"Dr. Molewaterplein","Nummer":"40","Postcode":"3015 GD"},"geometry":{"type":"Point","coordinates":[4.46807,51.91094]}},{"type":"Feature","properties":{"Locatienummer":101802,"Organisatie":"Erasmus Medisch Centrum","Name":"Erasmus Medisch Centrum Sophia kinderziekenhuis","Type":"Kinderziekenhuis","Plaats":"Rotterdam","Straat":"Wytemaweg","Nummer":"80","Postcode":"3015 CN"},"geometry":{"type":"Point","coordinates":[4.46961,51.91178]}},{"type":"Feature","properties":{"Locatienummer":101803,"Organisatie":"Erasmus Medisch Centrum","Name":"Erasmus Medisch Centrum Kanker Instituut","Type":"Algemeen ziekenhuis","Plaats":"Rotterdam","Straat":"Groene hilledijk","Nummer":"301","Postcode":"3075 EA"},"geometry":{"type":"Point","coordinates":[4.50495,51.88581]}},{"type":"Feature","properties":{"Locatienummer":101901,"Organisatie":"Flevoziekenhuis","Name":"Flevoziekenhuis","Type":"Algemeen ziekenhuis","Plaats":"Almere","Straat":"Hospitaalweg","Nummer":"1","Postcode":"1315 RA"},"geometry":{"type":"Point","coordinates":[5.22333,52.36922]}},{"type":"Feature","properties":{"Locatienummer":101902,"Organisatie":"Flevoziekenhuis","Name":"Flevoland ziekenhuis Buitenpoli Almere Poort","Type":"Buitenpolikliniek","Plaats":"Almere","Straat":"Beneluxlaan","Nummer":"573-579","Postcode":"\t1363 BJ"},"geometry":{"type":"Point","coordinates":[5.1543,52.34791]}},{"type":"Feature","properties":{"Locatienummer":107801,"Organisatie":"Franciscus Gasthuis & Vlietland Groep","Name":"Franciscus Vlietland  Schiedam","Type":"Algemeen ziekenhuis","Plaats":"Schiedam","Straat":"Vlietlandplein","Nummer":"2","Postcode":"3118 JH"},"geometry":{"type":"Point","coordinates":[4.37995,51.92251]}},{"type":"Feature","properties":{"Locatienummer":107802,"Organisatie":"Franciscus Gasthuis & Vlietland Groep","Name":"Franciscus Gasthuis Locatie Het Oogziekenhuis","Type":"Buitenpolikliniek","Plaats":"Rotterdam","Straat":"Schiedamse Vest","Nummer":"180","Postcode":"3011 BH"},"geometry":{"type":"Point","coordinates":[4.48001,51.915]}},{"type":"Feature","properties":{"Locatienummer":107803,"Organisatie":"Franciscus Gasthuis & Vlietland Groep","Name":"Franciscus Maassluis","Type":"Buitenpolikliniek","Plaats":"Maassluis","Straat":"De Vloot","Nummer":"206","Postcode":"3144 PK"},"geometry":{"type":"Point","coordinates":[4.2428,51.92984]}},{"type":"Feature","properties":{"Locatienummer":107804,"Organisatie":"Franciscus Gasthuis & Vlietland Groep","Name":"Franciscus Berkel","Type":"Buitenpolikliniek","Plaats":"Berkel Rodenrijs","Straat":"Boerhaavestraat","Nummer":"19","Postcode":"2652 EP"},"geometry":{"type":"Point","coordinates":[4.47438,51.99668]}},{"type":"Feature","properties":{"Locatienummer":107805,"Organisatie":"Franciscus Gasthuis & Vlietland Groep","Name":"Franciscus Gasthuis","Type":"Algemeen ziekenhuis","Plaats":"Rotterdam","Straat":"Kleiweg","Nummer":"500","Postcode":"3045 PM"},"geometry":{"type":"Point","coordinates":[4.46182,51.94135]}},{"type":"Feature","properties":{"Locatienummer":107807,"Organisatie":"Franciscus Gasthuis & Vlietland Groep","Name":"Franciscus  Haven","Type":"Buitenpolikliniek","Plaats":"Rotterdam","Straat":"Haringvliet","Nummer":"2","Postcode":"3011 TF"},"geometry":{"type":"Point","coordinates":[4.4983,51.92049]}},{"type":"Feature","properties":{"Locatienummer":102101,"Organisatie":"Gelre Ziekenhuizen","Name":"Gelre Ziekenhuizen Zutphen","Type":"Algemeen ziekenhuis","Plaats":"Zutphen","Straat":"Den Elterweg","Nummer":"77","Postcode":"7207 AE"},"geometry":{"type":"Point","coordinates":[6.2176,52.12289]}},{"type":"Feature","properties":{"Locatienummer":102103,"Organisatie":"Gelre Ziekenhuizen","Name":"Gelre Ziekenhuizen Apeldoorn","Type":"Algemeen ziekenhuis","Plaats":"Apeldoorn","Straat":"A. Schweitzerlaan","Nummer":"31","Postcode":"7334 DZ"},"geometry":{"type":"Point","coordinates":[5.9474,52.18141]}},{"type":"Feature","properties":{"Locatienummer":102104,"Organisatie":"Gelre Ziekenhuizen","Name":"Gelre Ziekenhuizen Polikliniek Lochem","Type":"Buitenpolikliniek","Plaats":"Lochem","Straat":"Zwiepseweg","Nummer":"105","Postcode":"7241 GR"},"geometry":{"type":"Point","coordinates":[6.42357,52.15607]}},{"type":"Feature","properties":{"Locatienummer":102105,"Organisatie":"Gelre Ziekenhuizen","Name":"Gelre Ziekenhuizen Polikliniek Epe","Type":"Buitenpolikliniek","Plaats":"Epe","Straat":"Willem Tellstraat","Nummer":"17","Postcode":"8162 ET"},"geometry":{"type":"Point","coordinates":[5.98147,52.34987]}},{"type":"Feature","properties":{"Locatienummer":102106,"Organisatie":"Gelre Ziekenhuizen","Name":"Gelre Ziekenhuizen Polikliniek Dieren","Type":"Buitenpolikliniek","Plaats":"Dieren","Straat":"Wilhelminaweg","Nummer":"80AA","Postcode":"6951 BR"},"geometry":{"type":"Point","coordinates":[4.75017,52.08899]}},{"type":"Feature","properties":{"Locatienummer":102107,"Organisatie":"Gelre Ziekenhuizen","Name":"Gelre Ziekenhuis Polikliniek Doesburg","Type":"Buitenpolikliniek","Plaats":"Doesburg","Straat":"De Linie","Nummer":"3b","Postcode":"6982 AZ"},"geometry":{"type":"Point","coordinates":[6.13452,52.00953]}},{"type":"Feature","properties":{"Locatienummer":102301,"Organisatie":"Groene Hart Ziekenhuis","Name":"Groene Hart Ziekenhuis Bleulandlocatie","Type":"Algemeen ziekenhuis","Plaats":"Gouda","Straat":"Bleulandweg","Nummer":"10","Postcode":"2803 HH"},"geometry":{"type":"Point","coordinates":[4.70576,52.02081]}},{"type":"Feature","properties":{"Locatienummer":102303,"Organisatie":"Groene Hart Ziekenhuis","Name":"Groene Hart Ziekenhuis Polikliniek Zuidplas","Type":"Buitenpolikliniek","Plaats":"Nieuwerkerk a/d IJssel","Straat":"Doortocht","Nummer":"40","Postcode":"2914 KA"},"geometry":{"type":"Point","coordinates":[4.61778,51.96715]}},{"type":"Feature","properties":{"Locatienummer":102304,"Organisatie":"Groene Hart Ziekenhuis","Name":"Groene Hart Ziekenhuis Polikliniek Schoonhoven","Type":"Buitenpolikliniek","Plaats":"Schoonhoven","Straat":"Oranjeplaats","Nummer":"21","Postcode":"2871 TL"},"geometry":{"type":"Point","coordinates":[4.84676,51.94583]}},{"type":"Feature","properties":{"Locatienummer":102305,"Organisatie":"Groene Hart Ziekenhuis","Name":"Groene Hart Ziekenhuis Bodegraven","Type":"Buitenpolikliniek","Plaats":"Bodegraven","Straat":"Willem de Zwijgerstraat","Nummer":"9","Postcode":"2411 VT"},"geometry":{"type":"Point","coordinates":[4.74868,52.08807]}},{"type":"Feature","properties":{"Locatienummer":103801,"Organisatie":"Haaglanden Medisch Centrum","Name":"HMC Antoniushove","Type":"Algemeen ziekenhuis","Plaats":"Leidschendam","Straat":"Burgemeester Banninglaan","Nummer":"1","Postcode":"2262 BA"},"geometry":{"type":"Point","coordinates":[4.38337,52.09291]}},{"type":"Feature","properties":{"Locatienummer":103802,"Organisatie":"Haaglanden Medisch Centrum","Name":"HMC Westeinde","Type":"Algemeen ziekenhuis","Plaats":"'s-Gravenhage","Straat":"Lijnbaan","Nummer":"32","Postcode":"2512 VA"},"geometry":{"type":"Point","coordinates":[4.30006,52.07386]}},{"type":"Feature","properties":{"Locatienummer":103805,"Organisatie":"Haaglanden Medisch Centrum","Name":"HMC Bronovo","Type":"Algemeen ziekenhuis","Plaats":"'s-Gravenhage","Straat":"Bronovolaan","Nummer":"5","Postcode":"2597 AX"},"geometry":{"type":"Point","coordinates":[4.318,52.10165]}},{"type":"Feature","properties":{"Locatienummer":103808,"Organisatie":"Haaglanden Medisch Centrum","Name":"HMC  Gezondheidscentrum Wassenaar","Type":"Buitenpolikliniek","Plaats":"Wassenaar","Straat":"Hofcampweg","Nummer":"65","Postcode":"2241 KE"},"geometry":{"type":"Point","coordinates":[4.39949,52.14665]}},{"type":"Feature","properties":{"Locatienummer":103811,"Organisatie":"Haaglanden Medisch Centrum","Name":"HMC Buitenpolikliniek Savallelaan","Type":"Buitenpolikliniek","Plaats":"Voorburg","Straat":"Savallelaan","Nummer":"2","Postcode":"2273 JX"},"geometry":{"type":"Point","coordinates":[4.35466,52.07911]}},{"type":"Feature","properties":{"Locatienummer":103812,"Organisatie":"Haaglanden Medisch Centrum","Name":"HMC Sport Medisch Centrum","Type":"Buitenpolikliniek","Plaats":"'s-Gravenhage","Straat":"Mr. P. Droogleever Fortuynweg","Nummer":"22","Postcode":"2533 SR"},"geometry":{"type":"Point","coordinates":[4.28862,52.0564]}},{"type":"Feature","properties":{"Locatienummer":102501,"Organisatie":"Havenpolikliniek","Name":"Havenziekenhuis","Type":"Havenziekenhuis","Plaats":"Rotterdam","Straat":"Haringvliet","Nummer":"2","Postcode":"3011 TD"},"geometry":{"type":"Point","coordinates":[4.4983,51.92049]}},{"type":"Feature","properties":{"Locatienummer":102503,"Organisatie":"Havenpolikliniek","Name":"Havenziekenhuis Locatie Buitenhaven","Type":"Buitenpolikliniek","Plaats":"Rotterdam","Straat":"Haringvliet","Nummer":"72","Postcode":"3011 TG"},"geometry":{"type":"Point","coordinates":[4.49554,51.91964]}},{"type":"Feature","properties":{"Locatienummer":106801,"Organisatie":"Het Van Weel-Bethesda Ziekenhuis","Name":"Het Van Weel-Bethesda Polikliniek Hellevoetsluis","Type":"Buitenpolikliniek","Plaats":"Hellevoetsluis","Straat":"Vliet","Nummer":"4","Postcode":"3224 HE"},"geometry":{"type":"Point","coordinates":[4.14895,51.83286]}},{"type":"Feature","properties":{"Locatienummer":106802,"Organisatie":"Het Van Weel-Bethesda Ziekenhuis","Name":"Het Van Weel-Bethesda Dirksland","Type":"Algemeen ziekenhuis","Plaats":"Dirksland","Straat":"Stationsweg","Nummer":"22","Postcode":"3247 BW"},"geometry":{"type":"Point","coordinates":[4.10199,51.75039]}},{"type":"Feature","properties":{"Locatienummer":106803,"Organisatie":"Het Van Weel-Bethesda Ziekenhuis","Name":"Het Van Weel-Bethesda Polikliniek Brielle","Type":"Buitenpolikliniek","Plaats":"Brielle","Straat":"Amer","Nummer":"21","Postcode":"3232 HA"},"geometry":{"type":"Point","coordinates":[4.17497,51.89738]}},{"type":"Feature","properties":{"Locatienummer":102601,"Organisatie":"IJsselland Ziekenhuis","Name":"IJsselland Ziekenhuis","Type":"Algemeen ziekenhuis","Plaats":"Capelle a/d IJssel","Straat":"Prins Constantijnweg","Nummer":"2","Postcode":"2906 ZC"},"geometry":{"type":"Point","coordinates":[4.56273,51.93871]}},{"type":"Feature","properties":{"Locatienummer":102602,"Organisatie":"IJsselland Ziekenhuis","Name":"IJsselland Ziekenhuis Buitenpolikliniek Nesselande","Type":"Buitenpolikliniek","Plaats":"Rotterdam","Straat":"Cypruslaan","Nummer":"410","Postcode":"3059 XA"},"geometry":{"type":"Point","coordinates":[4.6046,51.8785]}},{"type":"Feature","properties":{"Locatienummer":102603,"Organisatie":"IJsselland Ziekenhuis","Name":"IJsselland Ziekenhuis Buitenpolikliniek Krimpen","Type":"Buitenpolikliniek","Plaats":"Krimpen a/d Ijssel","Straat":"Groenendaal","Nummer":"1","Postcode":"2922 CJ"},"geometry":{"type":"Point","coordinates":[4.60122,51.92052]}},{"type":"Feature","properties":{"Locatienummer":102801,"Organisatie":"Ikazia Ziekenhuis","Name":"Ikazia Ziekenhuis","Type":"Algemeen ziekenhuis","Plaats":"Rotterdam","Straat":"Montessoriweg","Nummer":"1","Postcode":"3083 AN"},"geometry":{"type":"Point","coordinates":[4.49341,51.88635]}},{"type":"Feature","properties":{"Locatienummer":102802,"Organisatie":"Ikazia Ziekenhuis","Name":"Ikazia Ziekenhuis Buitenpolikliniek Carnisselande","Type":"Buitenpolikliniek","Plaats":"Barendrecht","Straat":"Middeldijkerplein","Nummer":"36","Postcode":"2993 DL"},"geometry":{"type":"Point","coordinates":[4.50053,51.84881]}},{"type":"Feature","properties":{"Locatienummer":102804,"Organisatie":"Ikazia Ziekenhuis","Name":"Ikazia Ziekenhuis Polikliniek Slikkerveer","Type":"Buitenpolikliniek","Plaats":"Ridderkerk","Straat":"Prinses Margrietstraat","Nummer":"42","Postcode":"2983 EH"},"geometry":{"type":"Point","coordinates":[6.21482,52.68961]}},{"type":"Feature","properties":{"Locatienummer":102902,"Organisatie":"Isala klinieken","Name":"Isala Zwolle","Type":"Algemeen ziekenhuis","Plaats":"Zwolle","Straat":"Dokter van Heesweg","Nummer":"2","Postcode":"8025 AB"},"geometry":{"type":"Point","coordinates":[6.12376,52.51341]}},{"type":"Feature","properties":{"Locatienummer":102903,"Organisatie":"Isala klinieken","Name":"Isala Polikliniek Kampen","Type":"Buitenpolikliniek","Plaats":"Kampen","Straat":"Engelenbergplantsoen","Nummer":"7","Postcode":"8266 AB"},"geometry":{"type":"Point","coordinates":[5.91934,52.55162]}},{"type":"Feature","properties":{"Locatienummer":102904,"Organisatie":"Isala klinieken","Name":"Isala Polikliniek Heerde","Type":"Buitenpolikliniek","Plaats":"Wapenveld","Straat":"Groteweg","Nummer":"5","Postcode":"8191 JS"},"geometry":{"type":"Point","coordinates":[6.05361,52.41253]}},{"type":"Feature","properties":{"Locatienummer":102905,"Organisatie":"Isala klinieken","Name":"Isala Diaconessenhuis Meppel","Type":"Algemeen ziekenhuis","Plaats":"Meppel","Straat":"Hoogeveenseweg","Nummer":"38","Postcode":"7943 KA"},"geometry":{"type":"Point","coordinates":[6.21742,52.69094]}},{"type":"Feature","properties":{"Locatienummer":102907,"Organisatie":"Isala klinieken","Name":"Isala Diaconessenhuis Steenwijk","Type":"Buitenpolikliniek","Plaats":"Steenwijk","Straat":"Sluisweg","Nummer":"2","Postcode":"8332 JC"},"geometry":{"type":"Point","coordinates":[6.12079,52.79342]}},{"type":"Feature","properties":{"Locatienummer":103004,"Organisatie":"Jeroen Bosch Ziekenhuis","Name":"Jeroen Bosch Ziekenhuis Boxtel","Type":"Buitenpolikliniek","Plaats":"Boxtel","Straat":"Liduinahof","Nummer":"35","Postcode":"5281 AD"},"geometry":{"type":"Point","coordinates":[5.32157,51.59399]}},{"type":"Feature","properties":{"Locatienummer":103005,"Organisatie":"Jeroen Bosch Ziekenhuis","Name":"Jeroen Bosch Ziekenhuis Zaltbommel","Type":"Buitenpolikliniek","Plaats":"Zaltbommel","Straat":"Kerkstraat","Nummer":"2","Postcode":"5301 EH"},"geometry":{"type":"Point","coordinates":[5.25015,51.81378]}},{"type":"Feature","properties":{"Locatienummer":103006,"Organisatie":"Jeroen Bosch Ziekenhuis","Name":"Jeroen Bosch Ziekenhuis Rosmalen","Type":"Buitenpolikliniek","Plaats":"Rosmalen","Straat":"De Hoef","Nummer":"90","Postcode":"5242 CN"},"geometry":{"type":"Point","coordinates":[5.37033,51.71364]}},{"type":"Feature","properties":{"Locatienummer":103007,"Organisatie":"Jeroen Bosch Ziekenhuis","Name":"Jeroen Bosch Ziekenhuis 's-Hertogenbosch","Type":"Algemeen ziekenhuis","Plaats":"'s-Hertogenbosch","Straat":"Henri Dunantstraat","Nummer":"1","Postcode":"5223 GZ"},"geometry":{"type":"Point","coordinates":[5.27723,51.68472]}},{"type":"Feature","properties":{"Locatienummer":103009,"Organisatie":"Jeroen Bosch Ziekenhuis","Name":"Sport Medisch Centrum Jeroen Bosch Ziekenhuis","Type":"Buitenpolikliniek","Plaats":"'s-Hertogenbosch","Straat":"Marathonloop","Nummer":"9","Postcode":"5235 AA"},"geometry":{"type":"Point","coordinates":[5.31619,51.72222]}},{"type":"Feature","properties":{"Locatienummer":103010,"Organisatie":"Jeroen Bosch Ziekenhuis","Name":"Jeoren Bosch Ziekenhuis Drunen","Type":"Buitenpolikliniek","Plaats":"Drunen","Straat":"Tinie de Munnikstraat","Nummer":"17","Postcode":"5151 VW"},"geometry":{"type":"Point","coordinates":[5.14385,51.69035]}},{"type":"Feature","properties":{"Locatienummer":103011,"Organisatie":"Jeroen Bosch Ziekenhuis","Name":"Jeroen Bosch Ziekenhuis Gamerschestraat","Type":"Buitenpolikliniek","Plaats":"Zaltbommel","Straat":"Gamerschestraat","Nummer":"32a","Postcode":"5301 AS"},"geometry":{"type":"Point","coordinates":[5.24561,51.81315]}},{"type":"Feature","properties":{"Locatienummer":103201,"Organisatie":"Laurentius Ziekenhuis","Name":"Laurentius Ziekenhuis","Type":"Algemeen ziekenhuis","Plaats":"Roermond","Straat":"Mgr. Driessenstraat","Nummer":"6","Postcode":"6043 CV"},"geometry":{"type":"Point","coordinates":[5.99885,51.19182]}},{"type":"Feature","properties":{"Locatienummer":103202,"Organisatie":"Laurentius Ziekenhuis","Name":"Laurentius Buitenpolikliniek Echt","Type":"Buitenpolikliniek","Plaats":"Echt","Straat":"Nobelweg","Nummer":"10","Postcode":"6101 XB"},"geometry":{"type":"Point","coordinates":[5.87499,51.11607]}},{"type":"Feature","properties":{"Locatienummer":103301,"Organisatie":"Leids Universitair Medisch Centrum","Name":"Leids Universitair Medisch Centrum","Type":"Academisch ziekenhuis","Plaats":"Leiden","Straat":"Albinusdreef","Nummer":"2","Postcode":"2333 ZA"},"geometry":{"type":"Point","coordinates":[4.47899,52.16626]}},{"type":"Feature","properties":{"Locatienummer":103302,"Organisatie":"Leids Universitair Medisch Centrum","Name":"Willem-Alexander Kinderziekenhuis","Type":"Kinderziekenhuis","Plaats":"Leiden","Straat":"Albinusdreef","Nummer":"2","Postcode":"2333 ZA"},"geometry":{"type":"Point","coordinates":[4.47899,52.16626]}},{"type":"Feature","properties":{"Locatienummer":103903,"Organisatie":"Maasstad ziekenhuis","Name":"Maasstad Ziekenhuis","Type":"Algemeen ziekenhuis","Plaats":"Rotterdam","Straat":"Maasstadweg","Nummer":"21","Postcode":"3079 DZ","Routekaart":"Concept ingeleverd"},"geometry":{"type":"Point","coordinates":[4.53507,51.87998]}},{"type":"Feature","properties":{"Locatienummer":100201,"Organisatie":"Maastricht UMC+","Name":"Maastricht UMC+","Type":"Academisch ziekenhuis","Plaats":"Maastricht","Straat":"P. Debijelaan","Nummer":"25","Postcode":"6229 HX","Routekaart":"Concept ingeleverd"},"geometry":{"type":"Point","coordinates":[5.71317,50.83519]}},{"type":"Feature","properties":{"Locatienummer":100202,"Organisatie":"Maastricht UMC+","Name":"Medisch centrum Annadal","Type":"Buitenpolikliniek","Plaats":"Maastricht","Straat":"Brouwersweg","Nummer":"100","Postcode":"6216 EG","Routekaart":"Concept ingeleverd"},"geometry":{"type":"Point","coordinates":[5.66932,50.84668]}},{"type":"Feature","properties":{"Locatienummer":100203,"Organisatie":"Maastricht UMC+","Name":"Stadspoli Oost","Type":"Buitenpolikliniek","Plaats":"Maastricht","Straat":"Vijverdalseweg","Nummer":"2-4","Postcode":"6224 NB","Routekaart":"Concept ingeleverd"},"geometry":{"type":"Point","coordinates":[6.55176,53.19166]}},{"type":"Feature","properties":{"Locatienummer":100204,"Organisatie":"Maastricht UMC+","Name":"Stadspoli West","Type":"Buitenpolikliniek","Plaats":"Maastricht","Straat":"Clavecymbelstraat","Nummer":"71A-77A","Postcode":"6217 CS","Routekaart":"Concept ingeleverd"},"geometry":{"type":"Point","coordinates":[5.66748,50.8593]}},{"type":"Feature","properties":{"Locatienummer":103401,"Organisatie":"Martini Ziekenhuis","Name":"Martini Ziekenhuis van Swieten","Type":"Algemeen ziekenhuis","Plaats":"Groningen","Straat":"Van Swietenlaan","Nummer":"1","Postcode":"9728 NT"},"geometry":{"type":"Point","coordinates":[6.55176,53.19166]}},{"type":"Feature","properties":{"Locatienummer":103501,"Organisatie":"Máxima Medisch Centrum","Name":"Máxima Medisch Centrum Veldhoven","Type":"Algemeen ziekenhuis","Plaats":"Veldhoven","Straat":"De Run","Nummer":"4600","Postcode":"5504 DB"},"geometry":{"type":"Point","coordinates":[5.41876,51.40583]}},{"type":"Feature","properties":{"Locatienummer":103502,"Organisatie":"Máxima Medisch Centrum","Name":"Máxima Medisch Centrum Eindhoven","Type":"Algemeen ziekenhuis","Plaats":"Eindhoven","Straat":"Ds. Th. Fliednerstraat","Nummer":"1","Postcode":"5631 BM"},"geometry":{"type":"Point","coordinates":[5.48787,51.45471]}},{"type":"Feature","properties":{"Locatienummer":103602,"Organisatie":"Meander Medisch Centrum","Name":"Meander Medisch Centrum Baarn","Type":"Algemeen ziekenhuis","Plaats":"Baarn","Straat":"Molenweg","Nummer":"2","Postcode":"3743 CM"},"geometry":{"type":"Point","coordinates":[5.27699,52.21481]}},{"type":"Feature","properties":{"Locatienummer":103604,"Organisatie":"Meander Medisch Centrum","Name":"Meander Medisch Centrum Amersfoort","Type":"Algemeen ziekenhuis","Plaats":"Amersfoort","Straat":"Maatweg","Nummer":"3","Postcode":"3813 TZ"},"geometry":{"type":"Point","coordinates":[5.37047,52.17108]}},{"type":"Feature","properties":{"Locatienummer":103606,"Organisatie":"Meander Medisch Centrum","Name":"Meander Medisch Centrum de Mulderij ","Type":"Buitenpolikliniek","Plaats":"Leusden","Straat":"De Mulderij","Nummer":"2","Postcode":"3831 NV"},"geometry":{"type":"Point","coordinates":[5.42905,52.13153]}},{"type":"Feature","properties":{"Locatienummer":103607,"Organisatie":"Meander Medisch Centrum","Name":"Meander Medisch Centrum Nijkerk","Type":"Buitenpolikliniek","Plaats":"Nijkerk","Straat":"Oranjelaan","Nummer":"83-85","Postcode":"3862 CX"},"geometry":{"type":"Point","coordinates":[5.49222,52.22314]}},{"type":"Feature","properties":{"Locatienummer":103608,"Organisatie":"Meander Medisch Centrum","Name":"Meander Medisch Centrum Barneveld","Type":"Buitenpolikliniek","Plaats":"Barneveld","Straat":"Nederwoudse weg","Postcode":"3772 TD"},"geometry":{"type":"Point","coordinates":[4.73613,52.62674]}},{"type":"Feature","properties":{"Locatienummer":103609,"Organisatie":"Meander Medisch Centrum","Name":"Meander Medisch Centrum Bunschoten","Type":"Buitenpolikliniek","Plaats":"Bunschoten-Spakenburg","Straat":"Chopinstraat","Nummer":"2D","Postcode":"3752 HR"},"geometry":{"type":"Point","coordinates":[4.74633,52.95824]}},{"type":"Feature","properties":{"Locatienummer":104001,"Organisatie":"Medisch Spectrum Twente","Name":"Medisch Spectrum Twente Ariënsplein","Type":"Buitenpolikliniek","Plaats":"Enschede","Straat":"Haaksbergerstraat","Nummer":"55","Postcode":"7513 ER"},"geometry":{"type":"Point","coordinates":[6.89136,52.21616]}},{"type":"Feature","properties":{"Locatienummer":104002,"Organisatie":"Medisch Spectrum Twente","Name":"Medisch Spectrum Twente Koningsplein","Type":"Algemeen ziekenhuis","Plaats":"Enschede","Straat":"Koningsplein","Nummer":"1","Postcode":"7512 KZ"},"geometry":{"type":"Point","coordinates":[6.89136,52.21616]}},{"type":"Feature","properties":{"Locatienummer":104003,"Organisatie":"Medisch Spectrum Twente","Name":"Medisch Spectrum Twente Oldenzaal","Type":"Buitenpolikliniek","Plaats":"Oldenzaal","Straat":"Pr. Bernhardstraat","Nummer":"17","Postcode":"7573 AM"},"geometry":{"type":"Point","coordinates":[6.93123,52.30813]}},{"type":"Feature","properties":{"Locatienummer":104004,"Organisatie":"Medisch Spectrum Twente","Name":"Medisch Spectrum Twente Buitenpolikliniek Haaksbergen","Type":"Buitenpolikliniek","Plaats":"Haaksbergen","Straat":"Wiedenbroeksingel","Nummer":"4","Postcode":"7481 BT"},"geometry":{"type":"Point","coordinates":[6.75262,52.15997]}},{"type":"Feature","properties":{"Locatienummer":106601,"Organisatie":"Nij Smellinghe","Name":"Nij Smellinghe","Type":"Algemeen ziekenhuis","Plaats":"Drachten","Straat":"Compagnonsplein","Nummer":"1","Postcode":"9202 NN"},"geometry":{"type":"Point","coordinates":[6.11086,53.09924]}},{"type":"Feature","properties":{"Locatienummer":103701,"Organisatie":"Noodwest Ziekenhuisgroep","Name":"Noordwest Ziekenhuisgroep  Alkmaar","Type":"Algemeen ziekenhuis","Plaats":"Alkmaar","Straat":"Wilhelminalaan","Nummer":"12","Postcode":"1815 JD"},"geometry":{"type":"Point","coordinates":[4.73716,52.6281]}},{"type":"Feature","properties":{"Locatienummer":103702,"Organisatie":"Noodwest Ziekenhuisgroep","Name":"Noordwest Ziekenhuisgroep  Den Helder","Type":"Algemeen ziekenhuis","Plaats":"Den Helder","Straat":"Huisduinerweg","Nummer":"3","Postcode":"1782 GZ"},"geometry":{"type":"Point","coordinates":[4.74461,52.95796]}},{"type":"Feature","properties":{"Locatienummer":103703,"Organisatie":"Noodwest Ziekenhuisgroep","Name":"Noordwest Ziekenhuisgroep  Schagen","Type":"Buitenpolikliniek","Plaats":"Schagen","Straat":"Kaagweg","Nummer":"25","Postcode":"1741 LC"},"geometry":{"type":"Point","coordinates":[4.80816,52.78329]}},{"type":"Feature","properties":{"Locatienummer":103704,"Organisatie":"Noodwest Ziekenhuisgroep","Name":"Noordwest Ziekenhuisgroep  Polikliniek Texel","Type":"Buitenpolikliniek","Plaats":"Den Burg","Straat":"Pontweg","Nummer":"106","Postcode":"1791 LB"},"geometry":{"type":"Point","coordinates":[4.78722,53.05578]}},{"type":"Feature","properties":{"Locatienummer":103705,"Organisatie":"Noodwest Ziekenhuisgroep","Name":"Noordwest Ziekenhuisgroep  Heerhugowaard","Type":"Buitenpolikliniek","Plaats":"Heerhugowaard","Straat":"Stationsplein","Nummer":"49","Postcode":"1703 WD"},"geometry":{"type":"Point","coordinates":[4.82293,52.66916]}},{"type":"Feature","properties":{"Locatienummer":103706,"Organisatie":"Noodwest Ziekenhuisgroep","Name":"Noordwest Ziekenhuisgroep  Limmen","Type":"Buitenpolikliniek","Plaats":"Limmen","Straat":"Zonnedauw","Nummer":"1906","Postcode":"1906 HA"},"geometry":{"type":"Point","coordinates":[4.53609,51.87946]}},{"type":"Feature","properties":{"Locatienummer":107404,"Organisatie":"Ommelander Ziekenhuis Groep","Name":"Ommelander Ziekenhuis Groep Ziekenhuis Scheemda","Type":"Algemeen ziekenhuis","Plaats":"Scheemda","Straat":"Pastorieweg","Nummer":"1","Postcode":"9679 BJ"},"geometry":{"type":"Point","coordinates":[6.86439,53.10337]}},{"type":"Feature","properties":{"Locatienummer":107405,"Organisatie":"Ommelander Ziekenhuis Groep","Name":"Ommelander Ziekenhuis Groep Servicepunt  Veendam","Type":"Buitenpolikliniek","Plaats":"Veendam","Straat":"Kaap de Goede Hoop","Nummer":"1","Postcode":"9642 AP"},"geometry":{"type":"Point","coordinates":[6.86401,53.10315]}},{"type":"Feature","properties":{"Locatienummer":107406,"Organisatie":"Ommelander Ziekenhuis Groep","Name":"Ommelander Ziekenhuis Groep Servicepunt Delfzijl","Type":"Buitenpolikliniek","Plaats":"Delfzijl","Straat":"Schoolstraat","Nummer":"7","Postcode":"9934 CD"},"geometry":{"type":"Point","coordinates":[6.9256,53.33104]}},{"type":"Feature","properties":{"Locatienummer":106301,"Organisatie":"Onze Lieve Vrouwe Gasthuis","Name":"Onze Lieve Vrouwe Gasthuis locatie Oost","Type":"Algemeen ziekenhuis","Plaats":"Amsterdam","Straat":"Oosterpark","Nummer":"9","Postcode":"1091 AC"},"geometry":{"type":"Point","coordinates":[4.91692,52.3584]}},{"type":"Feature","properties":{"Locatienummer":106302,"Organisatie":"Onze Lieve Vrouwe Gasthuis","Name":"Onze Lieve Vrouwe Gasthuis Spuistraat","Type":"Buitenpolikliniek","Plaats":"Amsterdam","Straat":"Spuistraat","Nummer":"239A","Postcode":"1012 VP"},"geometry":{"type":"Point","coordinates":[4.88941,52.37101]}},{"type":"Feature","properties":{"Locatienummer":106303,"Organisatie":"Onze Lieve Vrouwe Gasthuis","Name":"Onze Lieve Vrouwe Gasthuis IJburg","Type":"Buitenpolikliniek","Plaats":"Amsterdam","Straat":"IJburglaan","Nummer":"727","Postcode":"1087 CH"},"geometry":{"type":"Point","coordinates":[4.9913,52.35766]}},{"type":"Feature","properties":{"Locatienummer":106304,"Organisatie":"Onze Lieve Vrouwe Gasthuis","Name":"Onze Lieve Vrouwe Gasthuis locatie West","Type":"Algemeen ziekenhuis","Plaats":"Amsterdam","Straat":"Jan Tooropstraat","Nummer":"164","Postcode":"1061 AE"},"geometry":{"type":"Point","coordinates":[4.83919,52.37126]}},{"type":"Feature","properties":{"Locatienummer":104602,"Organisatie":"Pantein","Name":"Maasziekenhuis Pantein","Type":"Algemeen ziekenhuis","Plaats":"Beugen","Straat":"Dokter Kopstraat","Nummer":"11","Postcode":"5835 DV"},"geometry":{"type":"Point","coordinates":[5.94037,51.6633]}},{"type":"Feature","properties":{"Locatienummer":109901,"Organisatie":"Prinses Máxima Centrum voor kinderoncologie","Name":"Prinses Máxima Centrum","Type":"Kinderziekenhuis","Plaats":"Utrecht","Straat":"Heidelberglaan","Nummer":"25","Postcode":"3584 CS"},"geometry":{"type":"Point","coordinates":[5.18332,52.08989]}},{"type":"Feature","properties":{"Locatienummer":100401,"Organisatie":"Rijnstate Ziekenhuis","Name":"Rijnstate Ziekenhuis","Type":"Algemeen ziekenhuis","Plaats":"Arnhem","Straat":"Wagnerlaan","Nummer":"55","Postcode":"6815 AD","Routekaart":"Definitief ingeleverd"},"geometry":{"type":"Point","coordinates":[5.90948,52.0006]}},{"type":"Feature","properties":{"Locatienummer":100402,"Organisatie":"Rijnstate Ziekenhuis","Name":"Rijnstate Ziekenhuis Zevenaar","Type":"Algemeen ziekenhuis","Plaats":"Zevenaar","Straat":"Hunneveldweg","Nummer":"14A","Postcode":"6903 ZN","Routekaart":"Definitief ingeleverd"},"geometry":{"type":"Point","coordinates":[6.07007,51.94274]}},{"type":"Feature","properties":{"Locatienummer":100403,"Organisatie":"Rijnstate Ziekenhuis","Name":"Rijnstate Polikliniek Arnhem-zuid","Type":"Buitenpolikliniek","Plaats":"Arnhem","Straat":"Marga Klompélaan","Nummer":"6","Postcode":"6836 BH","Routekaart":"Definitief ingeleverd"},"geometry":{"type":"Point","coordinates":[5.88465,51.94935]}},{"type":"Feature","properties":{"Locatienummer":100404,"Organisatie":"Rijnstate Ziekenhuis","Name":"Rijnstate Ziekenhuis Velp","Type":"Buitenpolikliniek","Plaats":"Velp Gld","Straat":"President Kennedylaan","Nummer":"100","Postcode":"6883 AZ","Routekaart":"Definitief ingeleverd"},"geometry":{"type":"Point","coordinates":[5.97648,51.98635]}},{"type":"Feature","properties":{"Locatienummer":105001,"Organisatie":"Rivas Zorggroep","Name":"Rivas Zorggroep Beatrixziekenhuis","Type":"Algemeen ziekenhuis","Plaats":"Gorinchem","Straat":"Banneweg","Nummer":"57","Postcode":"4204 AA"},"geometry":{"type":"Point","coordinates":[4.95768,51.83864]}},{"type":"Feature","properties":{"Locatienummer":105002,"Organisatie":"Rivas Zorggroep","Name":"Rivas Zorggroep Lingepolikliniek","Type":"Buitenpolikliniek","Plaats":"Leerdam","Straat":"Lingesteynplantsoen","Nummer":"3","Postcode":"4141 GH"},"geometry":{"type":"Point","coordinates":[5.10682,51.89128]}},{"type":"Feature","properties":{"Locatienummer":105101,"Organisatie":"Rode Kruis Ziekenhuis","Name":"Rode Kruis Ziekenhuis Beverwijk","Type":"Algemeen ziekenhuis","Plaats":"Beverwijk","Straat":"Vondellaan","Nummer":"13","Postcode":"1942 LE","Routekaart":"Concept ingeleverd"},"geometry":{"type":"Point","coordinates":[4.65089,52.47927]}},{"type":"Feature","properties":{"Locatienummer":105401,"Organisatie":"Santiz","Name":"Slingeland Ziekenhuis","Type":"Algemeen ziekenhuis","Plaats":"Doetinchem","Straat":"Kruisbergseweg","Nummer":"25","Postcode":"7009 BL"},"geometry":{"type":"Point","coordinates":[6.28559,51.97649]}},{"type":"Feature","properties":{"Locatienummer":105402,"Organisatie":"Santiz","Name":"Slingeland Ziekenhuis Locatie Gezellenlaan","Type":"Buitenpolikliniek","Plaats":"Doetiechem","Straat":"Gezellenlaan","Nummer":"10","Postcode":"7005 AZ"},"geometry":{"type":"Point","coordinates":[6.30121,51.95448]}},{"type":"Feature","properties":{"Locatienummer":105404,"Organisatie":"Santiz","Name":"Streekziekenhuis Koningin Beatrix","Type":"Algemeen ziekenhuis","Plaats":"Winterswijk","Straat":"Beatrixpark","Nummer":"1","Postcode":"7101 BN"},"geometry":{"type":"Point","coordinates":[6.70167,51.97852]}},{"type":"Feature","properties":{"Locatienummer":105407,"Organisatie":"Santiz","Name":"Streekziekenhuis Koningin Beatrix Buitenpoli Eibergen","Type":"Buitenpolikliniek","Plaats":"Eibergen","Straat":"J W Hagemanstraat","Nummer":"46-2","Postcode":"7151 AH"},"geometry":{"type":"Point","coordinates":[6.65062,52.10074]}},{"type":"Feature","properties":{"Locatienummer":105301,"Organisatie":"Saxenburgh Groep","Name":"Saxenburgh Groep Ziekenhuis Röpcke Zweers","Type":"Algemeen ziekenhuis","Plaats":"Hardenberg","Straat":"Jan Weitkamplaan","Nummer":"4a","Postcode":"7772 SE"},"geometry":{"type":"Point","coordinates":[6.63222,52.57189]}},{"type":"Feature","properties":{"Locatienummer":105303,"Organisatie":"Saxenburgh Groep","Name":"Saxenburgh Groep Polikliniek Ommen","Type":"Buitenpolikliniek","Plaats":"Ommen","Straat":"Hessel Mulertstraat","Nummer":"22","Postcode":"7731 CL"},"geometry":{"type":"Point","coordinates":[6.42959,52.51874]}},{"type":"Feature","properties":{"Locatienummer":105305,"Organisatie":"Saxenburgh Groep","Name":"Saxenburgh Groep Polikliniek Westhaar","Type":"Buitenpolikliniek","Plaats":"Westerhaar","Straat":"Beeklaan","Nummer":"1","Postcode":"7676 BC"},"geometry":{"type":"Point","coordinates":[6.6205,52.45605]}},{"type":"Feature","properties":{"Locatienummer":103101,"Organisatie":"Spaarne Gasthuis","Name":"Spaarne Gasthuis locatie Haarlem-Zuid","Type":"Algemeen ziekenhuis","Plaats":"Haarlem","Straat":"Boerhaavelaan","Nummer":"22","Postcode":"2035 RC"},"geometry":{"type":"Point","coordinates":[4.65186,52.36635]}},{"type":"Feature","properties":{"Locatienummer":103102,"Organisatie":"Spaarne Gasthuis","Name":"Spaarne Gasthuis locatie Haarlem-Noord","Type":"Algemeen ziekenhuis","Plaats":"Haarlem","Straat":"Vondelweg","Nummer":"999","Postcode":"2026 BW"},"geometry":{"type":"Point","coordinates":[4.65001,52.42269]}},{"type":"Feature","properties":{"Locatienummer":103103,"Organisatie":"Spaarne Gasthuis","Name":"Spaarne Gasthuis Hoofddorp","Type":"Algemeen ziekenhuis","Plaats":"Hoofddorp","Straat":"Spaarnepoort","Nummer":"1","Postcode":"2134 TM"},"geometry":{"type":"Point","coordinates":[4.65331,52.32454]}},{"type":"Feature","properties":{"Locatienummer":103104,"Organisatie":"Spaarne Gasthuis","Name":"Spaarne Gasthuis  Heemstede","Type":"Buitenpolikliniek","Plaats":"Heemstede","Straat":"Händellaan","Nummer":"2","Postcode":"2102 CW"},"geometry":{"type":"Point","coordinates":[4.63353,52.355]}},{"type":"Feature","properties":{"Locatienummer":103105,"Organisatie":"Spaarne Gasthuis","Name":"Spaarne ziekenhuis Nieuw Vennep","Type":"Buitenpolikliniek","Plaats":"Nieuw Vennep","Straat":"Lucas Bolsstraat","Nummer":"10","Postcode":"2152 CZ"},"geometry":{"type":"Point","coordinates":[4.62996,52.27211]}},{"type":"Feature","properties":{"Locatienummer":103106,"Organisatie":"Spaarne Gasthuis","Name":"Spaarne Ziekenhuis Polikliniek Hillegom","Type":"Buitenpolikliniek","Plaats":"Hillegom","Straat":"Abellalaan","Nummer":"1","Postcode":"2182 TX"},"geometry":{"type":"Point","coordinates":[4.57809,52.28525]}},{"type":"Feature","properties":{"Locatienummer":103107,"Organisatie":"Spaarne Gasthuis","Name":"Spaarne Gasthuis  Velsen-Noord","Type":"Buitenpolikliniek","Plaats":"Velsen-Noord","Straat":"Wijkstraatweg","Nummer":"160","Postcode":"1951 EK"},"geometry":{"type":"Point","coordinates":[4.64578,52.47143]}},{"type":"Feature","properties":{"Locatienummer":105201,"Organisatie":"Spijkenisse Medisch Centrum","Name":"Spijkenisse Medisch Centrum","Type":"Algemeen ziekenhuis","Plaats":"Spijkenisse","Straat":"Ruwaard van Puttenweg","Nummer":"500","Postcode":"3201 GZ"},"geometry":{"type":"Point","coordinates":[4.33665,51.84677]}},{"type":"Feature","properties":{"Locatienummer":105202,"Organisatie":"Spijkenisse Medisch Centrum","Name":"Spijkenisse Medisch Centrum Buitenpoli Hoogvliet","Type":"Buitenpolikliniek","Plaats":"Hoogvliet","Straat":"Oude Wal","Nummer":"24L","Postcode":"3193 EN"},"geometry":{"type":"Point","coordinates":[5.70226,52.53828]}},{"type":"Feature","properties":{"Locatienummer":105203,"Organisatie":"Spijkenisse Medisch Centrum","Name":"Spijkenisse Medisch Centrum Buitenpoli Rozenburg","Type":"Buitenpolikliniek","Plaats":"Rozenburg","Straat":"Blankenburg","Nummer":"6","Postcode":"3181 BC"},"geometry":{"type":"Point","coordinates":[4.25587,51.90126]}},{"type":"Feature","properties":{"Locatienummer":105701,"Organisatie":"St. Anna Zorggroep","Name":"St. Anna Ziekenhuis Geldrop","Type":"Algemeen ziekenhuis","Plaats":"Geldrop","Straat":"Bogardeind","Nummer":"2","Postcode":"5664 EH"},"geometry":{"type":"Point","coordinates":[5.55855,51.41985]}},{"type":"Feature","properties":{"Locatienummer":105702,"Organisatie":"St. Anna Zorggroep","Name":"St. Anna Ziekenhuis Eindhoven","Type":"Buitenpolikliniek","Plaats":"Eindhoven","Straat":"Antoon Coolenlaan","Nummer":"1-03","Postcode":"5644 RX"},"geometry":{"type":"Point","coordinates":[5.4768,51.41644]}},{"type":"Feature","properties":{"Locatienummer":105801,"Organisatie":"St. Antonius Ziekenhuis","Name":"St. Antonius Ziekenhuis Nieuwegein","Type":"Algemeen ziekenhuis","Plaats":"Nieuwegein","Straat":"Koekoekslaan","Nummer":"1","Postcode":"3435 CM"},"geometry":{"type":"Point","coordinates":[5.08058,52.02439]}},{"type":"Feature","properties":{"Locatienummer":105804,"Organisatie":"St. Antonius Ziekenhuis","Name":"St. Antonius Ziekenhuis Polikliniek Houten","Type":"Buitenpolikliniek","Plaats":"Houten","Straat":"Hofspoor","Nummer":"2","Postcode":"3994 VT"},"geometry":{"type":"Point","coordinates":[5.17774,52.0251]}},{"type":"Feature","properties":{"Locatienummer":105806,"Organisatie":"St. Antonius Ziekenhuis","Name":"St. Antonius Ziekenhuis Utrecht","Type":"Algemeen ziekenhuis","Plaats":"Utrecht","Straat":"Soestwetering","Nummer":"1","Postcode":"3543 AZ"},"geometry":{"type":"Point","coordinates":[5.05721,52.10372]}},{"type":"Feature","properties":{"Locatienummer":105807,"Organisatie":"St. Antonius Ziekenhuis","Name":"St. Antonius Ziekenhuis Spatadercentrum","Type":"Buitenpolikliniek","Plaats":"Utrecht","Straat":"Van Lawick van Pabstlaan","Nummer":"12","Postcode":"3453 RB"},"geometry":{"type":"Point","coordinates":[5.01908,52.08269]}},{"type":"Feature","properties":{"Locatienummer":105808,"Organisatie":"St. Antonius Ziekenhuis","Name":"St. Antonius Ziekenhuis Polikliniek Overvecht","Type":"Buitenpolikliniek","Plaats":"Utrecht","Straat":"Neckardreef","Nummer":"6","Postcode":"3562 CN"},"geometry":{"type":"Point","coordinates":[5.12268,52.11478]}},{"type":"Feature","properties":{"Locatienummer":105809,"Organisatie":"St. Antonius Ziekenhuis","Name":"St. Antonius Ziekenhuis Woerden","Type":"Algemeen ziekenhuis","Plaats":"Woerden","Straat":"Polanerbaan","Nummer":"2","Postcode":"3447 GN"},"geometry":{"type":"Point","coordinates":[4.89182,52.07989]}},{"type":"Feature","properties":{"Locatienummer":105810,"Organisatie":"St. Antonius Ziekenhuis","Name":"St. Antonius Ziekenhuis Polikliniek Mijdrecht","Type":"Buitenpolikliniek","Plaats":"Mijdrecht","Straat":"Hoofdweg","Nummer":"1","Postcode":"3641 PN"},"geometry":{"type":"Point","coordinates":[4.86323,52.20577]}},{"type":"Feature","properties":{"Locatienummer":105812,"Organisatie":"St. Antonius Ziekenhuis","Name":"St. Antonius Ziekenhuis Dialysecentrum Tiel","Type":"Buitenpolikliniek","Plaats":"Tiel","Straat":"President Kennedylaan","Nummer":"1","Postcode":"4201 WT"},"geometry":{"type":"Point","coordinates":[5.41559,51.88936]}},{"type":"Feature","properties":{"Locatienummer":106101,"Organisatie":"St. Jans Gasthuis","Name":"St. Jans Gasthuis","Type":"Algemeen ziekenhuis","Plaats":"Weert","Straat":"Vogelsbleek","Nummer":"5","Postcode":"6001 BE"},"geometry":{"type":"Point","coordinates":[5.71282,51.25434]}},{"type":"Feature","properties":{"Locatienummer":106102,"Organisatie":"St. Jans Gasthuis","Name":"St. Jans Gasthuis Buitenpoli Budel","Type":"Buitenpolikliniek","Plaats":"Budel","Straat":"Grensweg","Nummer":"1","Postcode":"6021 JW"},"geometry":{"type":"Point","coordinates":[5.57182,51.26437]}},{"type":"Feature","properties":{"Locatienummer":102401,"Organisatie":"Stichting Reinier Haga Groep","Name":"HagaZiekenhuis Leyweg","Type":"Algemeen ziekenhuis","Plaats":"'s-Gravenhage","Straat":"Els Borst-Eilersplein","Nummer":"275","Postcode":"2545 AA","Routekaart":"Concept ingeleverd"},"geometry":{"type":"Point","coordinates":[4.26384,52.05663]}},{"type":"Feature","properties":{"Locatienummer":102402,"Organisatie":"Stichting Reinier Haga Groep","Name":"HagaZiekenhuis Sportlaan","Type":"Algemeen ziekenhuis","Plaats":"'s-Gravenhage","Straat":"Sportlaan","Nummer":"600","Postcode":"2566 MJ","Routekaart":"Concept ingeleverd"},"geometry":{"type":"Point","coordinates":[4.26422,52.08142]}},{"type":"Feature","properties":{"Locatienummer":102403,"Organisatie":"Stichting Reinier Haga Groep","Name":"HagaZiekenhuis Juliana Kinderziekenhuis","Type":"Kinderziekenhuis","Plaats":"'s-Gravenhage","Straat":"Els Borst-Eilersplein","Nummer":"275","Postcode":"2566 AA","Routekaart":"Concept ingeleverd"},"geometry":{"type":"Point","coordinates":[5.20776,52.26764]}},{"type":"Feature","properties":{"Locatienummer":102404,"Organisatie":"Stichting Reinier Haga Groep","Name":"HagaZiekenhuis Zorgplein Westland","Type":"Buitenpolikliniek","Plaats":"’s-Gravenzande","Straat":"Zandeveltplein","Nummer":"3","Postcode":"2692 AH","Routekaart":"Concept ingeleverd"},"geometry":{"type":"Point","coordinates":[4.15832,52.00229]}},{"type":"Feature","properties":{"Locatienummer":102405,"Organisatie":"Stichting Reinier Haga Groep","Name":"Reinier de Graaf Diaconessenhuis Voorburg","Type":"Algemeen ziekenhuis","Plaats":"Voorburg","Straat":"Fonteynenburghlaan","Nummer":"5","Postcode":"2275 CX","Routekaart":"Concept ingeleverd"},"geometry":{"type":"Point","coordinates":[4.35139,52.06107]}},{"type":"Feature","properties":{"Locatienummer":102406,"Organisatie":"Stichting Reinier Haga Groep","Name":"Reinier de Graaf  Ypenburg","Type":"Buitenpolikliniek","Plaats":"'s-Gravenhage","Straat":"Kiekendiefstraat","Nummer":"17","Postcode":"2496 RP","Routekaart":"Concept ingeleverd"},"geometry":{"type":"Point","coordinates":[4.38543,52.05158]}},{"type":"Feature","properties":{"Locatienummer":102407,"Organisatie":"Stichting Reinier Haga Groep","Name":"Reinier de Graaf Naaldwijk","Type":"Buitenpolikliniek","Plaats":"Naaldwijk","Straat":"Middelbroekweg","Nummer":"2a","Postcode":"2671 ME","Routekaart":"Concept ingeleverd"},"geometry":{"type":"Point","coordinates":[4.21647,51.99013]}},{"type":"Feature","properties":{"Locatienummer":102408,"Organisatie":"Stichting Reinier Haga Groep","Name":"Reinier de Graaf Gasthuis","Type":"Algemeen ziekenhuis","Plaats":"Delft","Straat":"Reinier de Graafweg","Nummer":"5","Postcode":"2625 AD","Routekaart":"Concept ingeleverd"},"geometry":{"type":"Point","coordinates":[4.33929,51.99803]}},{"type":"Feature","properties":{"Locatienummer":102410,"Organisatie":"Stichting Reinier Haga Groep","Name":"LangeLand Ziekenhuis","Type":"Algemeen ziekenhuis","Plaats":"Zoetermeer","Straat":"Toneellaan","Nummer":"1","Postcode":"2725 NA","Routekaart":"Concept ingeleverd"},"geometry":{"type":"Point","coordinates":[4.49965,52.06892]}},{"type":"Feature","properties":{"Locatienummer":102412,"Organisatie":"Stichting Reinier Haga Groep","Name":"Langeland Ziekenhuis Huidkliniek en Plastische chirurgie","Type":"Buitenpolikliniek","Plaats":"Zoetermeer","Straat":"Europaweg","Nummer":"151","Postcode":"2711 ER","Routekaart":"Concept ingeleverd"},"geometry":{"type":"Point","coordinates":[4.49426,52.06385]}},{"type":"Feature","properties":{"Locatienummer":106901,"Organisatie":"Tergooiziekenhuizen","Name":"Tergooiziekenhuizen Hilversum","Type":"Algemeen ziekenhuis","Plaats":"Hilversum","Straat":"van Riebeeckweg","Nummer":"212","Postcode":"1213 XZ"},"geometry":{"type":"Point","coordinates":[5.20154,52.21692]}},{"type":"Feature","properties":{"Locatienummer":106902,"Organisatie":"Tergooiziekenhuizen","Name":"Tergooiziekenhuizen Blaricum","Type":"Algemeen ziekenhuis","Plaats":"Blaricum","Straat":"Rijksstraatweg","Nummer":"1","Postcode":"1261 AN"},"geometry":{"type":"Point","coordinates":[5.20767,52.26765]}},{"type":"Feature","properties":{"Locatienummer":106903,"Organisatie":"Tergooiziekenhuizen","Name":"Tergooiziekenhuizen Buitenpoli Weesp","Type":"Buitenpolikliniek","Plaats":"Weesp","Straat":"Korte Muiderweg 2A","Postcode":"1382 LR"},"geometry":{"type":"Point","coordinates":[6.92531,53.33067]}},{"type":"Feature","properties":{"Locatienummer":109301,"Organisatie":"Treant Zorggroep","Name":"Ziekehuislocatie Scheper Emmen","Type":"Algemeen ziekenhuis","Plaats":"Emmen","Straat":"Boermarkeweg","Nummer":"60","Postcode":"7824 AA"},"geometry":{"type":"Point","coordinates":[6.91357,52.78608]}},{"type":"Feature","properties":{"Locatienummer":109302,"Organisatie":"Treant Zorggroep","Name":"Ziekenhuislocatie Bethesda Hoogeveen","Type":"Algemeen ziekenhuis","Plaats":"Hoogeveen","Straat":"Dr. G.H. Amshoffweg","Nummer":"1","Postcode":"7909 AA"},"geometry":{"type":"Point","coordinates":[6.46029,52.72679]}},{"type":"Feature","properties":{"Locatienummer":109303,"Organisatie":"Treant Zorggroep","Name":"Ziekenhuislocatie Refaja Stadskanaal","Type":"Algemeen ziekenhuis","Plaats":"Stadskanaal","Straat":"Boerhaavestraat","Nummer":"1","Postcode":"9501 HE"},"geometry":{"type":"Point","coordinates":[6.93581,53.00193]}},{"type":"Feature","properties":{"Locatienummer":109304,"Organisatie":"Treant Zorggroep","Name":"Buitenpoli Veenkade","Type":"Buitenpolikliniek","Plaats":"Veendam","Straat":"Kaap de Goede Hoop","Nummer":"1","Postcode":"9642 AP"},"geometry":{"type":"Point","coordinates":[6.86401,53.10315]}},{"type":"Feature","properties":{"Locatienummer":107401,"Organisatie":"Universitair Medisch Centrum Groningen","Name":"Universitair Medisch Centrum Groningen","Type":"Academisch ziekenhuis","Plaats":"Groningen","Straat":"Hanzeplein","Nummer":"1","Postcode":"9713 GZ","Routekaart":"Concept ingeleverd"},"geometry":{"type":"Point","coordinates":[6.57709,53.22102]}},{"type":"Feature","properties":{"Locatienummer":107402,"Organisatie":"Universitair Medisch Centrum Groningen","Name":"Universitair Medisch Centrum Groningen Beatrixoord","Type":"Buitenpolikliniek","Plaats":"Haren","Straat":"Dilgtweg","Nummer":"5","Postcode":"9751 ND","Routekaart":"Concept ingeleverd"},"geometry":{"type":"Point","coordinates":[6.59944,53.18242]}},{"type":"Feature","properties":{"Locatienummer":107501,"Organisatie":"Universitair Medisch Centrum St. Radboud","Name":"Universitair Medisch Centrum St. Radboud","Type":"Academisch ziekenhuis","Plaats":"Nijmegen","Straat":"G. Grooteplein-Zuid","Nummer":"10","Postcode":"6525 GA","Routekaart":"Concept ingeleverd"},"geometry":{"type":"Point","coordinates":[5.85982,51.82361]}},{"type":"Feature","properties":{"Locatienummer":107502,"Organisatie":"Universitair Medisch Centrum St. Radboud","Name":"Radboud UMC Amalia kinderziekenhuis","Type":"Kinderziekenhuis","Plaats":"Nijmegen","Straat":"Geert Grooteplein-Zuid","Nummer":"10","Postcode":"6525 GA","Routekaart":"Concept ingeleverd"},"geometry":{"type":"Point","coordinates":[5.85982,51.82361]}},{"type":"Feature","properties":{"Locatienummer":107601,"Organisatie":"Universitair Medisch Centrum Utrecht","Name":"Universitair Medisch Centrum Utrecht","Type":"Academisch ziekenhuis","Plaats":"Utrecht","Straat":"Heidelberglaan","Nummer":"100","Postcode":"3584 CX"},"geometry":{"type":"Point","coordinates":[5.1796,52.08602]}},{"type":"Feature","properties":{"Locatienummer":107602,"Organisatie":"Universitair Medisch Centrum Utrecht","Name":"Universitair Medisch Centrum Utrecht Wilhelmina Kinderziekenhuis","Type":"Kinderziekenhuis","Plaats":"Utrecht","Straat":"Lundlaan","Nummer":"6","Postcode":"3584 EA"},"geometry":{"type":"Point","coordinates":[5.18127,52.09036]}},{"type":"Feature","properties":{"Locatienummer":107701,"Organisatie":"VieCuri Medisch Centrum","Name":"VieCuri Medisch Centrum Venlo","Type":"Algemeen ziekenhuis","Plaats":"Venlo","Straat":"Tegelseweg","Nummer":"210","Postcode":"5912 BL"},"geometry":{"type":"Point","coordinates":[6.15402,51.35675]}},{"type":"Feature","properties":{"Locatienummer":107702,"Organisatie":"VieCuri Medisch Centrum","Name":"VieCuri Medisch Centrum Venray","Type":"Algemeen ziekenhuis","Plaats":"Venray","Straat":"Merseloseweg","Nummer":"130","Postcode":"5801CE"},"geometry":{"type":"Point","coordinates":[5.95948,51.52721]}},{"type":"Feature","properties":{"Locatienummer":107703,"Organisatie":"VieCuri Medisch Centrum","Name":"VieCuri Medisch Centrum Regiopoli Horst","Type":"Buitenpolikliniek","Plaats":"Horst","Straat":"Westsingel","Nummer":"100","Postcode":"5961 DH"},"geometry":{"type":"Point","coordinates":[6.04681,51.44992]}},{"type":"Feature","properties":{"Locatienummer":107704,"Organisatie":"VieCuri Medisch Centrum","Name":"VieCuri Medisch Centrum Regiopoli Panningen","Type":"Buitenpolikliniek","Plaats":"Panningen","Straat":"John F. Kennedylaan","Nummer":"321","Postcode":"5981 WZ"},"geometry":{"type":"Point","coordinates":[4.4643,51.94523]}},{"type":"Feature","properties":{"Locatienummer":107705,"Organisatie":"VieCuri Medisch Centrum","Name":"VieCuri Medisch Centrum Regiopoli Reuver","Type":"Buitenpolikliniek","Plaats":"Reuver","Straat":"Broeklaan","Nummer":"4","Postcode":"5953 NB"},"geometry":{"type":"Point","coordinates":[4.49645,51.92001]}},{"type":"Feature","properties":{"Locatienummer":108201,"Organisatie":"Wilhelmina Ziekenhuis Assen","Name":"Wilhelmina Ziekenhuis Assen","Type":"Algemeen ziekenhuis","Plaats":"Assen","Straat":"Europaweg-Zuid","Nummer":"1","Postcode":"9401 RK"},"geometry":{"type":"Point","coordinates":[6.5648,52.98355]}},{"type":"Feature","properties":{"Locatienummer":108202,"Organisatie":"Wilhelmina Ziekenhuis Assen","Name":"Het Medisch Centrum Wilhelmina","Type":"Buitenpolikliniek","Plaats":"Assen","Straat":"Borgstee","Nummer":"17","Postcode":"9403 TS"},"geometry":{"type":"Point","coordinates":[6.57045,53.01337]}},{"type":"Feature","properties":{"Locatienummer":108301,"Organisatie":"Zaans Medisch Centrum","Name":"Zaans Medisch Centrum","Type":"Algemeen ziekenhuis","Plaats":"Zaandam","Straat":"Koningin Julianaplein","Nummer":"58","Postcode":"1502 DV"},"geometry":{"type":"Point","coordinates":[4.82555,52.45336]}},{"type":"Feature","properties":{"Locatienummer":108302,"Organisatie":"Zaans Medisch Centrum","Name":"Zaans Medisch Centrum Polikliniek Saendelft","Type":"Buitenpolikliniek","Plaats":"Assendelft","Straat":"Kaaikhof","Nummer":"69","Postcode":"1567 JP"},"geometry":{"type":"Point","coordinates":[4.75224,52.48868]}},{"type":"Feature","properties":{"Locatienummer":108401,"Organisatie":"Ziekenhuis Amstelland","Name":"Ziekenhuis Amstelland","Type":"Algemeen ziekenhuis","Plaats":"Amstelveen","Straat":"Laan van de Helende Meesters","Nummer":"8","Postcode":"1186 AM"},"geometry":{"type":"Point","coordinates":[4.87335,52.29348]}},{"type":"Feature","properties":{"Locatienummer":108402,"Organisatie":"Ziekenhuis Amstelland","Name":"Ziekenhuis Amstelland Buitenpolikliniek Uithoorn","Type":"Buitenpolikliniek","Plaats":"Uithoorn","Straat":"Koningin Máximalaan","Nummer":"30","Postcode":"1421 LC"},"geometry":{"type":"Point","coordinates":[4.8077,52.24548]}},{"type":"Feature","properties":{"Locatienummer":108501,"Organisatie":"Ziekenhuis Bernhoven","Name":"Ziekenhuis Bernhoven Oss","Type":"Buitenpolikliniek","Plaats":"Oss","Straat":"Gezondheidslaan","Nummer":"1a","Postcode":"5342 JW"},"geometry":{"type":"Point","coordinates":[5.52293,51.7577]}},{"type":"Feature","properties":{"Locatienummer":108503,"Organisatie":"Ziekenhuis Bernhoven","Name":"Ziekenhuis Bernhoven Uden","Type":"Algemeen ziekenhuis","Plaats":"Uden","Straat":"Nistelrodeseweg","Nummer":"10","Postcode":"5406 PT"},"geometry":{"type":"Point","coordinates":[5.60556,51.67379]}},{"type":"Feature","properties":{"Locatienummer":108601,"Organisatie":"Ziekenhuis De Gelderse Vallei","Name":"Ziekenhuis De Gelderse Vallei Ede","Type":"Algemeen ziekenhuis","Plaats":"Ede","Straat":"Willy Brandtlaan","Nummer":"10","Postcode":"6716 RP"},"geometry":{"type":"Point","coordinates":[5.64556,52.02244]}},{"type":"Feature","properties":{"Locatienummer":108602,"Organisatie":"Ziekenhuis De Gelderse Vallei","Name":"Ziekenhuis De Gelderse Vallei Polikliniek Barneveld","Type":"Buitenpolikliniek","Plaats":"Barneveld","Straat":"Klaverweide","Nummer":"1a","Postcode":"3773 AW"},"geometry":{"type":"Point","coordinates":[5.59909,52.13985]}},{"type":"Feature","properties":{"Locatienummer":108603,"Organisatie":"Ziekenhuis De Gelderse Vallei","Name":"Ziekenhuis De Gelderse Vallei Polikliniek Veenendaal","Type":"Buitenpolikliniek","Plaats":"Veenendaal","Straat":"Spoorlaan","Nummer":"5","Postcode":"3903 XS"},"geometry":{"type":"Point","coordinates":[5.54949,52.01841]}},{"type":"Feature","properties":{"Locatienummer":108604,"Organisatie":"Ziekenhuis De Gelderse Vallei","Name":"Ziekenhuis De Gelderse Vallei Polikliniek Wageningen","Type":"Buitenpolikliniek","Plaats":"Wageningen","Straat":"Plantsoen","Nummer":"57b","Postcode":"6701 AS"},"geometry":{"type":"Point","coordinates":[5.66475,51.96828]}},{"type":"Feature","properties":{"Locatienummer":108701,"Organisatie":"Ziekenhuis Rivierenland","Name":"Ziekenhuis Rivierenland","Type":"Algemeen ziekenhuis","Plaats":"Tiel","Straat":"Pres. Kennedylaan","Nummer":"1","Postcode":"4002 WP"},"geometry":{"type":"Point","coordinates":[5.41559,51.88936]}},{"type":"Feature","properties":{"Locatienummer":108702,"Organisatie":"Ziekenhuis Rivierenland","Name":"Ziekenhuis Rivierenland Barbara Polikliniek Culemborg","Type":"Buitenpolikliniek","Plaats":"Culemborg","Straat":"Elisabethdreef","Nummer":"4","Postcode":"4101 KL"},"geometry":{"type":"Point","coordinates":[5.22862,51.95865]}},{"type":"Feature","properties":{"Locatienummer":108703,"Organisatie":"Ziekenhuis Rivierenland","Name":"Ziekenhuis Rivierenland Waterpoort Polikliniek Beneden Leeuwen","Type":"Buitenpolikliniek","Plaats":"Beneden Leeuwen","Straat":"Beatrixstraat","Nummer":"20","Postcode":"6658 EK"},"geometry":{"type":"Point","coordinates":[5.51908,51.88161]}},{"type":"Feature","properties":{"Locatienummer":106201,"Organisatie":"Ziekenhuis St. Jansdal","Name":"Ziekenhuis St. Jansdal","Type":"Algemeen ziekenhuis","Plaats":"Harderwijk","Straat":"Weth. Jansenlaan","Nummer":"90","Postcode":"3844 DG","Routekaart":"Definitief ingeleverd"},"geometry":{"type":"Point","coordinates":[5.61609,52.342]}},{"type":"Feature","properties":{"Locatienummer":106202,"Organisatie":"Ziekenhuis St. Jansdal","Name":"Ziekenhuis St. Jansdal Polikliniek Dronten","Type":"Buitenpolikliniek","Plaats":"Dronten","Straat":"Het Zwarte Water","Nummer":"77-83","Postcode":"8253 PD","Routekaart":"Definitief ingeleverd"},"geometry":{"type":"Point","coordinates":[5.70309,52.53776]}},{"type":"Feature","properties":{"Locatienummer":106203,"Organisatie":"Ziekenhuis St. Jansdal","Name":"Ziekenhuis St. Jansdal Polikliniek Nijkerk","Type":"Buitenpolikliniek","Plaats":"Nijkerk","Straat":"Henri Nouwenstraat","Nummer":"18","Postcode":"3863 HV","Routekaart":"Definitief ingeleverd"},"geometry":{"type":"Point","coordinates":[5.46653,52.21026]}},{"type":"Feature","properties":{"Locatienummer":106204,"Organisatie":"Ziekenhuis St. Jansdal","Name":"Ziekenhuis St. Jansdal Polikliniek Putten","Type":"Buitenpolikliniek","Plaats":"Putten","Straat":"Klaas Frisohof","Nummer":"20","Postcode":"3881 SZ","Routekaart":"Definitief ingeleverd"},"geometry":{"type":"Point","coordinates":[5.6081,52.25739]}},{"type":"Feature","properties":{"Locatienummer":106206,"Organisatie":"Ziekenhuis St. Jansdal","Name":"MC Ziekenhuis St. Jansdal Lelystad","Type":"Algemeen ziekenhuis","Plaats":"Lelystad","Straat":"Ziekenhuisweg","Nummer":"100","Postcode":"8233 AA","Routekaart":"Definitief ingeleverd"},"geometry":{"type":"Point","coordinates":[5.47699,52.50428]}},{"type":"Feature","properties":{"Locatienummer":109001,"Organisatie":"Ziekenhuisgroep Twente","Name":"Ziekenhuisgroep Twente Locatie Hengelo","Type":"Algemeen ziekenhuis","Plaats":"Hengelo Ov","Straat":"Geerdinksweg","Nummer":"141","Postcode":"7555 DL","Routekaart":"Definitief ingeleverd"},"geometry":{"type":"Point","coordinates":[6.77056,52.26389]}},{"type":"Feature","properties":{"Locatienummer":109002,"Organisatie":"Ziekenhuisgroep Twente","Name":"Ziekenhuisgroep Twente Locatie Almelo","Type":"Algemeen ziekenhuis","Plaats":"Almelo","Straat":"Zilvermeeuw","Nummer":"1","Postcode":"7609 PP","Routekaart":"Definitief ingeleverd"},"geometry":{"type":"Point","coordinates":[6.6408,52.33716]}},{"type":"Feature","properties":{"Locatienummer":109005,"Organisatie":"Ziekenhuisgroep Twente","Name":"Ziekenhuisgroep Twente Buitenpolikliniek Rijssen","Type":"Buitenpolikliniek","Plaats":"Rijssen","Straat":"Wijnand Zeeuwstraat","Nummer":"26-101","Postcode":"7462 DE","Routekaart":"Definitief ingeleverd"},"geometry":{"type":"Point","coordinates":[6.51889,52.30182]}},{"type":"Feature","properties":{"Locatienummer":109007,"Organisatie":"Ziekenhuisgroep Twente","Name":"Ziekenhuisgroep Twente Buitenpost Ootmarsum","Type":"Buitenpolikliniek","Plaats":"Ootmarsum","Straat":"De Meijer","Nummer":"1","Postcode":"7631 AM","Routekaart":"Definitief ingeleverd"},"geometry":{"type":"Point","coordinates":[6.8971,52.40991]}},{"type":"Feature","properties":{"Locatienummer":109008,"Organisatie":"Ziekenhuisgroep Twente","Name":"Ziekenhuisgroep Twente Buitenpost Geesteren","Type":"Buitenpolikliniek","Plaats":"Geesteren","Straat":"De aanleg","Nummer":"17","Postcode":"7678VZ","Routekaart":"Definitief ingeleverd"},"geometry":{"type":"Point","coordinates":[6.73482,52.42087]}},{"type":"Feature","properties":{"Locatienummer":109201,"Organisatie":"Zorgpartners Friesland","Name":"Medisch Centrum Leeuwarden","Type":"Algemeen ziekenhuis","Plaats":"Leeuwarden","Straat":"H. Dunantweg","Nummer":"2","Postcode":"8934 AD"},"geometry":{"type":"Point","coordinates":[5.8065,53.18892]}},{"type":"Feature","properties":{"Locatienummer":109202,"Organisatie":"Zorgpartners Friesland","Name":"Medisch Centrum Leeuwarden Harlingen","Type":"Buitenpolikliniek","Plaats":"Harlingen","Straat":"Achlumerdijk","Nummer":"2","Postcode":"8862 AJ"},"geometry":{"type":"Point","coordinates":[5.42944,53.16218]}},{"type":"Feature","properties":{"Locatienummer":109203,"Organisatie":"Zorgpartners Friesland","Name":"De Tjongerschans Polikliniek Steenwijk","Type":"Buitenpolikliniek","Plaats":"Steenwijk","Straat":"Mr. Zigher ter Steghestraat","Nummer":"9","Postcode":"8331KG"},"geometry":{"type":"Point","coordinates":[6.11133,52.79086]}},{"type":"Feature","properties":{"Locatienummer":109204,"Organisatie":"Zorgpartners Friesland","Name":"De Tjongerschans Polikliniek Sportstad","Type":"Buitenpolikliniek","Plaats":"Heerenveen","Straat":"Abe Lenstra Boulevard","Nummer":"21","Postcode":"8448 JA"},"geometry":{"type":"Point","coordinates":[5.93558,52.95808]}},{"type":"Feature","properties":{"Locatienummer":109205,"Organisatie":"Zorgpartners Friesland","Name":"De Tjongerschans Polikliniek Lemmer","Type":"Buitenpolikliniek","Plaats":"Lemmer","Straat":"Van Rijgersmapark","Nummer":"1","Postcode":"8531 JA"},"geometry":{"type":"Point","coordinates":[5.69805,52.84605]}},{"type":"Feature","properties":{"Locatienummer":109206,"Organisatie":"Zorgpartners Friesland","Name":"De Tjongerschans Heerenveen","Type":"Algemeen ziekenhuis","Plaats":"Heerenveen","Straat":"Thialfweg","Nummer":"44","Postcode":"8441 PW"},"geometry":{"type":"Point","coordinates":[5.9177,52.96615]}},{"type":"Feature","properties":{"Locatienummer":108801,"Organisatie":"ZorgSaam Zeeuws-Vlaanderen","Name":"Zorgsaam Zeeuw-Vlaanderen Locatie De Honte","Type":"Algemeen ziekenhuis","Plaats":"Terneuzen","Straat":"Wielingenlaan","Nummer":"2","Postcode":"4535 PA"},"geometry":{"type":"Point","coordinates":[3.86135,51.30896]}},{"type":"Feature","properties":{"Locatienummer":108802,"Organisatie":"ZorgSaam Zeeuws-Vlaanderen","Name":"Zorgsaam Zeeuw-Vlaanderen Locatie Antonius","Type":"Algemeen ziekenhuis","Plaats":"Oostburg","Straat":"Pastoor van Genklaan","Nummer":"6","Postcode":"4501 AJ"},"geometry":{"type":"Point","coordinates":[3.48186,51.325]}},{"type":"Feature","properties":{"Locatienummer":108803,"Organisatie":"ZorgSaam Zeeuws-Vlaanderen","Name":"Zorgsaam Zeeuw-Vlaanderen Locatie Liduina","Type":"Buitenpolikliniek","Plaats":"Hulst","Straat":"Lyceumstraat","Nummer":"20","Postcode":"4561 HV"},"geometry":{"type":"Point","coordinates":[4.05071,51.28701]}},{"type":"Feature","properties":{"Locatienummer":108805,"Organisatie":"ZorgSaam Zeeuws-Vlaanderen","Name":"Zorgsaam Zeeuw-Vlaanderen Cardiologie centrum Middelburg","Type":"Buitenpolikliniek","Plaats":"Middelburg","Straat":"Buitenruststraat","Nummer":"16","Postcode":"4337 EH"},"geometry":{"type":"Point","coordinates":[3.61789,51.49198]}},{"type":"Feature","properties":{"Locatienummer":100701,"Organisatie":"Zuyderland Medisch Centrum","Name":"Zuyderland Medisch Centrum Heerlen","Type":"Algemeen ziekenhuis","Plaats":"Heerlen","Straat":"H. Dunantstraat","Nummer":"5","Postcode":"6419 PC"},"geometry":{"type":"Point","coordinates":[5.97689,50.86866]}},{"type":"Feature","properties":{"Locatienummer":100702,"Organisatie":"Zuyderland Medisch Centrum","Name":"Zuyderland Medisch Centrum Brunssum","Type":"Buitenpolikliniek","Plaats":"Brunssum","Straat":"Prins Hendriklaan","Nummer":"376","Postcode":"6443 AE"},"geometry":{"type":"Point","coordinates":[5.97839,50.94171]}},{"type":"Feature","properties":{"Locatienummer":100703,"Organisatie":"Zuyderland Medisch Centrum","Name":"Zuyderland Medisch Centrum Kerkrade","Type":"Buitenpolikliniek","Plaats":"Kerkrade","Straat":"Wijngracht","Nummer":"45","Postcode":"6461 AL"},"geometry":{"type":"Point","coordinates":[6.06096,50.86613]}},{"type":"Feature","properties":{"Locatienummer":100704,"Organisatie":"Zuyderland Medisch Centrum","Name":"Zuyderland Medisch Centrum Sittard-Geleen","Type":"Algemeen ziekenhuis","Plaats":"Sittard-Geleen","Straat":"Dr. H. van der Hoffplein","Nummer":"1","Postcode":"6162 BG"},"geometry":{"type":"Point","coordinates":[5.84459,50.98319]}},{"type":"Feature","properties":{"Locatienummer":100705,"Organisatie":"Zuyderland Medisch Centrum","Name":"Zuyderland Medisch Centrum Buitenpoli De Egthe","Type":"Buitenpolikliniek","Plaats":"Echt","Straat":"De Egthe","Nummer":"1","Postcode":"6101 EX"},"geometry":{"type":"Point","coordinates":[5.87351,51.10564]}},{"type":"Feature","properties":{"Locatienummer":200001,"Organisatie":"Universitair Medisch Centrum St. Radboud","Name":"Radboud UMC Dekkerswald","Type":"Algemeen ziekenhuis","Straat":"Nijmeegsebaan","Nummer":"31","Postcode":"6561 KE"},"geometry":{"type":"Point","coordinates":[5.89496,51.8015]}}]}